{"type":"FeatureCollection","features":[{"type":"Feature","properties":{"town":"宜蘭市","oldShare2019":45.54,"oldUnits2019":18405,"score":59.6},"geometry":{"type":"MultiPolygon","coordinates":[[[[121.77199303600004,24.771527586000047],[121.78669066000008,24.76200136100005],[121.78321097500007,24.748810505000048],[121.77366200800007,24.720253020000087],[121.75918687600006,24.722352365000063],[121.736399956,24.72549311700004],[121.74052580500006,24.74162962400004],[121.72871806,24.758006881000085],[121.734249138,24.773467271000072],[121.74308471100004,24.777422954000087],[121.75419870000007,24.780988918000048],[121.76369016800004,24.77825447500004],[121.77199303600004,24.771527586000047]]]]}},{"type":"Feature","properties":{"town":"羅東鎮","oldShare2019":49.71,"oldUnits2019":13625,"score":60},"geometry":{"type":"MultiPolygon","coordinates":[[[[121.80243214100004,24.67032654900004],[121.79223093500002,24.66448679800004],[121.78039510800012,24.66578165000004],[121.76956596300012,24.668957938000062],[121.75964121200002,24.666920034000043],[121.75312281200002,24.671589288000064],[121.74908414400012,24.67788157600006],[121.75104481900009,24.691448092000087],[121.75965125300002,24.70384093700005],[121.76310632000002,24.692727569000056],[121.77494503800006,24.686070199000085],[121.782687097,24.67873600100006],[121.80243214100004,24.67032654900004]]]]}},{"type":"Feature","properties":{"town":"礁溪鄉","oldShare2019":40.9,"oldUnits2019":9438,"score":18.7},"geometry":{"type":"MultiPolygon","coordinates":[[[[121.816597054,24.807709075000048],[121.7842775900001,24.78714111000005],[121.76167429500003,24.78252203000005],[121.73133397200002,24.78447494000005],[121.69759872100008,24.782858016000088],[121.6487953620001,24.794391223000048],[121.65081750000002,24.81268178500005],[121.6889959240001,24.819489653000065],[121.71049690400002,24.840922401000057],[121.745007816,24.85279646300006],[121.77627865,24.854856811000047],[121.796946467,24.827970640000046],[121.816597054,24.807709075000048]]]]}},{"type":"Feature","properties":{"town":"員山鄉","oldShare2019":50.65,"oldUnits2019":6038,"score":40.9},"geometry":{"type":"MultiPolygon","coordinates":[[[[121.73368127600008,24.768517648000056],[121.74135759400008,24.74470705400006],[121.74663970000006,24.72355270900005],[121.74067313100012,24.711229844000055],[121.70165087600004,24.702009617000044],[121.64832306700008,24.69307730900005],[121.63050215700002,24.689077042000065],[121.60713520500008,24.702171795000083],[121.59180546700009,24.743955],[121.60333352600004,24.789417082000057],[121.654742124,24.79319048800005],[121.68918570700008,24.784273046000067],[121.73368127600008,24.768517648000056]]]]}},{"type":"Feature","properties":{"town":"三星鄉","oldShare2019":47.93,"oldUnits2019":4276,"score":27.6},"geometry":{"type":"MultiPolygon","coordinates":[[[[121.75740826600008,24.706797769000048],[121.73257087400007,24.690305858000045],[121.733292494,24.66896607800004],[121.69997369500004,24.65712920900006],[121.70170427300002,24.641997640000056],[121.6644927000001,24.63610747300004],[121.625629021,24.63512445400005],[121.59922687200005,24.63160460100005],[121.58654977000003,24.657248836000065],[121.63222291700004,24.681268498000065],[121.67838907200009,24.70265657600004],[121.72459412500008,24.702895501000057],[121.75740826600008,24.706797769000048]]]]}},{"type":"Feature","properties":{"town":"冬山鄉","oldShare2019":55.69,"oldUnits2019":11921,"score":59.7},"geometry":{"type":"MultiPolygon","coordinates":[[[[121.75112031700009,24.693860188000087],[121.75794236600008,24.66676966600005],[121.79164306100006,24.665376838000043],[121.81254873900002,24.654023736000056],[121.81370666600004,24.622472694000063],[121.78071198100008,24.607015962000048],[121.75201672600008,24.614089531000047],[121.73890706000007,24.61685393100004],[121.70876036200002,24.622420542000043],[121.69487791300004,24.64204102900004],[121.70251714600012,24.65801357500004],[121.72399575000009,24.676126795000076],[121.75112031700009,24.693860188000087]]]]}},{"type":"Feature","properties":{"town":"大同鄉","oldShare2019":56.31,"oldUnits2019":656,"score":32.4},"geometry":{"type":"MultiPolygon","coordinates":[[[[121.58703876900006,24.720111153000065],[121.593791742,24.66513081900007],[121.62900828400008,24.63915602900005],[121.711184924,24.619387137000047],[121.75109823900004,24.57167446400007],[121.664273568,24.538751450000063],[121.62117897000007,24.47527246800007],[121.52857723400008,24.460725857000057],[121.39060970100002,24.375349798000055],[121.3529211,24.48551804600004],[121.40907927700005,24.58138650500007],[121.4812673460001,24.674323421000054],[121.58703876900006,24.720111153000065]]]]}},{"type":"Feature","properties":{"town":"頭城鎮","oldShare2019":63.17,"oldUnits2019":8036,"score":75.7},"geometry":{"type":"MultiPolygon","coordinates":[[[[121.95970845500005,24.84493697000005],[121.96373037,24.840813863000047],[121.96357514300009,24.83698184700006],[121.95705749400008,24.83682209600005],[121.94571855200002,24.835519909000084],[121.93830416100002,24.842352537000068],[121.93605203800008,24.847004928000047],[121.94241569500002,24.844424324000045],[121.94699113900003,24.85040016000005],[121.95178494800008,24.851620576000077],[121.95617179700004,24.850652514000046],[121.95970845500005,24.84493697000005]]],[[[121.9605876060001,24.98822238800005],[121.91897986000004,24.95454358700005],[121.87790247300006,24.911125298000055],[121.821613996,24.815480250000064],[121.79439873800004,24.831239451000044],[121.7651969960001,24.851885276000075],[121.76742819000005,24.864809659000056],[121.78790826700003,24.89276866700004],[121.82132994900007,24.90388867400009],[121.84903418400006,24.93188512000006],[121.85977469600004,24.96349129500004],[121.91307863300005,24.97847532300005],[121.9605876060001,24.98822238800005]]]]}},{"type":"Feature","properties":{"town":"壯圍鄉","oldShare2019":51.79,"oldUnits2019":4554,"score":37.8},"geometry":{"type":"MultiPolygon","coordinates":[[[[121.81149443900006,24.807994980000046],[121.81867084300006,24.792527374000088],[121.81844432300012,24.765787828000043],[121.82158779000008,24.745660831000063],[121.83305431400004,24.719586405000086],[121.80707030000008,24.712418523000053],[121.77453442800004,24.72355993700006],[121.78314569300004,24.74868387500004],[121.787582648,24.76082724400004],[121.77127563300007,24.76868022700006],[121.78586931700012,24.787199886000053],[121.800617913,24.794221117000063],[121.81149443900006,24.807994980000046]]]]}},{"type":"Feature","properties":{"town":"南澳鄉","oldShare2019":62.14,"oldUnits2019":668,"score":43.7},"geometry":{"type":"MultiPolygon","coordinates":[[[[121.73261038700002,24.621446456000054],[121.76045998300005,24.61782885300005],[121.81469970300007,24.55897924000004],[121.81207290700002,24.47075998400004],[121.70089427100004,24.331880937000047],[121.624008334,24.35567447200009],[121.60054799300008,24.32400294000007],[121.48927112,24.34513162400009],[121.51083670500007,24.457429647000083],[121.62131309200004,24.467364518000068],[121.66130427100006,24.52475225200004],[121.730036423,24.570746661000044],[121.73261038700002,24.621446456000054]]]]}},{"type":"Feature","properties":{"town":"五結鄉","oldShare2019":47.04,"oldUnits2019":8344,"score":36.3},"geometry":{"type":"MultiPolygon","coordinates":[[[[121.7475151458074,24.71847866885551],[121.78156898771864,24.715145290322933],[121.82465283595968,24.716200470275503],[121.8374608447423,24.691018559059337],[121.8413890528626,24.657076669252927],[121.83479132955632,24.645147459088086],[121.8154012879392,24.653665501162],[121.81196573742888,24.666966216118087],[121.79990746735578,24.672486299802905],[121.77620408115352,24.683754428224358],[121.76398190514092,24.696588323991985],[121.75531780327404,24.709906918369654],[121.7475151458074,24.71847866885551]]]]}},{"type":"Feature","properties":{"town":"蘇澳鎮","oldShare2019":71.28,"oldUnits2019":11212,"score":100},"geometry":{"type":"MultiPolygon","coordinates":[[[[121.8181383188285,24.655606992668677],[121.8529019012018,24.62701217317332],[121.87855519476648,24.59873863198228],[121.8694472316046,24.570784568653007],[121.83827602621776,24.505730841305347],[121.81462881526777,24.44636899513305],[121.8147508145985,24.473312392253103],[121.84684438805807,24.53162808137091],[121.82184099856332,24.5522573905662],[121.81477284259267,24.580535995839544],[121.8069198932385,24.608613284275734],[121.8246696775636,24.638993162704377],[121.8181383188285,24.655606992668677]]]]}}]}