{"type":"FeatureCollection","name":"施工案件","features":[{"type":"Feature","geometry":{"type":"Polygon","coordinates":[[[121.75033075177988,24.673151318897176],[121.75030556136016,24.673109124721332],[121.75041064485731,24.67304739801684],[121.75044292182882,24.673083046483573],[121.75033075177988,24.673151318897176]]]},"properties":{"event_id":"58760","project_name":"台電管路新增設工程-工二課(2260072-2260073)","location":"北投路115號","road_name":"北投","unit":"台灣電力股份有限公司宜蘭區營業處","purpose":"管路埋設、孔蓋升降","event_type":"管線工程","start_date":"2026-05-04T00:00:00","end_date":"2026-09-24T00:00:00","source_crs":"EPSG:3826","geometry_method":"yilan_gml_polygon","source_url":"https://cdn.odportal.tw/api/v1/resourcedata/DSNTMGUM/61b504bb6e97860024674b09.csv?251125","road_id":"","highway":"","road_distance_m":null}},{"type":"Feature","geometry":{"type":"MultiPolygon","coordinates":[[[[121.75297694518152,24.799034925172073],[121.75297132755298,24.79903247793009],[121.75296810562845,24.799037773785418],[121.75297354226166,24.799040056723737],[121.75297694518152,24.799034925172073]]],[[[121.75315838764898,24.801020160456897],[121.75314733523902,24.801022152619222],[121.75315102426015,24.801029500992147],[121.75315999479454,24.801027519308676],[121.75315838764898,24.801020160456897]]],[[[121.75309323879829,24.801031380788917],[121.75308488256954,24.801033544452952],[121.75308678307465,24.801040184996822],[121.75309545313534,24.801038726654493],[121.75309323879829,24.801031380788917]]],[[[121.75298187464986,24.80105616368098],[121.7529831710616,24.8010608752497],[121.75298813791363,24.801059870704375],[121.75298723270245,24.801055246545378],[121.75298187464986,24.80105616368098]]],[[[121.75292957197296,24.801103822671607],[121.75293141490867,24.801108628994317],[121.75293569311822,24.80110725234636],[121.75293500799995,24.801103042372805],[121.75292957197296,24.801103822671607]]]]},"properties":{"event_id":"59663","project_name":"115年度深溝給水廠表位維護暨閥栓盒蓋升降換修","location":"柴圍路35號","road_name":"柴圍、鄉道宜5-1線","unit":"自來水公司第八區管理處深溝給水廠","purpose":"辦理礁溪地區柴圍路與四結路水壓低供水調控","event_type":"管線工程","start_date":"2026-07-13T00:00:00","end_date":"2026-07-16T00:00:00","source_crs":"EPSG:3826","geometry_method":"yilan_gml_polygon","source_url":"https://cdn.odportal.tw/api/v1/resourcedata/DSNTMGUM/61b504bb6e97860024674b09.csv?251125","road_id":"","highway":"","road_distance_m":null}},{"type":"Feature","geometry":{"type":"Polygon","coordinates":[[[121.77693759292283,24.679201375817122],[121.77694242703934,24.67908744258496],[121.7772969529288,24.679075482813897],[121.77726990919531,24.679181936463774],[121.77693759292283,24.679201375817122]]]},"properties":{"event_id":"59417","project_name":"台電管路新增設工程-工二課(3260177-3260178)","location":"東宜三路5號","road_name":"東宜三","unit":"台灣電力股份有限公司宜蘭區營業處","purpose":"孔蓋升降","event_type":"管線工程","start_date":"2026-06-29T00:00:00","end_date":"2026-09-24T00:00:00","source_crs":"EPSG:3826","geometry_method":"yilan_gml_polygon","source_url":"https://cdn.odportal.tw/api/v1/resourcedata/DSNTMGUM/61b504bb6e97860024674b09.csv?251125","road_id":"","highway":"","road_distance_m":null}},{"type":"Feature","geometry":{"type":"MultiPolygon","coordinates":[[[[121.7966488998789,24.849887163051427],[121.79668280835087,24.84989316281776],[121.79667918415784,24.84985609694024],[121.79664191868801,24.849854750045033],[121.7966488998789,24.849887163051427]]],[[[121.79727171517014,24.850735607897686],[121.79726300030025,24.850697023614426],[121.7972342107688,24.850697177235986],[121.79724124267335,24.850737316093987],[121.79727171517014,24.850735607897686]]],[[[121.79721426581936,24.85075600263679],[121.79721232439215,24.8507173822085],[121.79718353584505,24.85071753581513],[121.7971837636073,24.850753075104965],[121.79721426581936,24.85075600263679]]],[[[121.79725631567644,24.850975201850314],[121.79728679714808,24.85097503919451],[121.79728489629599,24.850942599116895],[121.79725610769727,24.850942752738803],[121.79725631567644,24.850975201850314]]],[[[121.79735967551669,24.850983922023953],[121.7973611415562,24.850948373696973],[121.79732728228382,24.850950099083523],[121.79732751999644,24.850987183910675],[121.79735967551669,24.850983922023953]]],[[[121.79741770972963,24.85123084931405],[121.79741069755168,24.851193801548295],[121.79737852216962,24.85119397327078],[121.79738384047975,24.851231030078434],[121.79741770972963,24.85123084931405]]],[[[121.79752651634078,24.851355261112598],[121.79755701870694,24.851358188570316],[121.79756355438653,24.85132106849174],[121.79752799224326,24.851321258326323],[121.79752651634078,24.851355261112598]]],[[[121.79756443616748,24.85145858900695],[121.7975641983849,24.851421505087057],[121.79753032908432,24.851421685885946],[121.79752716031025,24.85145569770837],[121.79756443616748,24.85145858900695]]],[[[121.797735291309,24.85160481777184],[121.7977350732925,24.851570824030222],[121.79768937961066,24.851575703874964],[121.79768956788554,24.851605061901495],[121.797735291309,24.85160481777184]]],[[[121.79775169260061,24.851785522966342],[121.79778556199841,24.851785342114805],[121.79778873070154,24.851751329387174],[121.79775655418882,24.851751501199953],[121.79775169260061,24.851785522966342]]],[[[121.79798131225168,24.85194036542181],[121.79798278802602,24.85190636173385],[121.79795062138975,24.85190807912866],[121.79795421630523,24.85194051014211],[121.79798131225168,24.85194036542181]]],[[[121.79807414062013,24.852155000302066],[121.79807390267226,24.852117915487472],[121.79803496248164,24.85211966908406],[121.79803519050174,24.852155208359843],[121.79807414062013,24.852155000302066]]],[[[121.79816287536447,24.852259602160522],[121.79820182551434,24.852259394068643],[121.79821003507452,24.852219173841938],[121.79816092368777,24.852219436221134],[121.79816287536447,24.852259602160522]]],[[[121.79841955559381,24.852626663849467],[121.79841926255997,24.852581014479743],[121.79836923285693,24.852581281837832],[121.79837217412303,24.85262931940453],[121.79841955559381,24.852626663849467]]],[[[121.79922632603838,24.85378309758971],[121.79922863467247,24.853732629621007],[121.79918120649161,24.853728077744666],[121.7991762495475,24.853776157532405],[121.79922632603838,24.85378309758971]]],[[[121.79926998521701,24.854020726211225],[121.79931210146998,24.854018098532656],[121.79931179265103,24.85397004691654],[121.79926702811754,24.853970286415706],[121.79926998521701,24.854020726211225]]],[[[121.79939410241533,24.854348691684688],[121.7993937781193,24.854298237806965],[121.79934376317723,24.854300907773357],[121.79935987119181,24.85434887485066],[121.79939410241533,24.854348691684688]]],[[[121.79946691302054,24.854614996006188],[121.79946660413914,24.8545669452985],[121.79941922196272,24.85456960120295],[121.79943006331013,24.85461759645247],[121.79946691302054,24.854614996006188]]],[[[121.7994047508658,24.85477630667906],[121.79944950024574,24.854773664866883],[121.79944917591514,24.854723210089947],[121.79940444200032,24.85472825506892],[121.7994047508658,24.85477630667906]]],[[[121.79960208565004,24.85502405827074],[121.79959652540683,24.854978438021536],[121.79954387731816,24.854981122153685],[121.79954418624105,24.855029173760567],[121.79960208565004,24.85502405827074]]],[[[121.79960191928791,24.855362298959047],[121.79964669976509,24.85536446161122],[121.79964903913692,24.85531879908133],[121.79960952543951,24.855316608238887],[121.79960689255257,24.85531662233154],[121.79960191928791,24.855362298959047]]],[[[121.79971196724401,24.85568606733037],[121.79975938073939,24.85568821675377],[121.79975374413638,24.855630583385548],[121.79970639147602,24.855638044826936],[121.79971196724401,24.85568606733037]]],[[[121.79985366093551,24.85601687500357],[121.79985338278644,24.855973628837205],[121.79981126687787,24.855976256678726],[121.79981416246399,24.856017086485],[121.79985366093551,24.85601687500357]]],[[[121.80026628277021,24.857209582769183],[121.80024483085228,24.857149631816533],[121.80020545570368,24.857169063322278],[121.80022684576512,24.85721940432501],[121.80026628277021,24.857209582769183]]]]},"properties":{"event_id":"59799","project_name":"頭城鎮宜三路二段215號至360號光纜建設_NHG540292","location":"宜三路2段215號","road_name":"宜三、鄉道宜3線","unit":"中華電信宜蘭營運處","purpose":"光纜建設、寬頻供裝","event_type":"管線工程","start_date":"2026-07-27T00:00:00","end_date":"2026-08-28T00:00:00","source_crs":"EPSG:3826","geometry_method":"yilan_gml_polygon","source_url":"https://cdn.odportal.tw/api/v1/resourcedata/DSNTMGUM/61b504bb6e97860024674b09.csv?251125","road_id":"","highway":"","road_distance_m":null}},{"type":"Feature","geometry":{"type":"Polygon","coordinates":[[[121.76897918924554,24.67887300368313],[121.76897256245047,24.678862247969814],[121.76898765824363,24.678863369620167],[121.76897918924554,24.67887300368313]]]},"properties":{"event_id":"60586","project_name":"羅東公正路纜線訊號障礙管道及手孔提升調降工程","location":"公正路158號","road_name":"公正","unit":"新世紀資通股份有限公司","purpose":"訊號改善","event_type":"管線工程","start_date":"2026-09-16T00:00:00","end_date":"2026-09-18T00:00:00","source_crs":"EPSG:3826","geometry_method":"yilan_gml_polygon","source_url":"https://cdn.odportal.tw/api/v1/resourcedata/DSNTMGUM/61b504bb6e97860024674b09.csv?251125","road_id":"","highway":"","road_distance_m":null}},{"type":"Feature","geometry":{"type":"Polygon","coordinates":[[[121.79789298899792,24.62820639517241],[121.79785487449826,24.628181473538007],[121.79792239146133,24.62809617300823],[121.79795857571548,24.628126488416115],[121.7978929927982,24.628206993725623],[121.79789298899792,24.62820639517241]]]},"properties":{"event_id":"58825","project_name":"倉運股份有限公司住宅新建埋設污水管線工程","location":"香和路115號","road_name":"香和","unit":"昱閎工程有限公司","purpose":"污水接入既有人孔管線挖掘","event_type":"管線工程","start_date":"2026-04-27T00:00:00","end_date":"2026-06-30T00:00:00","source_crs":"EPSG:3826","geometry_method":"yilan_gml_polygon","source_url":"https://cdn.odportal.tw/api/v1/resourcedata/DSNTMGUM/61b504bb6e97860024674b09.csv?251125","road_id":"","highway":"","road_distance_m":null}},{"type":"Feature","geometry":{"type":"MultiPolygon","coordinates":[[[[121.74901017907689,24.67182373459794],[121.74898252695733,24.67181756352718],[121.74897160173019,24.671837805222335],[121.74899099212018,24.6718478021438],[121.74901017907689,24.67182373459794]]],[[[121.74889362984082,24.671960580359006],[121.74888393513432,24.671955581890046],[121.74886056780362,24.671973362207588],[121.74888133189359,24.671982091044377],[121.74889362984082,24.671960580359006]]]]},"properties":{"event_id":"59798","project_name":"冬山鄉廣安路69巷15號至23號修繕管道(NH1569312)","location":"廣安路69巷15號","road_name":"廣安","unit":"中華電信宜蘭營運處","purpose":"佈纜時發現管障，需修繕管道","event_type":"管線工程","start_date":"2026-07-06T00:00:00","end_date":"2026-07-31T00:00:00","source_crs":"EPSG:3826","geometry_method":"yilan_gml_polygon","source_url":"https://cdn.odportal.tw/api/v1/resourcedata/DSNTMGUM/61b504bb6e97860024674b09.csv?251125","road_id":"","highway":"","road_distance_m":null}},{"type":"Feature","geometry":{"type":"MultiPolygon","coordinates":[[[[121.78033371880753,24.63445943215738],[121.78033224444728,24.634445488416908],[121.78031425446048,24.634453191703276],[121.7803185032491,24.634467121046878],[121.78033371880753,24.63445943215738]]],[[[121.78014472740244,24.63449615932253],[121.78013354796222,24.63448353440251],[121.78011138794069,24.634489990826452],[121.78011701654157,24.634502644545343],[121.78014472740244,24.63449615932253]]]]},"properties":{"event_id":"59189","project_name":"台電遷移工程(4260252-5JC6003)-工二課","location":"楓橋路41巷33號","road_name":"楓橋","unit":"台灣電力股份有限公司宜蘭區營業處","purpose":"台電遷移工程","event_type":"管線工程","start_date":"2026-06-08T00:00:00","end_date":"2026-07-24T00:00:00","source_crs":"EPSG:3826","geometry_method":"yilan_gml_polygon","source_url":"https://cdn.odportal.tw/api/v1/resourcedata/DSNTMGUM/61b504bb6e97860024674b09.csv?251125","road_id":"","highway":"","road_distance_m":null}},{"type":"Feature","geometry":{"type":"MultiPolygon","coordinates":[[[[121.75504102758045,24.810797828170035],[121.75503784914615,24.81079956045511],[121.75503990942863,24.810802162788008],[121.755043089214,24.810800653490144],[121.75504102758045,24.810797828170035]]],[[[121.75505478814873,24.810801403356518],[121.7550514585457,24.810802836672003],[121.75505333787937,24.810805448946162],[121.7550563567718,24.810804158037357],[121.75505478814873,24.810801403356518]]],[[[121.75503045957542,24.810819014489102],[121.7550288295743,24.810816251089694],[121.75502504276297,24.81081748267727],[121.7550270510612,24.810820157497528],[121.75503036462258,24.81081901496837],[121.75503045957542,24.810819014489102]]],[[[121.75501104792846,24.810824218761],[121.75500710151,24.810826044299905],[121.75500910256156,24.810829645440066],[121.7550132131694,24.810827819072383],[121.75501104792846,24.810824218761]]]]},"properties":{"event_id":"60034","project_name":"115年度深溝給水廠表位維護暨閥栓盒蓋升降換修","location":"柴圍路","road_name":"柴圍、鄉道宜5線","unit":"自來水公司第八區管理處深溝給水廠","purpose":"礁溪地區流量計檢修辦理閥盒提升(林美小區)","event_type":"管線工程","start_date":"2026-08-10T00:00:00","end_date":"2026-08-13T00:00:00","source_crs":"EPSG:3826","geometry_method":"yilan_gml_polygon","source_url":"https://cdn.odportal.tw/api/v1/resourcedata/DSNTMGUM/61b504bb6e97860024674b09.csv?251125","road_id":"","highway":"","road_distance_m":null}},{"type":"Feature","geometry":{"type":"Polygon","coordinates":[[[121.75046480312612,24.750291044043625],[121.75046188003301,24.75026574547638],[121.7504951419277,24.750265578899793],[121.7504952939439,24.750290891344243],[121.75047590562352,24.750293519040866],[121.75047592082585,24.75029605046587],[121.75046480312612,24.750291044043625]]]},"properties":{"event_id":"52156","project_name":"路面破損","location":"神農路2段3號","road_name":"神農、鄉道宜17線","unit":"台灣電力股份有限公司宜蘭區營業處","purpose":"路面修復","event_type":"管線工程","start_date":"2024-08-22T00:00:00","end_date":"2024-08-22T00:00:00","source_crs":"EPSG:3826","geometry_method":"yilan_gml_polygon","source_url":"https://cdn.odportal.tw/api/v1/resourcedata/DSNTMGUM/61b504bb6e97860024674b09.csv?251125","road_id":"","highway":"","road_distance_m":null}},{"type":"Feature","geometry":{"type":"Polygon","coordinates":[[[121.81081872545825,24.818111299763107],[121.81081710682265,24.81807583476619],[121.81086566450972,24.818071770703405],[121.8108687131399,24.818113562903008],[121.81081872545825,24.818111299763107]]]},"properties":{"event_id":"55674","project_name":"電纜事故孔蓋提升(緊急搶修補申請挖掘)","location":"大路大塭橋前號","road_name":"大、鄉道宜4線","unit":"台灣電力股份有限公司宜蘭區營業處","purpose":"電纜事故孔蓋提升(緊急搶修補申請挖掘)","event_type":"管線工程","start_date":"2025-06-04T00:00:00","end_date":"2025-06-04T00:00:00","source_crs":"EPSG:3826","geometry_method":"yilan_gml_polygon","source_url":"https://cdn.odportal.tw/api/v1/resourcedata/DSNTMGUM/61b504bb6e97860024674b09.csv?251125","road_id":"","highway":"","road_distance_m":null}},{"type":"Feature","geometry":{"type":"Polygon","coordinates":[[[121.76345199026805,24.675699868593938],[121.76325960687304,24.67572426027491],[121.76322694895809,24.675592799786838],[121.7632726028548,24.675583708355624],[121.76329739565377,24.675674708081733],[121.76344950407322,24.675632802247364],[121.76345199026805,24.675699868593938]]]},"properties":{"event_id":"59035","project_name":"台電管路新增設工程-工二課(3260266-3260267)","location":"純精路二段53號","road_name":"純精","unit":"台灣電力股份有限公司宜蘭區營業處","purpose":"管路埋設、新設手孔","event_type":"管線工程","start_date":"2026-06-08T00:00:00","end_date":"2026-09-24T00:00:00","source_crs":"EPSG:3826","geometry_method":"yilan_gml_polygon","source_url":"https://cdn.odportal.tw/api/v1/resourcedata/DSNTMGUM/61b504bb6e97860024674b09.csv?251125","road_id":"","highway":"","road_distance_m":null}},{"type":"Feature","geometry":{"type":"Polygon","coordinates":[[[121.8311970305734,24.622506461913247],[121.83115281563703,24.622499136064828],[121.83115005533193,24.622499151316404],[121.83115519219928,24.622441084158265],[121.8311910761487,24.622440885882973],[121.8311970305734,24.622506461913247]]]},"properties":{"event_id":"57879","project_name":"蘇澳鎮馬賽路340巷7號前升降孔蓋(NH1469316)","location":"馬賽路340巷7號","road_name":"馬賽","unit":"中華電信宜蘭營運處","purpose":"用戶電障，需提升孔蓋查測線路。","event_type":"管線工程","start_date":"2026-05-04T00:00:00","end_date":"2026-05-29T00:00:00","source_crs":"EPSG:3826","geometry_method":"yilan_gml_polygon","source_url":"https://cdn.odportal.tw/api/v1/resourcedata/DSNTMGUM/61b504bb6e97860024674b09.csv?251125","road_id":"","highway":"","road_distance_m":null}},{"type":"Feature","geometry":{"type":"MultiPolygon","coordinates":[[[[121.52944688768162,24.59967738025108],[121.52939161924039,24.599675048419655],[121.52939729389934,24.599710394439555],[121.52944708961626,24.599725376545035],[121.52944688768162,24.59967738025108]]],[[[121.52965689709482,24.599684220098208],[121.52959340460306,24.599697074510587],[121.52960190604585,24.599747566907656],[121.52964890696146,24.599754980161553],[121.52965689709482,24.599684220098208]]]]},"properties":{"event_id":"60515","project_name":"大同鄉碼崙路28號附近升降孔蓋(NH1569033)","location":"碼崙路28號","road_name":"碼崙","unit":"中華電信宜蘭營運處","purpose":"用戶申裝網路","event_type":"管線工程","start_date":"2026-09-01T00:00:00","end_date":"2026-09-21T00:00:00","source_crs":"EPSG:3826","geometry_method":"yilan_gml_polygon","source_url":"https://cdn.odportal.tw/api/v1/resourcedata/DSNTMGUM/61b504bb6e97860024674b09.csv?251125","road_id":"","highway":"","road_distance_m":null}},{"type":"Feature","geometry":{"type":"Polygon","coordinates":[[[121.82178085279848,24.853582981648557],[121.82163128666474,24.85340915127044],[121.8216561699435,24.85339635812733],[121.82181677385762,24.853561268630152],[121.82178085279848,24.853582981648557]]]},"properties":{"event_id":"59630","project_name":"台電管路新增設工程-工一課(4260415-4260416)","location":"開蘭東路5巷3號","road_name":"開蘭東","unit":"台灣電力股份有限公司宜蘭區營業處","purpose":"孔蓋升降","event_type":"管線工程","start_date":"2026-08-03T00:00:00","end_date":"2026-08-20T00:00:00","source_crs":"EPSG:3826","geometry_method":"yilan_gml_polygon","source_url":"https://cdn.odportal.tw/api/v1/resourcedata/DSNTMGUM/61b504bb6e97860024674b09.csv?251125","road_id":"","highway":"","road_distance_m":null}},{"type":"Feature","geometry":{"type":"Polygon","coordinates":[[[121.86565887879941,24.583230380858208],[121.86566948123487,24.58316197548638],[121.86597834464305,24.583193105819525],[121.86597883201415,24.58326397895113],[121.86565887879941,24.583230380858208]]]},"properties":{"event_id":"59414","project_name":"台電管路遷移工程-工二課(4260339-4260340)","location":"海邊路117號","road_name":"海邊","unit":"台灣電力股份有限公司宜蘭區營業處","purpose":"管路埋設、孔蓋升降","event_type":"管線工程","start_date":"2026-07-06T00:00:00","end_date":"2026-07-31T00:00:00","source_crs":"EPSG:3826","geometry_method":"yilan_gml_polygon","source_url":"https://cdn.odportal.tw/api/v1/resourcedata/DSNTMGUM/61b504bb6e97860024674b09.csv?251125","road_id":"","highway":"","road_distance_m":null}},{"type":"Feature","geometry":{"type":"MultiPolygon","coordinates":[[[[121.76459020636237,24.675363425145147],[121.76455371261294,24.675365994381664],[121.76456309417019,24.675407646293],[121.76459566811522,24.675403906183444],[121.76459020636237,24.675363425145147]]],[[[121.76468141350091,24.67563778425152],[121.76464886030524,24.675645098558032],[121.7646608129821,24.67568078053308],[121.76469987062083,24.67567105055154],[121.76468141350091,24.67563778425152]]],[[[121.76477481401824,24.675772735085452],[121.76474228259146,24.675783623584685],[121.76475294564973,24.675821694671914],[121.7647868176099,24.675816757083933],[121.76477481401824,24.675772735085452]]],[[[121.7649062752458,24.67630463553452],[121.76491687398094,24.676331984085742],[121.7649403217539,24.67632829037821],[121.7649323168634,24.676298545160723],[121.7649062752458,24.67630463553452]]],[[[121.76513306500505,24.677002056122014],[121.76514235965067,24.677029411296687],[121.7651749131715,24.677022096876517],[121.7651656112473,24.676993550012735],[121.76513306500505,24.677002056122014]]]]},"properties":{"event_id":"60165","project_name":"宜蘭縣羅東地區污水下水道系統興建營運轉移","location":"忠孝路35-1號","road_name":"忠孝","unit":"東山林開發事業股份有限公司","purpose":"115年度管線TV檢視管線提升人孔","event_type":"管線工程","start_date":"2026-08-17T00:00:00","end_date":"2026-09-24T00:00:00","source_crs":"EPSG:3826","geometry_method":"yilan_gml_polygon","source_url":"https://cdn.odportal.tw/api/v1/resourcedata/DSNTMGUM/61b504bb6e97860024674b09.csv?251125","road_id":"","highway":"","road_distance_m":null}},{"type":"Feature","geometry":{"type":"Polygon","coordinates":[[[121.7667385671983,24.674375898397344],[121.7667523302327,24.674358545365976],[121.76678522612023,24.674376812200936],[121.76676894069745,24.674394178112536],[121.7667385671983,24.674375898397344]]]},"properties":{"event_id":"60168","project_name":"宜蘭縣羅東地區污水下水道系統興建營運轉移","location":"中山西路64號","road_name":"中山西","unit":"東山林開發事業股份有限公司","purpose":"115年度管線TV檢視管線提升人孔","event_type":"管線工程","start_date":"2026-08-17T00:00:00","end_date":"2026-09-24T00:00:00","source_crs":"EPSG:3826","geometry_method":"yilan_gml_polygon","source_url":"https://cdn.odportal.tw/api/v1/resourcedata/DSNTMGUM/61b504bb6e97860024674b09.csv?251125","road_id":"","highway":"","road_distance_m":null}},{"type":"Feature","geometry":{"type":"Polygon","coordinates":[[[121.76720582160898,24.673721784975964],[121.76720043099895,24.673693217348237],[121.76723694606176,24.67369422255473],[121.76724228565568,24.673714450148196],[121.76720582160898,24.673721784975964]]]},"properties":{"event_id":"60169","project_name":"宜蘭縣羅東地區污水下水道系統興建營運轉移","location":"興東南路220巷","road_name":"興東南","unit":"東山林開發事業股份有限公司","purpose":"115年度管線TV檢視管線提升人孔","event_type":"管線工程","start_date":"2026-08-17T00:00:00","end_date":"2026-09-24T00:00:00","source_crs":"EPSG:3826","geometry_method":"yilan_gml_polygon","source_url":"https://cdn.odportal.tw/api/v1/resourcedata/DSNTMGUM/61b504bb6e97860024674b09.csv?251125","road_id":"","highway":"","road_distance_m":null}},{"type":"Feature","geometry":{"type":"MultiPolygon","coordinates":[[[[121.77956013477038,24.674707022710408],[121.77953884338287,24.674638030264546],[121.77945936785426,24.67464797384247],[121.77948460035672,24.674721711847596],[121.77956013477038,24.674707022710408]]],[[[121.779695327365,24.675339763905924],[121.77964060267767,24.675346004818447],[121.77966967291489,24.675407808308606],[121.7797309165537,24.675401533540985],[121.779695327365,24.675339763905924]]],[[[121.77965940395238,24.676622324992476],[121.77959552169706,24.67662384743859],[121.77959988513794,24.676696501999356],[121.7796793915755,24.676691323261178],[121.77965940395238,24.676622324992476]]]]},"properties":{"event_id":"59818","project_name":"宜蘭縣羅東地區污水下水道系統興建營運轉移","location":"東榮路一段7號","road_name":"東榮","unit":"東山林開發事業股份有限公司","purpose":"115年度管線TV檢視管線提升人孔","event_type":"管線工程","start_date":"2026-07-20T00:00:00","end_date":"2026-09-24T00:00:00","source_crs":"EPSG:3826","geometry_method":"yilan_gml_polygon","source_url":"https://cdn.odportal.tw/api/v1/resourcedata/DSNTMGUM/61b504bb6e97860024674b09.csv?251125","road_id":"","highway":"","road_distance_m":null}},{"type":"Feature","geometry":{"type":"MultiPolygon","coordinates":[[[[121.7797466383339,24.679186625130306],[121.7796345771725,24.67919912059152],[121.77962986506199,24.679280162512683],[121.77974462265908,24.679281949241947],[121.7797466383339,24.679186625130306]]],[[[121.77966578645757,24.680164015836844],[121.77966839491764,24.680164002293782],[121.77966353462432,24.680221215889734],[121.77975480804206,24.680220741973887],[121.77974661413978,24.68016121361291],[121.77966578645757,24.680164015836844]]],[[[121.77970820909874,24.68083496701446],[121.77970860922787,24.680899301837357],[121.77977638215732,24.680894183922913],[121.77978121277225,24.68083220448571],[121.77970820909874,24.68083496701446]]]]},"properties":{"event_id":"59819","project_name":"宜蘭縣羅東地區污水下水道系統興建營運轉移","location":"東榮路二段","road_name":"東榮","unit":"東山林開發事業股份有限公司","purpose":"115年度管線TV檢視管線提升人孔","event_type":"管線工程","start_date":"2026-07-20T00:00:00","end_date":"2026-09-24T00:00:00","source_crs":"EPSG:3826","geometry_method":"yilan_gml_polygon","source_url":"https://cdn.odportal.tw/api/v1/resourcedata/DSNTMGUM/61b504bb6e97860024674b09.csv?251125","road_id":"","highway":"","road_distance_m":null}},{"type":"Feature","geometry":{"type":"MultiPolygon","coordinates":[[[[121.7771391939621,24.67659170592703],[121.77708835063854,24.67659316073788],[121.77710303984989,24.676649082319088],[121.77715518000403,24.67664642906597],[121.7771391939621,24.67659170592703]]],[[[121.77639528945537,24.676622956869558],[121.77632225760678,24.676620950947495],[121.77632119044196,24.676659082677528],[121.77639810341104,24.676656302533274],[121.77639528945537,24.676622956869558]]],[[[121.77587163975524,24.676637180350138],[121.775788192053,24.676637611430678],[121.7757923247834,24.676673332846534],[121.77587447667065,24.676674099281218],[121.77587163975524,24.676637180350138]]],[[[121.77528662258734,24.676637818046792],[121.77522541391511,24.67665004856598],[121.77522959068104,24.67669291832644],[121.7752947404387,24.67668543346328],[121.77528662258734,24.676637818046792]]]]},"properties":{"event_id":"59820","project_name":"宜蘭縣羅東地區污水下水道系統興建營運轉移","location":"東宜二路269-13號","road_name":"東宜二","unit":"東山林開發事業股份有限公司","purpose":"115年度管線TV檢視管線提升人孔","event_type":"管線工程","start_date":"2026-07-20T00:00:00","end_date":"2026-09-24T00:00:00","source_crs":"EPSG:3826","geometry_method":"yilan_gml_polygon","source_url":"https://cdn.odportal.tw/api/v1/resourcedata/DSNTMGUM/61b504bb6e97860024674b09.csv?251125","road_id":"","highway":"","road_distance_m":null}},{"type":"Feature","geometry":{"type":"MultiPolygon","coordinates":[[[[121.779121694587,24.676682304777053],[121.77911870224152,24.676620365907624],[121.779030069427,24.676625591689003],[121.7790174005448,24.676685228346763],[121.779121694587,24.676682304777053]]],[[[121.77804997386147,24.67669739193035],[121.77805741263641,24.676635399891932],[121.77794271657962,24.676643142605574],[121.77794047875648,24.67670272514964],[121.77804997386147,24.67669739193035]]]]},"properties":{"event_id":"59822","project_name":"宜蘭縣羅東地區污水下水道系統興建營運轉移","location":"羅榮路","road_name":"羅榮","unit":"東山林開發事業股份有限公司","purpose":"115年度管線TV檢視管線提升人孔","event_type":"管線工程","start_date":"2026-07-20T00:00:00","end_date":"2026-09-24T00:00:00","source_crs":"EPSG:3826","geometry_method":"yilan_gml_polygon","source_url":"https://cdn.odportal.tw/api/v1/resourcedata/DSNTMGUM/61b504bb6e97860024674b09.csv?251125","road_id":"","highway":"","road_distance_m":null}},{"type":"Feature","geometry":{"type":"MultiPolygon","coordinates":[[[[121.77899221279391,24.67836430727226],[121.77894535414012,24.6783632917959],[121.77894834152015,24.678400419316528],[121.77899586830975,24.678398284087095],[121.77899221279391,24.67836430727226]]],[[[121.77902720776248,24.678895676844643],[121.77898449950925,24.678897156922744],[121.77898380985508,24.678897160500146],[121.77898468725432,24.67892737431476],[121.77902532853093,24.678925904958884],[121.77902720776248,24.678895676844643]]],[[[121.77905634818559,24.6795565540875],[121.77902123368474,24.679560512756357],[121.77901866186667,24.679590115193864],[121.77905929162135,24.679586757180406],[121.77905634818559,24.6795565540875]]],[[[121.77904756604966,24.68028687807378],[121.7790461877141,24.680286885224398],[121.77904638331195,24.680318362006666],[121.77908220624904,24.68031754598792],[121.7790806450313,24.680287964994754],[121.77904756604966,24.68028687807378]]],[[[121.77906973553833,24.68093477987867],[121.77906649752114,24.68096816317586],[121.77910506559785,24.680965445105084],[121.77910487389002,24.680934597572648],[121.77906973553833,24.68093477987867]]]]},"properties":{"event_id":"59823","project_name":"宜蘭縣羅東地區污水下水道系統興建營運轉移","location":"欣榮路","road_name":"欣榮","unit":"東山林開發事業股份有限公司","purpose":"115年度管線TV檢視管線提升人孔","event_type":"管線工程","start_date":"2026-07-20T00:00:00","end_date":"2026-09-24T00:00:00","source_crs":"EPSG:3826","geometry_method":"yilan_gml_polygon","source_url":"https://cdn.odportal.tw/api/v1/resourcedata/DSNTMGUM/61b504bb6e97860024674b09.csv?251125","road_id":"","highway":"","road_distance_m":null}},{"type":"Feature","geometry":{"type":"MultiPolygon","coordinates":[[[[121.77794553038352,24.67534546288578],[121.77794147839685,24.67532284649295],[121.77789581807681,24.675318912855396],[121.77789205433552,24.675342760554088],[121.77794553038352,24.67534546288578]]],[[[121.77922081751551,24.675392664530698],[121.77918563203923,24.675395825490266],[121.77918839956581,24.67542142692084],[121.77922099149231,24.675420661965656],[121.77922081751551,24.675392664530698]]],[[[121.7786990718752,24.67539755450733],[121.77866647896016,24.675398319354294],[121.77866599431643,24.67542512938372],[121.77870184941513,24.67542494348598],[121.7786990718752,24.67539755450733]]]]},"properties":{"event_id":"59824","project_name":"宜蘭縣羅東地區污水下水道系統興建營運轉移","location":"光榮路230巷80號","road_name":"光榮","unit":"東山林開發事業股份有限公司","purpose":"115年度管線TV檢視管線提升人孔","event_type":"管線工程","start_date":"2026-07-20T00:00:00","end_date":"2026-09-24T00:00:00","source_crs":"EPSG:3826","geometry_method":"yilan_gml_polygon","source_url":"https://cdn.odportal.tw/api/v1/resourcedata/DSNTMGUM/61b504bb6e97860024674b09.csv?251125","road_id":"","highway":"","road_distance_m":null}},{"type":"Feature","geometry":{"type":"Polygon","coordinates":[[[121.76394647145717,24.648646408565643],[121.76394642437995,24.648638671569074],[121.76406107041869,24.64864344531718],[121.76406111388236,24.648650587368312],[121.76394647145717,24.648646408565643]]]},"properties":{"event_id":"60000","project_name":"旺旺興建設股份有限公司新建住宅工程","location":"義成路二段139號","road_name":"義成、鄉道宜34線","unit":"建承工程行","purpose":"用戶排水管線埋設","event_type":"管線工程","start_date":"2026-08-03T00:00:00","end_date":"2026-09-24T00:00:00","source_crs":"EPSG:3826","geometry_method":"yilan_gml_polygon","source_url":"https://cdn.odportal.tw/api/v1/resourcedata/DSNTMGUM/61b504bb6e97860024674b09.csv?251125","road_id":"","highway":"","road_distance_m":null}},{"type":"Feature","geometry":{"type":"Polygon","coordinates":[[[121.7775163094665,24.676722969150354],[121.77747685255484,24.676720771006902],[121.7774793560482,24.676700334389462],[121.77751880550801,24.676701331816655],[121.7775163094665,24.676722969150354]]]},"properties":{"event_id":"60488","project_name":"羅東鎮光榮路271之1_林國漳競選總部","location":"光榮路271-1號","road_name":"光榮","unit":"中華電信宜蘭營運處","purpose":"光榮路271之1_林國漳競選總部銜接電信管線_NHG540393","event_type":"管線工程","start_date":"2026-09-07T00:00:00","end_date":"2026-09-18T00:00:00","source_crs":"EPSG:3826","geometry_method":"yilan_gml_polygon","source_url":"https://cdn.odportal.tw/api/v1/resourcedata/DSNTMGUM/61b504bb6e97860024674b09.csv?251125","road_id":"","highway":"","road_distance_m":null}},{"type":"Feature","geometry":{"type":"Polygon","coordinates":[[[121.76964970542817,24.678692350782022],[121.76968156520714,24.67867759064343],[121.76969104025845,24.678703086573382],[121.76966182084652,24.678714183065864],[121.76964970542817,24.678692350782022]]]},"properties":{"event_id":"59978","project_name":"羅東鎮公正路154號_手孔1處_NHG540001","location":"公正路154號","road_name":"公正","unit":"中華電信宜蘭營運處","purpose":"新銜接電信纜線","event_type":"管線工程","start_date":"2026-08-17T00:00:00","end_date":"2026-10-09T00:00:00","source_crs":"EPSG:3826","geometry_method":"yilan_gml_polygon","source_url":"https://cdn.odportal.tw/api/v1/resourcedata/DSNTMGUM/61b504bb6e97860024674b09.csv?251125","road_id":"","highway":"","road_distance_m":null}},{"type":"Feature","geometry":{"type":"Polygon","coordinates":[[[121.77725214428838,24.671899007041745],[121.77724442822527,24.671880733196666],[121.77726377505444,24.67188000201053],[121.77726938993354,24.671893865601497],[121.77725214428838,24.671899007041745]]]},"properties":{"event_id":"58341","project_name":"羅東鎮南昌東街3號修繕管道(NH1569050)","location":"南昌東路3號","road_name":"南昌東","unit":"中華電信宜蘭營運處","purpose":"佈纜時發現管障，需修繕管道","event_type":"管線工程","start_date":"2026-03-23T00:00:00","end_date":"2026-10-02T00:00:00","source_crs":"EPSG:3826","geometry_method":"yilan_gml_polygon","source_url":"https://cdn.odportal.tw/api/v1/resourcedata/DSNTMGUM/61b504bb6e97860024674b09.csv?251125","road_id":"","highway":"","road_distance_m":null}},{"type":"Feature","geometry":{"type":"MultiPolygon","coordinates":[[[[121.7646765580404,24.642354570468694],[121.76464510725727,24.642192726864966],[121.76457594941154,24.64220573535118],[121.76460458320993,24.64235999870322],[121.7646765580404,24.642354570468694]]],[[[121.76443784838318,24.642267188968415],[121.76424411219108,24.642288424397574],[121.7642389126954,24.642344139108438],[121.76444374110898,24.642325378814384],[121.76443784838318,24.642267188968415]]],[[[121.76414449077758,24.642301586642514],[121.76390922868491,24.642325564237414],[121.76391235248055,24.64238376817812],[121.76414482960767,24.642357274103166],[121.76414449077758,24.642301586642514]]]]},"properties":{"event_id":"59206","project_name":"台電管路新增設工程-工二課(3260310-3260311)","location":"福山路18號","road_name":"福山","unit":"台灣電力股份有限公司宜蘭區營業處","purpose":"管路埋設、孔蓋升降","event_type":"管線工程","start_date":"2026-08-03T00:00:00","end_date":"2026-08-28T00:00:00","source_crs":"EPSG:3826","geometry_method":"yilan_gml_polygon","source_url":"https://cdn.odportal.tw/api/v1/resourcedata/DSNTMGUM/61b504bb6e97860024674b09.csv?251125","road_id":"","highway":"","road_distance_m":null}},{"type":"Feature","geometry":{"type":"Polygon","coordinates":[[[121.80617393151296,24.754372126275182],[121.80617662043032,24.75438403792163],[121.8061087082786,24.754384403301938],[121.80611383988168,24.754370064357175],[121.80617393151296,24.754372126275182]]]},"properties":{"event_id":"58551","project_name":"自來水用戶新裝工程","location":"忠孝村順和路3-18號","road_name":"順和、鄉道宜7線","unit":"自來水公司第八區管理處北區服務所","purpose":"自來水用戶新裝工程","event_type":"管線工程","start_date":"2026-04-28T00:00:00","end_date":"2026-04-30T00:00:00","source_crs":"EPSG:3826","geometry_method":"yilan_gml_polygon","source_url":"https://cdn.odportal.tw/api/v1/resourcedata/DSNTMGUM/61b504bb6e97860024674b09.csv?251125","road_id":"","highway":"","road_distance_m":null}},{"type":"Feature","geometry":{"type":"Polygon","coordinates":[[[121.80468548240904,24.719145688408656],[121.80467488410717,24.719121892020155],[121.80471399223136,24.71911214127192],[121.80473245491261,24.71914066593285],[121.80468548240904,24.719145688408656]]]},"properties":{"event_id":"58544","project_name":"自來水用戶新裝工程","location":"新南村新南路2段35號","road_name":"新南、鄉道宜16線","unit":"自來水公司第八區管理處北區服務所","purpose":"自來水用戶新裝工程","event_type":"管線工程","start_date":"2026-05-04T00:00:00","end_date":"2026-05-08T00:00:00","source_crs":"EPSG:3826","geometry_method":"yilan_gml_polygon","source_url":"https://cdn.odportal.tw/api/v1/resourcedata/DSNTMGUM/61b504bb6e97860024674b09.csv?251125","road_id":"","highway":"","road_distance_m":null}},{"type":"Feature","geometry":{"type":"Polygon","coordinates":[[[121.79418789023403,24.73922641964115],[121.79420551962905,24.739224024066207],[121.79420311588866,24.739242452381966],[121.79418797796636,24.739240231313122],[121.79418789023403,24.73922641964115]]]},"properties":{"event_id":"58542","project_name":"自來水用戶新裝工程","location":"古結村縣民路1段103號","road_name":"縣民、縣道縣道190線","unit":"自來水公司第八區管理處北區服務所","purpose":"自來水用戶新裝工程","event_type":"管線工程","start_date":"2026-04-01T00:00:00","end_date":"2026-04-24T00:00:00","source_crs":"EPSG:3826","geometry_method":"yilan_gml_polygon","source_url":"https://cdn.odportal.tw/api/v1/resourcedata/DSNTMGUM/61b504bb6e97860024674b09.csv?251125","road_id":"","highway":"","road_distance_m":null}},{"type":"Feature","geometry":{"type":"Polygon","coordinates":[[[121.71806798855592,24.731650670073698],[121.71821053952748,24.731455683279563],[121.71845959840739,24.731525146011155],[121.71841360124971,24.731694435598236],[121.71806798855592,24.731650670073698]]]},"properties":{"event_id":"52588","project_name":"自來水民生用戶管線新裝工程","location":"尚德村三鬮路199巷23號","road_name":"三鬮","unit":"自來水公司第八區管理處北區服務所","purpose":"自來水民生用戶管線新裝工程","event_type":"管線工程","start_date":"2024-11-27T00:00:00","end_date":"2024-11-29T00:00:00","source_crs":"EPSG:3826","geometry_method":"yilan_gml_polygon","source_url":"https://cdn.odportal.tw/api/v1/resourcedata/DSNTMGUM/61b504bb6e97860024674b09.csv?251125","road_id":"","highway":"","road_distance_m":null}},{"type":"Feature","geometry":{"type":"Polygon","coordinates":[[[121.71499754976712,24.666189488549012],[121.7150198040879,24.666180989902134],[121.71502542109786,24.66624570257409],[121.71500177177631,24.666239821226267],[121.71499754976712,24.666189488549012]]]},"properties":{"event_id":"59907","project_name":"北成圳幹線等渠道改善工程-大明9-1小排","location":"大隱農義路一段325巷","road_name":"農義","unit":"農業部農田水利署宜蘭管理處","purpose":"箱涵改善","event_type":"道路挖掘案件","start_date":"2026-07-24T00:00:00","end_date":"2026-09-03T00:00:00","source_crs":"EPSG:3826","geometry_method":"yilan_gml_polygon","source_url":"https://cdn.odportal.tw/api/v1/resourcedata/DSNTMGUM/61b504bb6e97860024674b09.csv?251125","road_id":"","highway":"","road_distance_m":null}},{"type":"Feature","geometry":{"type":"Polygon","coordinates":[[[121.71821906493112,24.731628444818273],[121.71825659912217,24.731428915098505],[121.71882906661403,24.731524584970717],[121.7187999366924,24.73174426167493],[121.71821906493112,24.731628444818273]]]},"properties":{"event_id":"53034","project_name":"自來水民生用戶管線新裝工程","location":"尚德村尚惠路242號","road_name":"尚惠","unit":"自來水公司第八區管理處北區服務所","purpose":"自來水民生用戶管線新裝工程","event_type":"管線工程","start_date":"2024-11-27T00:00:00","end_date":"2024-11-29T00:00:00","source_crs":"EPSG:3826","geometry_method":"yilan_gml_polygon","source_url":"https://cdn.odportal.tw/api/v1/resourcedata/DSNTMGUM/61b504bb6e97860024674b09.csv?251125","road_id":"","highway":"","road_distance_m":null}},{"type":"Feature","geometry":{"type":"MultiPolygon","coordinates":[[[[121.78245709828889,24.77215192679573],[121.78246019133071,24.772125113404293],[121.78243519726296,24.77212623618195],[121.78243425889157,24.772150060845394],[121.78245709828889,24.77215192679573]]],[[[121.7825250855237,24.77240046295085],[121.78251841422049,24.77237667805089],[121.78249996600034,24.772381737198007],[121.78250661863775,24.772402544726408],[121.7825250855237,24.77240046295085]]]]},"properties":{"event_id":"59493","project_name":"壯圍鄉美功路一段升降手孔2處_NHG540200","location":"美功路1段108號","road_name":"美功、縣道縣道191乙線","unit":"中華電信宜蘭營運處","purpose":"光纜建設、寬頻供裝","event_type":"管線工程","start_date":"2026-07-07T00:00:00","end_date":"2026-08-28T00:00:00","source_crs":"EPSG:3826","geometry_method":"yilan_gml_polygon","source_url":"https://cdn.odportal.tw/api/v1/resourcedata/DSNTMGUM/61b504bb6e97860024674b09.csv?251125","road_id":"","highway":"","road_distance_m":null}},{"type":"Feature","geometry":{"type":"Polygon","coordinates":[[[121.77510149659791,24.667637969257314],[121.77511812391941,24.667599354540094],[121.7751293985907,24.667604433434935],[121.77512658785822,24.667604447937777],[121.77510149659791,24.667637969257314]]]},"properties":{"event_id":"60148","project_name":"電力管路試挖工程","location":"光榮路光榮路","road_name":"光榮","unit":"台灣電力公司輸變電工程處北區施工處","purpose":"地下埋設物調查","event_type":"管線工程","start_date":"2026-09-01T00:00:00","end_date":"2026-10-09T00:00:00","source_crs":"EPSG:3826","geometry_method":"yilan_gml_polygon","source_url":"https://cdn.odportal.tw/api/v1/resourcedata/DSNTMGUM/61b504bb6e97860024674b09.csv?251125","road_id":"","highway":"","road_distance_m":null}},{"type":"Feature","geometry":{"type":"Polygon","coordinates":[[[121.79120002199089,24.77296801263213],[121.79120265055809,24.772943876577763],[121.79123746050108,24.772951309663195],[121.79123343366565,24.772974183755768],[121.79120002199089,24.77296801263213]]]},"properties":{"event_id":"58600","project_name":"永美路二段61巷39號前提升手孔1處_NHG540107","location":"永美路2段61巷39號","road_name":"永美","unit":"中華電信宜蘭營運處","purpose":"光纜建設、寬頻供裝","event_type":"管線工程","start_date":"2026-05-04T00:00:00","end_date":"2026-09-25T00:00:00","source_crs":"EPSG:3826","geometry_method":"yilan_gml_polygon","source_url":"https://cdn.odportal.tw/api/v1/resourcedata/DSNTMGUM/61b504bb6e97860024674b09.csv?251125","road_id":"","highway":"","road_distance_m":null}},{"type":"Feature","geometry":{"type":"MultiPolygon","coordinates":[[[[121.79844550516161,24.73772280606967],[121.79835928879376,24.737733772181574],[121.79836361615469,24.73781080238719],[121.7984479931482,24.73781210355547],[121.79844550516161,24.73772280606967]]],[[[121.79824049888154,24.737748414608674],[121.79816380191116,24.737748822985864],[121.79817189648425,24.737815325305057],[121.79824474692002,24.73781318594869],[121.79824049888154,24.737748414608674]]]]},"properties":{"event_id":"54902","project_name":"古結路136號旁提升手孔2處_NHG440057","location":"古結路136號","road_name":"古結","unit":"中華電信宜蘭營運處","purpose":"光纜建設、寬頻供裝","event_type":"管線工程","start_date":"2025-07-07T00:00:00","end_date":"2026-09-25T00:00:00","source_crs":"EPSG:3826","geometry_method":"yilan_gml_polygon","source_url":"https://cdn.odportal.tw/api/v1/resourcedata/DSNTMGUM/61b504bb6e97860024674b09.csv?251125","road_id":"","highway":"","road_distance_m":null}},{"type":"Feature","geometry":{"type":"Polygon","coordinates":[[[121.78462012381632,24.747152818628102],[121.78461826892269,24.74712380198331],[121.7846466968403,24.747122125589026],[121.78464689824132,24.74715420601112],[121.78462012381632,24.747152818628102]]]},"properties":{"event_id":"58631","project_name":"壯五路280巷提升手孔1處_NHG540120","location":"壯五路280巷","road_name":"壯五","unit":"中華電信宜蘭營運處","purpose":"喜互惠光纜建設、寬頻供裝","event_type":"管線工程","start_date":"2026-05-04T00:00:00","end_date":"2026-09-25T00:00:00","source_crs":"EPSG:3826","geometry_method":"yilan_gml_polygon","source_url":"https://cdn.odportal.tw/api/v1/resourcedata/DSNTMGUM/61b504bb6e97860024674b09.csv?251125","road_id":"","highway":"","road_distance_m":null}},{"type":"Feature","geometry":{"type":"MultiPolygon","coordinates":[[[[121.77880784131442,24.729438581014893],[121.77882875876364,24.729442288575534],[121.77882866371101,24.7294270224443],[121.77880637730927,24.729427138198595],[121.77880784131442,24.729438581014893]]],[[[121.77917991994106,24.72946463713322],[121.77920500762554,24.72946705090272],[121.77920354358375,24.729455608091246],[121.77918263404644,24.729453172610256],[121.77917991994106,24.72946463713322]]],[[[121.7797010935123,24.729498822507782],[121.77972330061846,24.729485984546052],[121.77969682813657,24.72948485013235],[121.77968851843626,24.729492526652436],[121.7797010935123,24.729498822507782]]],[[[121.78021107699192,24.72952543097933],[121.78020977156393,24.729539432325275],[121.78024041525998,24.72953927287545],[121.78023892731925,24.72952401399646],[121.78021107699192,24.72952543097933]]],[[[121.78058452496843,24.729547660271585],[121.78058184274248,24.729564212922995],[121.78060552981314,24.729565361680486],[121.78060681932044,24.729548816279074],[121.78058452496843,24.729547660271585]]],[[[121.78091350433807,24.73137160461539],[121.78091086085666,24.73139451921019],[121.78092757566534,24.73139443215502],[121.78092743268378,24.731371532072796],[121.78091350433807,24.73137160461539]]],[[[121.78089449281435,24.731673224259293],[121.78089048040547,24.731699961282235],[121.78090719525507,24.731699874228333],[121.78090982286338,24.731674416484893],[121.78089449281435,24.731673224259293]]],[[[121.78083707797431,24.731847819089747],[121.78083444340123,24.731872005703316],[121.78084837180295,24.73187193316669],[121.78084962256226,24.73184902582714],[121.78083707797431,24.731847819089747]]],[[[121.7810603646652,24.729459942134646],[121.78105909905267,24.729480304520802],[121.78107442089036,24.72948022471006],[121.78107151531738,24.729461157022154],[121.7810603646652,24.729459942134646]]],[[[121.78092312638655,24.729566253009786],[121.78092322169539,24.72958151913311],[121.78093994519188,24.729582704103844],[121.78093984193934,24.729566165954108],[121.78092312638655,24.729566253009786]]],[[[121.78120324279162,24.729587693828037],[121.78120192059743,24.729599151132156],[121.78122281430116,24.729599042277158],[121.78122273484472,24.72958632020773],[121.78120324279162,24.729587693828037]]],[[[121.78104126626347,24.729747566858517],[121.78104277019644,24.729765370682205],[121.78105949272982,24.729766555644098],[121.78105798085157,24.729747479794227],[121.78104126626347,24.729747566858517]]],[[[121.78101688983708,24.73008229188866],[121.78101704076917,24.73010646400069],[121.78103237062649,24.73010765621872],[121.78103221174868,24.730082212080426],[121.78101688983708,24.73008229188866]]],[[[121.78100326784705,24.73035462144474],[121.78099780021347,24.73037118860934],[121.78100894299841,24.730371130570266],[121.78100883973302,24.73035459242255],[121.78100326784705,24.73035462144474]]],[[[121.78096915009408,24.73069066925196],[121.7809692930732,24.73071356843324],[121.78098461506228,24.73071348862797],[121.7809830783638,24.730690596706065],[121.78096915009408,24.73069066925196]]],[[[121.78094348389327,24.731041939638356],[121.78094085630693,24.73106739828681],[121.78095896479256,24.731067303970217],[121.7809587979803,24.731040587808508],[121.78094348389327,24.731041939638356]]]]},"properties":{"event_id":"58678","project_name":"壯圍鄉美福五路95號_立桿16處_NHG530443","location":"美福五路95號","road_name":"美福五","unit":"中華電信宜蘭營運處","purpose":"新銜接電信纜線","event_type":"管線工程","start_date":"2026-05-04T00:00:00","end_date":"2026-05-15T00:00:00","source_crs":"EPSG:3826","geometry_method":"yilan_gml_polygon","source_url":"https://cdn.odportal.tw/api/v1/resourcedata/DSNTMGUM/61b504bb6e97860024674b09.csv?251125","road_id":"","highway":"","road_distance_m":null}},{"type":"Feature","geometry":{"type":"Polygon","coordinates":[[[121.80782204237578,24.777452781031908],[121.80774193086343,24.777450815365352],[121.80774034229748,24.777408265632697],[121.80782307619438,24.77740961768911],[121.80782204237578,24.777452781031908]]]},"properties":{"event_id":"58696","project_name":"自來水用戶新裝","location":"古亭路26號","road_name":"古亭","unit":"自來水公司第八區管理處北區服務所","purpose":"自來水用戶新裝","event_type":"管線工程","start_date":"2026-04-20T00:00:00","end_date":"2026-04-27T00:00:00","source_crs":"EPSG:3826","geometry_method":"yilan_gml_polygon","source_url":"https://cdn.odportal.tw/api/v1/resourcedata/DSNTMGUM/61b504bb6e97860024674b09.csv?251125","road_id":"","highway":"","road_distance_m":null}},{"type":"Feature","geometry":{"type":"MultiPolygon","coordinates":[[[[121.81517183699535,24.73395310187564],[121.81517485469047,24.733988707666867],[121.81522221521881,24.73398845015162],[121.81521649394647,24.73396558146952],[121.81517183699535,24.73395310187564]]],[[[121.81555101482435,24.733996840230624],[121.81558449463388,24.73400429137037],[121.81558429550996,24.73397375849746],[121.81555086548609,24.733973940350044],[121.81555101482435,24.733996840230624]]],[[[121.81589933156458,24.73400766659337],[121.81593276159455,24.734007484662854],[121.8159298432905,24.7339871457791],[121.81589916557074,24.73398222358787],[121.81589933156458,24.73400766659337]]]]},"properties":{"event_id":"58731","project_name":"壯圍鄉紅葉路62-21號前_立桿3處_NHG530433","location":"紅葉路62-21號","road_name":"紅葉","unit":"中華電信宜蘭營運處","purpose":"新銜接電信纜線","event_type":"管線工程","start_date":"2026-05-04T00:00:00","end_date":"2026-05-15T00:00:00","source_crs":"EPSG:3826","geometry_method":"yilan_gml_polygon","source_url":"https://cdn.odportal.tw/api/v1/resourcedata/DSNTMGUM/61b504bb6e97860024674b09.csv?251125","road_id":"","highway":"","road_distance_m":null}},{"type":"Feature","geometry":{"type":"MultiPolygon","coordinates":[[[[121.80142395796022,24.743560538862756],[121.80142423527658,24.74360379378703],[121.80144096794503,24.743606248439594],[121.80144904979332,24.743562949720893],[121.80142395796022,24.743560538862756]]],[[[121.80140633178434,24.743853246045994],[121.80140931327202,24.74388376409069],[121.80142878376506,24.743878570833942],[121.8014286206354,24.743853126868032],[121.80140633178434,24.743853246045994]]],[[[121.80139380397377,24.744072136470376],[121.8013882641298,24.74407725523909],[121.80139672021298,24.74409247656714],[121.80142166434503,24.74407198750247],[121.80139380397377,24.744072136470376]]],[[[121.80138966698193,24.74429607117195],[121.8013926158531,24.74432150024155],[121.80140933329552,24.74432141085438],[121.80140639974292,24.74429852582582],[121.80138966698193,24.74429607117195]]],[[[121.8013724801153,24.744657476312383],[121.80139476910995,24.744657357135846],[121.80139727853161,24.744614087316762],[121.80137498954467,24.744614206493488],[121.8013724801153,24.744657476312383]]],[[[121.80136062199499,24.7449806856922],[121.80136365243733,24.74501883583825],[121.80137758322287,24.74501876135244],[121.80138291104734,24.744980566515967],[121.80136062199499,24.7449806856922]]],[[[121.80134897491051,24.745336972033467],[121.80134913802925,24.74536241509205],[121.80136585462249,24.7453623257115],[121.80136850989597,24.745341956730677],[121.80134897491051,24.745336972033467]]],[[[121.80133159212491,24.74566784419319],[121.8013373277904,24.745693258358738],[121.80135404442794,24.74569316897839],[121.80135388129993,24.74566772501818],[121.80133159212491,24.74566784419319]]],[[[121.8015178849769,24.741262390971038],[121.80151526143833,24.74128784984612],[121.80153756614237,24.741290274699786],[121.80154017336544,24.74126227178814],[121.8015178849769,24.741262390971038]]],[[[121.80151088090057,24.74147361866012],[121.80153621602108,24.741514194577345],[121.80153312038807,24.74146586646585],[121.80151914105534,24.74145830704186],[121.80151088090057,24.74147361866012]]],[[[121.80149612133317,24.74177903211494],[121.80149638233554,24.741819742109822],[121.80151309944297,24.741819652719514],[121.80152121280861,24.741781442970584],[121.80149612133317,24.74177903211494]]],[[[121.80148655989849,24.74202589570469],[121.8014839536412,24.742053898608006],[121.80150345548698,24.742053794327756],[121.80150606173989,24.74202579142421],[121.80148655989849,24.74202589570469]]],[[[121.80148022458337,24.742341442390362],[121.80147484794536,24.742372005132147],[121.80149992223458,24.742371871054722],[121.8015025457923,24.74234641218289],[121.80148022458337,24.742341442390362]]],[[[121.80146207563449,24.74255272964315],[121.80146781116422,24.742578143817106],[121.80148729776954,24.74257549549573],[121.80149272236189,24.742552565769902],[121.80146207563449,24.74255272964315]]],[[[121.80145023310818,24.742878484052856],[121.80147279910393,24.74292161889766],[121.8014752432327,24.742868172023],[121.80145849336387,24.742863173341025],[121.80145023310818,24.742878484052856]]],[[[121.80144099781235,24.743176234641982],[121.80143565375559,24.743211885451526],[121.8014635149234,24.74321173647539],[121.80146607226307,24.74317610056615],[121.80144099781235,24.743176234641982]]]]},"properties":{"event_id":"58861","project_name":"壯圍鄉壯六五路28號前_立桿16處(1雙)_NHG535031","location":"壯六五路5號","road_name":"壯六五","unit":"中華電信宜蘭營運處","purpose":"新銜接電信纜線","event_type":"管線工程","start_date":"2026-05-18T00:00:00","end_date":"2026-05-29T00:00:00","source_crs":"EPSG:3826","geometry_method":"yilan_gml_polygon","source_url":"https://cdn.odportal.tw/api/v1/resourcedata/DSNTMGUM/61b504bb6e97860024674b09.csv?251125","road_id":"","highway":"","road_distance_m":null}},{"type":"Feature","geometry":{"type":"MultiPolygon","coordinates":[[[[121.79541673882069,24.793312188252067],[121.79541038052169,24.79329448460567],[121.7953930890348,24.7933034456744],[121.79539732924079,24.79331545845266],[121.79539734540211,24.793317992544562],[121.79541673882069,24.793312188252067]]],[[[121.79540722947111,24.793344390438502],[121.79543146343484,24.793336026240286],[121.79542299512983,24.79331390012625],[121.79539736057312,24.793320371359012],[121.79540790655929,24.793341852662213],[121.79540722947111,24.793344390438502]]]]},"properties":{"event_id":"59022","project_name":"台電遷移工程(3260377-5CC6002-工一課)","location":"美城三路6號","road_name":"美城三","unit":"台灣電力股份有限公司宜蘭區營業處","purpose":"台電遷移工程","event_type":"管線工程","start_date":"2026-05-04T00:00:00","end_date":"2026-09-25T00:00:00","source_crs":"EPSG:3826","geometry_method":"yilan_gml_polygon","source_url":"https://cdn.odportal.tw/api/v1/resourcedata/DSNTMGUM/61b504bb6e97860024674b09.csv?251125","road_id":"","highway":"","road_distance_m":null}},{"type":"Feature","geometry":{"type":"Polygon","coordinates":[[[121.79078938877107,24.719575741389388],[121.79077109391095,24.71953402844096],[121.7908168088687,24.71952491905921],[121.79083093473159,24.719565386429565],[121.7907935497723,24.719575719451505],[121.79078938877107,24.719575741389388]]]},"properties":{"event_id":"59023","project_name":"台電新設工程(3260174-5ZC0087-工一課)","location":"新福一路46號","road_name":"新福一","unit":"台灣電力股份有限公司宜蘭區營業處","purpose":"台電新設工程","event_type":"管線工程","start_date":"2026-05-04T00:00:00","end_date":"2026-09-25T00:00:00","source_crs":"EPSG:3826","geometry_method":"yilan_gml_polygon","source_url":"https://cdn.odportal.tw/api/v1/resourcedata/DSNTMGUM/61b504bb6e97860024674b09.csv?251125","road_id":"","highway":"","road_distance_m":null}},{"type":"Feature","geometry":{"type":"MultiPolygon","coordinates":[[[[121.8118054249267,24.744092283632988],[121.8117553466058,24.744087476559535],[121.81174468709763,24.74415863057315],[121.81179479842599,24.744168515776575],[121.8118054249267,24.744092283632988]]],[[[121.81173600620289,24.744534472211758],[121.81173643490912,24.744600487862424],[121.81178098579839,24.744610403181312],[121.81179717295018,24.744534140923868],[121.81173600620289,24.744534472211758]]],[[[121.81170590718914,24.745037387463558],[121.81171735823457,24.74508810849898],[121.81176740397706,24.745087837447667],[121.81176707418295,24.745037056181665],[121.81170590718914,24.745037387463558]]],[[[121.81175760696343,24.745386946256048],[121.81170200044964,24.7453872474229],[121.81169130784596,24.745453323297696],[121.81175244206413,24.745447913890203],[121.81175760696343,24.745386946256048]]],[[[121.81168762687764,24.745742806614256],[121.81168792367286,24.745788509750273],[121.81174349738578,24.745783130457948],[121.81174879421694,24.745742475331003],[121.81168762687764,24.745742806614256]]],[[[121.81169513322905,24.746042385940314],[121.81168990232628,24.74609319731653],[121.81172882710597,24.74609298649942],[121.81174517935385,24.746042114886666],[121.81169513322905,24.746042385940314]]]]},"properties":{"event_id":"59031","project_name":"紅葉路101-12號新銜接電信纜線_立桿6處_NHG530594","location":"紅葉路101-12號","road_name":"紅葉","unit":"中華電信宜蘭營運處","purpose":"新銜接電信纜線","event_type":"管線工程","start_date":"2026-06-01T00:00:00","end_date":"2026-09-25T00:00:00","source_crs":"EPSG:3826","geometry_method":"yilan_gml_polygon","source_url":"https://cdn.odportal.tw/api/v1/resourcedata/DSNTMGUM/61b504bb6e97860024674b09.csv?251125","road_id":"","highway":"","road_distance_m":null}},{"type":"Feature","geometry":{"type":"MultiPolygon","coordinates":[[[[121.8058461444788,24.76002635566039],[121.80584683853041,24.760026351927007],[121.80586903321759,24.760025598765683],[121.80587022107177,24.759994552902732],[121.80584664645865,24.75999658012782],[121.80584335390114,24.760023836486578],[121.8058461444788,24.76002635566039]]],[[[121.8058895854539,24.760037840439775],[121.80591733466753,24.760037691162953],[121.80592118638795,24.75998952725466],[121.80588374175827,24.75999226287203],[121.80588124444509,24.760035352027412],[121.8058895854539,24.760037840439775]]]]},"properties":{"event_id":"59163","project_name":"台電遷移工程(4260144-5DC6005-工一課)","location":"順和二路121號","road_name":"順和二","unit":"台灣電力股份有限公司宜蘭區營業處","purpose":"台電遷移工程","event_type":"管線工程","start_date":"2026-05-28T00:00:00","end_date":"2026-09-25T00:00:00","source_crs":"EPSG:3826","geometry_method":"yilan_gml_polygon","source_url":"https://cdn.odportal.tw/api/v1/resourcedata/DSNTMGUM/61b504bb6e97860024674b09.csv?251125","road_id":"","highway":"","road_distance_m":null}},{"type":"Feature","geometry":{"type":"MultiPolygon","coordinates":[[[[121.80390328917055,24.742160133526898],[121.80390109017222,24.74214177491633],[121.8038789475178,24.742150129116613],[121.80388736060664,24.74216401979121],[121.80389359507082,24.74216271971022],[121.80390328917055,24.742160133526898]]],[[[121.80391227213305,24.742181627328804],[121.8039073379925,24.74216930062525],[121.80389280245768,24.74217413007919],[121.80389911635194,24.74218518183619],[121.80390016851312,24.74218707661095],[121.80391227213305,24.742181627328804]]],[[[121.80401735807602,24.74244905507827],[121.80401030026475,24.74243008876],[121.80398883015965,24.74243527140479],[121.803997969831,24.742454226557086],[121.8040007395953,24.74245357792662],[121.80401735807602,24.74244905507827]]],[[[121.80422354378234,24.742660348814926],[121.80420754082552,24.742652833007803],[121.80419583916229,24.742666831585193],[121.80421115224185,24.742674984868483],[121.80421322089443,24.74267307335169],[121.80422354378234,24.742660348814926]]]]},"properties":{"event_id":"59227","project_name":"台電新設工程(4260163-5ZC0129-工一課)","location":"壯六村玄威二路50巷12號","road_name":"玄威二","unit":"台灣電力股份有限公司宜蘭區營業處","purpose":"台電新設工程","event_type":"管線工程","start_date":"2026-06-01T00:00:00","end_date":"2026-09-25T00:00:00","source_crs":"EPSG:3826","geometry_method":"yilan_gml_polygon","source_url":"https://cdn.odportal.tw/api/v1/resourcedata/DSNTMGUM/61b504bb6e97860024674b09.csv?251125","road_id":"","highway":"","road_distance_m":null}},{"type":"Feature","geometry":{"type":"Polygon","coordinates":[[[121.81308309900986,24.772949514830707],[121.8130829246085,24.77292273854173],[121.81311225175901,24.77292257930697],[121.81310404627276,24.77294940109587],[121.81308309900986,24.772949514830707]]]},"properties":{"event_id":"59324","project_name":"永美路一段20巷25號_設立電信桿_NHG530957","location":"永美路1段20巷25號","road_name":"永美","unit":"中華電信宜蘭營運處","purpose":"新銜接電信纜線","event_type":"管線工程","start_date":"2026-07-20T00:00:00","end_date":"2026-07-31T00:00:00","source_crs":"EPSG:3826","geometry_method":"yilan_gml_polygon","source_url":"https://cdn.odportal.tw/api/v1/resourcedata/DSNTMGUM/61b504bb6e97860024674b09.csv?251125","road_id":"","highway":"","road_distance_m":null}},{"type":"Feature","geometry":{"type":"MultiPolygon","coordinates":[[[[121.78612227034836,24.727829999184838],[121.7861368268643,24.727828655319822],[121.78613600659153,24.72780838870281],[121.78611452224182,24.72781103553628],[121.78611603638734,24.72783129851593],[121.78612157347794,24.72782936906162],[121.78612227034836,24.727829999184838]]],[[[121.78610862525584,24.728197847967277],[121.78611533815007,24.728162338446168],[121.78607787060233,24.728160000659013],[121.78607669779885,24.728194214486525],[121.78607949620711,24.728198000670034],[121.78607948028841,24.728195467453183],[121.78610862525584,24.728197847967277]]],[[[121.78607412265426,24.72853001575987],[121.78604499352794,24.728530168457848],[121.78604521643476,24.728565641617458],[121.78604659623622,24.72856436773441],[121.78607155610051,24.728562969339187],[121.78607412265426,24.72853001575987]]],[[[121.78603422622474,24.728914472181962],[121.7860375782253,24.728896084122493],[121.78601677164546,24.728896193189488],[121.78601550030014,24.728914570342038],[121.78601967355806,24.72891644889277],[121.78603422622474,24.728914472181962]]],[[[121.78601602800626,24.729164508411326],[121.78599937872433,24.729163961908114],[121.7860001870492,24.729182328158753],[121.78600435235703,24.729182940101346],[121.78601336889182,24.729182892837837],[121.78601602800626,24.729164508411326]]],[[[121.7859955489986,24.729520990393308],[121.78596087948,24.72952243877111],[121.78596662661823,24.72955408302086],[121.78596805418911,24.72956040969058],[121.7859957878252,24.729558997667876],[121.7859955489986,24.729520990393308]]]]},"properties":{"event_id":"59385","project_name":"台電新設工程(3260104-5ZC0080-工一課)","location":"中央路一段263巷70號","road_name":"中央","unit":"台灣電力股份有限公司宜蘭區營業處","purpose":"台電新設工程","event_type":"管線工程","start_date":"2026-06-15T00:00:00","end_date":"2026-09-25T00:00:00","source_crs":"EPSG:3826","geometry_method":"yilan_gml_polygon","source_url":"https://cdn.odportal.tw/api/v1/resourcedata/DSNTMGUM/61b504bb6e97860024674b09.csv?251125","road_id":"","highway":"","road_distance_m":null}},{"type":"Feature","geometry":{"type":"Polygon","coordinates":[[[121.78893227677061,24.77917688966805],[121.78893017835014,24.779171250945836],[121.78891355665627,24.779152504124575],[121.78892999976134,24.779143000282456],[121.78885312611655,24.779056769054048],[121.78886751841378,24.77904915928357],[121.78895484945829,24.779157937226532],[121.78893227677061,24.77917688966805]]]},"properties":{"event_id":"59793","project_name":"住宅新建埋設排水管線工程","location":"美城美城三路11號","road_name":"美城三","unit":"板新企業社","purpose":"用戶排水管線埋設","event_type":"管線工程","start_date":"2026-09-02T00:00:00","end_date":"2026-09-25T00:00:00","source_crs":"EPSG:3826","geometry_method":"yilan_gml_polygon","source_url":"https://cdn.odportal.tw/api/v1/resourcedata/DSNTMGUM/61b504bb6e97860024674b09.csv?251125","road_id":"","highway":"","road_distance_m":null}}]}