{"type":"FeatureCollection","name":"yilan-road-repeat-construction-audit-2026-09","features":[{"type":"Feature","geometry":{"type":"Point","coordinates":[121.77822382408337,24.676183858156275]},"properties":{"cluster_id":"RC-0001","event_count":5,"pair_count_50m":4,"short_repeat_pair_count":0,"min_short_gap_days":null,"earliest_start":"2026-07-20","latest_start":"2026-09-07","road_names":"光榮、東宜二、東榮、羅榮","event_types":"管線工程","units":"中華電信宜蘭營運處、東山林開發事業股份有限公司","event_ids":"59818、59820、59822、59824、60488","project_names":"宜蘭縣羅東地區污水下水道系統興建營運轉移｜宜蘭縣羅東地區污水下水道系統興建營運轉移｜宜蘭縣羅東地區污水下水道系統興建營運轉移｜宜蘭縣羅東地區污水下水道系統興建營運轉移｜羅東鎮光榮路271之1_林國漳競選總部","trigger_reason":"5件施工於50公尺範圍形成重複施工群聚","audit_priority":"中"}},{"type":"Feature","geometry":{"type":"Point","coordinates":[121.71847446569448,24.731585863687904]},"properties":{"cluster_id":"RC-0002","event_count":2,"pair_count_50m":1,"short_repeat_pair_count":0,"min_short_gap_days":null,"earliest_start":"2024-11-27","latest_start":"2024-11-27","road_names":"三鬮、尚惠","event_types":"管線工程","units":"自來水公司第八區管理處北區服務所","event_ids":"52588、53034","project_names":"自來水民生用戶管線新裝工程｜自來水民生用戶管線新裝工程","trigger_reason":"2件施工於50公尺範圍形成重複施工群聚","audit_priority":"一般"}}]}