{"type":"FeatureCollection","name":"yilan-county-scope","metadata":{"source_dataset":"https://data.gov.tw/dataset/7441","source_description":"由內政部國土測繪中心鄉鎮市區界線（TWD97 121分帶）公開資料衍生之宜蘭縣縣界聯集；僅作本分析範圍篩選。","source_crs":"EPSG:3826","output_crs":"EPSG:4326","derivation":"dissolve 宜蘭縣鄉鎮市區界線後以約100公尺容差簡化"},"features":[{"type":"Feature","properties":{"name":"宜蘭縣（衍生範圍）"},"geometry":{"type":"MultiPolygon","coordinates":[[[[121.85179082568607,24.628857317611164],[121.85876606370289,24.61669669299806],[121.86613122977246,24.60992134099712],[121.87340345360656,24.60873139763595],[121.8753208387858,24.605638981653726],[121.880216154452,24.605742659096506],[121.88217546602505,24.603512766700874],[121.88513956314034,24.603715053007363],[121.88365948499734,24.601379748376758],[121.88603929617659,24.599813176137218],[121.87922891558208,24.599121652342433],[121.87345821062797,24.59661079645116],[121.87924217068974,24.591035122073265],[121.87621446542528,24.58648962109919],[121.87225299318118,24.584049007655608],[121.87400489770789,24.584565006270054],[121.87526640552028,24.581386009856544],[121.87979216097949,24.579663331497613],[121.87698341005637,24.578080164967673],[121.87570499409026,24.57900736959448],[121.87553080620182,24.577159369809124],[121.8720772593581,24.57817942673921],[121.86949338661054,24.57448817019298],[121.87121560002004,24.55237445171963],[121.87410669826556,24.5454939788641],[121.87231127284701,24.54148414557693],[121.87375295533468,24.534380710101743],[121.87257407543325,24.53109669535627],[121.86857470935547,24.527653008679465],[121.86092647267867,24.527174058536048],[121.85626414977071,24.52393702527354],[121.84254032717445,24.520805900671803],[121.83877681729632,24.511617610064718],[121.83833833664494,24.50348327633219],[121.83971035404966,24.498635373823504],[121.84643710129126,24.49658067026178],[121.84767003224624,24.49741333455779],[121.84804605048487,24.49580887837709],[121.85073567810912,24.495343434252163],[121.8496547442711,24.49220170304619],[121.8516590633152,24.48389462483709],[121.86022516785727,24.483641389238755],[121.86241783011883,24.481196325949725],[121.85969012519922,24.478556755489933],[121.85545037933161,24.480585043265194],[121.84173755184656,24.475916620255873],[121.83265678867997,24.467422938118148],[121.82086136436055,24.46208908424387],[121.82002920008756,24.458725717817686],[121.82180717596043,24.45564710732822],[121.81716867429498,24.450210799089177],[121.81655405422623,24.446739404300104],[121.81560146713412,24.447892669710996],[121.81218180224846,24.442686697633064],[121.80186436694703,24.434336829681],[121.79114802925824,24.408230186074263],[121.78702757666144,24.372496352124983],[121.7787176359102,24.356201321034177],[121.7716386754845,24.33756317919739],[121.77089084063982,24.332586780655447],[121.77396257581233,24.319606413205463],[121.77272412751654,24.313628696007584],[121.75939802559844,24.314106822372025],[121.74473627395992,24.322852559298212],[121.73517998526813,24.323073606361902],[121.7277914503153,24.325985398907108],[121.71353540533471,24.326886850547737],[121.69571464471517,24.334706218317365],[121.68846643817562,24.333619216753505],[121.68558128624738,24.340731448497593],[121.6748402576718,24.33777398478162],[121.67348751903387,24.339979817614562],[121.67398315250057,24.343396457180802],[121.66910892953354,24.343099766341197],[121.66390365443021,24.349173300007863],[121.6631293156654,24.352885976606558],[121.66001179870557,24.35115163134276],[121.65664620016207,24.353254561049198],[121.65351388575732,24.352188940866995],[121.65365359903444,24.35610897504921],[121.65067704181206,24.359853064067693],[121.64785276409384,24.357725036980924],[121.65072354485574,24.35093003749131],[121.64875568882405,24.349508493522194],[121.6404750120123,24.357167844920184],[121.63833661484296,24.36231914451298],[121.63502838764998,24.36371602367558],[121.63499921454218,24.366338599646724],[121.63061870049273,24.366420613320713],[121.63095152609208,24.370548851348474],[121.62188146575716,24.36675924494324],[121.62037773184693,24.363209485929076],[121.62356944287558,24.362340724644753],[121.62120182650312,24.35811415294586],[121.62677118584156,24.35433005039158],[121.62685163649394,24.349530988264576],[121.63046436423906,24.3482166012152],[121.63323666114309,24.349170075038955],[121.63552173234211,24.34761791353594],[121.63529676153632,24.34481515659428],[121.63137283418905,24.34398246531856],[121.63280419695616,24.334747367696934],[121.62863775572794,24.333694265178224],[121.62669023606566,24.335625902813206],[121.62747995863322,24.341118630020787],[121.622785001127,24.339473054138182],[121.61921377349688,24.345481840214802],[121.61613884573126,24.338134487916307],[121.61866169498126,24.33574298824834],[121.61753693358264,24.333646253072175],[121.61522998907276,24.333303479172287],[121.61220686225693,24.33588829710726],[121.60791666622129,24.335415904820195],[121.60646047946761,24.330057321388324],[121.60447266388235,24.329008745157523],[121.60071970305194,24.33086316520297],[121.59922975484938,24.333525071225097],[121.5969784972599,24.333467055060567],[121.59575243442737,24.331623240720035],[121.59657080220086,24.32813892806911],[121.60132686864017,24.323284791460026],[121.6010983347204,24.320581426691547],[121.6052267786929,24.317282240383122],[121.60702288399898,24.31263692905111],[121.60574656525182,24.309422573992663],[121.60191823673733,24.314147626411852],[121.59719185152278,24.316293909736203],[121.59376069330142,24.31641318232255],[121.58948861320903,24.31380246930854],[121.58751516159555,24.316061922419863],[121.5758548792993,24.319670218305987],[121.56989963526007,24.31794162510596],[121.56637338362486,24.31918351600649],[121.5633298341046,24.322234679187147],[121.55948921905224,24.323153812398573],[121.55607855008509,24.331154080596377],[121.54498871136002,24.33776789547204],[121.54053514538077,24.335912011330322],[121.53327223402641,24.337055334735965],[121.52215888072783,24.34302200915846],[121.51356669674567,24.34081398377839],[121.50968009306189,24.34120061311785],[121.50730324245069,24.343257548796885],[121.50387749275217,24.342781173412448],[121.49939508011892,24.339369817363206],[121.49540315503168,24.340289001836027],[121.4853675510717,24.34845621927917],[121.48111317863038,24.349075501433276],[121.47887456191154,24.35187580862174],[121.47526272719313,24.35126471209685],[121.46540060965049,24.355306063024443],[121.45201245271255,24.364679861286618],[121.44797807782606,24.37482633097045],[121.44255587095677,24.373127073655553],[121.43778703234568,24.38287609965232],[121.4293714104623,24.383059732220943],[121.41909943678968,24.379052239868997],[121.41277099748356,24.379741670941428],[121.40790682533975,24.377548166015117],[121.40088580643487,24.379674302726926],[121.39546800894152,24.377847509854746],[121.39304479827888,24.375205998657975],[121.38996497820119,24.37514743120903],[121.38762249068543,24.369685173032337],[121.38076339651354,24.366904100543877],[121.37373777847574,24.368052688580747],[121.3694343525134,24.372259268350604],[121.36710487818766,24.378925332038477],[121.36980307095507,24.38259001721559],[121.36488783080881,24.38907398257828],[121.35469210165923,24.393272017889387],[121.34296806822181,24.392842326312348],[121.33913490315331,24.389603898201415],[121.33233500775452,24.3979430813082],[121.32760101337612,24.398454782062572],[121.32597882885989,24.40103620325823],[121.32499644632901,24.406912483224573],[121.32744088728714,24.413021157900175],[121.32825676213997,24.433453050617857],[121.3216745107701,24.44036825708946],[121.31766529351853,24.441488526374428],[121.32379572639172,24.456721179339013],[121.3308776231039,24.465206334105062],[121.3360005185092,24.467365852751982],[121.33564135356562,24.47203509774164],[121.34007367036361,24.474851373292267],[121.34283926192245,24.48225950447261],[121.34631700142859,24.484656096102015],[121.35073934924162,24.48434330919639],[121.35775034250435,24.486608670853514],[121.3638510123144,24.494956736564177],[121.3712540407414,24.49836314814081],[121.37335395412174,24.509895588210895],[121.38356828394922,24.510217183975897],[121.38511672046036,24.51682042282431],[121.38853378270801,24.51780022789825],[121.39062126116232,24.523031232605376],[121.39771383912239,24.524813464070178],[121.40150043369817,24.52898632286059],[121.39674703824528,24.539822453843215],[121.39876250348686,24.54820309839431],[121.39475965703264,24.55591118495329],[121.40125648629783,24.56200550015376],[121.40358493539657,24.568707203075007],[121.41233041511657,24.57349856071005],[121.40308850782844,24.591866117227596],[121.40847123715798,24.598980713289336],[121.41229016685782,24.60093651660702],[121.41278153753797,24.603649978963404],[121.41828741733048,24.60103413531715],[121.42440460858586,24.603005858433676],[121.42768883197402,24.605848960760966],[121.43061698678457,24.61450887808229],[121.43566105481386,24.621326334542744],[121.43483811938381,24.62445517846379],[121.43608563104715,24.627402040971447],[121.44054785569904,24.635095603479385],[121.44502103589218,24.63729519141998],[121.44507749353158,24.643177327771525],[121.44876294945061,24.6460138335716],[121.45133869232689,24.65091801655325],[121.44761308617501,24.65617149531829],[121.44914119890723,24.661379459394595],[121.45374553802617,24.66422539098903],[121.45964064170232,24.673233806395103],[121.46920665925995,24.67183148543478],[121.48734874225067,24.675213389586304],[121.49300912107412,24.673243394067413],[121.51174220793666,24.684353604235525],[121.52379561267742,24.683295103985927],[121.52695387252322,24.685254672764984],[121.52788073270972,24.68896891508342],[121.52949845658861,24.687573303065562],[121.53687321033044,24.688494833869527],[121.53755927973702,24.69401479434731],[121.53889281874865,24.694775974231902],[121.53786469310114,24.69984440219747],[121.54320708334023,24.705643862973943],[121.55062202598572,24.70574206714275],[121.5563765692234,24.71122180814001],[121.56254306221263,24.712839315282224],[121.56777952040864,24.711563200681212],[121.57037577772007,24.713971256868035],[121.57216094097475,24.710582621290996],[121.57506588068588,24.71032647638583],[121.57728279406581,24.714873730138606],[121.57805944678614,24.722164277659317],[121.58768793125307,24.72032920293043],[121.59795328141888,24.729029823567544],[121.59377130979817,24.72953748366797],[121.59530705777456,24.73963186821618],[121.59166853567444,24.74491605972844],[121.59613331889761,24.748302000936633],[121.5903281932915,24.751244577275486],[121.58897432060849,24.755152265564675],[121.59077870147598,24.761344578989167],[121.59627851893856,24.76693919848526],[121.59558848082384,24.769300752527784],[121.59758595512778,24.772169159978773],[121.5920841168886,24.787734034198365],[121.6056437349705,24.78912611367923],[121.60963678960627,24.793765685538006],[121.62096116882299,24.792503170484963],[121.6255796443852,24.795128975022237],[121.62582739501829,24.808780144987736],[121.62866437566049,24.80796009278413],[121.6388028395794,24.81072537407681],[121.645036580274,24.80928933663364],[121.64737409453892,24.813951818721534],[121.65311451032642,24.81126590080072],[121.66069020858629,24.81082860725445],[121.66904965881474,24.81800915419916],[121.67428332191787,24.814126999461507],[121.67715642382996,24.814091603944405],[121.68124072457988,24.817615829407032],[121.68844599388763,24.816193734153558],[121.69011832100375,24.821492393059543],[121.68764366912012,24.824904772537252],[121.69616640385652,24.82989412041735],[121.69640401643233,24.83461962069896],[121.69916435864832,24.835576560509935],[121.70186589149773,24.834400469406205],[121.7089137695549,24.840544413693806],[121.7142674103128,24.84178305084714],[121.71559079328051,24.844350317613134],[121.71973551947872,24.84558897365224],[121.72192139815411,24.84984966383098],[121.73051381775849,24.85529271968329],[121.7365964345779,24.855696205015875],[121.7419899989394,24.852459142975135],[121.74578333573243,24.852853345505537],[121.74796975669892,24.85495003931294],[121.7609852993321,24.856700890733578],[121.76156406612881,24.860152081353533],[121.76278935104779,24.8612552122583],[121.76437941807569,24.859889473020814],[121.76848841330968,24.865783375202682],[121.77542665051953,24.865083491310145],[121.77733079318159,24.87076291777447],[121.78517286343697,24.874135706397794],[121.78224085683019,24.879184352875654],[121.78168481140494,24.889465878247734],[121.78558315034218,24.890583224736076],[121.78579306020163,24.89249404936095],[121.79001026276353,24.89345422673125],[121.79293794632918,24.89615714723459],[121.79199500806328,24.899868780619784],[121.79518415242671,24.899752614291742],[121.7971639550525,24.9016202714584],[121.8046233394956,24.90118938018577],[121.8104760716135,24.903631488302608],[121.81163528244235,24.906518518914595],[121.8183805746039,24.902709920626364],[121.8255147632957,24.90526221457958],[121.83182035802315,24.90490759930634],[121.84373803618143,24.915722857923583],[121.84559774513991,24.91936864384786],[121.85363159492226,24.925118923399623],[121.85386754285287,24.927878703539363],[121.84914500763603,24.93032774003325],[121.84673627515906,24.93771456627428],[121.84244303401886,24.939360045929448],[121.83904781630372,24.94463594479305],[121.84175536651696,24.951124828548075],[121.8414118183008,24.95426383570748],[121.8468626829665,24.960266649386426],[121.85036323467557,24.961177801114673],[121.85256609255123,24.959605359000193],[121.86091146838965,24.963654675223154],[121.87155156964923,24.96071931144712],[121.88252926291523,24.964169562275515],[121.88856550439459,24.96317529430445],[121.88957462376993,24.964760658777436],[121.89720398277768,24.967067009734762],[121.90282820345885,24.974379032166667],[121.90542445537437,24.973417314257688],[121.90826466278406,24.97586322650676],[121.91032722192381,24.974773715834374],[121.91096436101645,24.976930987075434],[121.9148172617073,24.979331359454704],[121.92274368926985,24.978600547877022],[121.933499793181,24.980897086331538],[121.93445456832376,24.98314421603277],[121.9404203461221,24.984445250847727],[121.94464081861895,24.988178371734534],[121.94789744001491,24.986662737095685],[121.95038506012247,24.98832387214901],[121.95808825706752,24.98728891794923],[121.96107515739266,24.988292975040792],[121.96599328795992,24.983030042602422],[121.96224171927997,24.981751886540394],[121.95830724108635,24.98262258946096],[121.94427361283704,24.976830951886996],[121.94183319094907,24.973385709383024],[121.93622901975357,24.97385178213409],[121.92559169380172,24.96856021438242],[121.92238743812982,24.963212547820888],[121.9230474793577,24.961830537149638],[121.92015226851242,24.95906177727926],[121.9201972543998,24.955193077298702],[121.90535942989379,24.94659780234673],[121.90467103573974,24.939816236030538],[121.89528345716587,24.940726732152996],[121.88926260308676,24.93709722215914],[121.88498312786908,24.917851869768015],[121.87250985754395,24.906183831718522],[121.87178758412972,24.903644787476992],[121.87187714851166,24.9049670417956],[121.86737504881955,24.902987252659614],[121.86047350035187,24.89446134331638],[121.85136210447763,24.890113748950398],[121.8508364678288,24.886459131683637],[121.84268995277921,24.876157052306155],[121.82714304071885,24.84235901895363],[121.81901871823936,24.797481441415414],[121.81799501635703,24.779333414805308],[121.81910720163614,24.75879090997256],[121.82195500921637,24.74411798155967],[121.82889507744596,24.72670522176861],[121.83364759246251,24.719031019865724],[121.83913923149044,24.71741365211841],[121.8363121955515,24.708233826829712],[121.838192608702,24.672232351042226],[121.84381949947044,24.6482171968662],[121.85179082568607,24.628857317611164]],[[121.58812076865865,24.716371674213462],[121.58815878042306,24.71629076063067],[121.58804774640646,24.7178129735899],[121.58812076865865,24.716371674213462]],[[121.58833703942287,24.715911310358763],[121.58841192288975,24.715837428085987],[121.58828328488343,24.71602573473356],[121.58833703942287,24.715911310358763]],[[121.58865466018449,24.715597936195877],[121.58969477919072,24.71503896527605],[121.58857147914757,24.715680005099923],[121.58865466018449,24.715597936195877]],[[121.59507680794843,24.708877445537723],[121.59518485302516,24.708823821195615],[121.594425304884,24.709667292211805],[121.59507680794843,24.708877445537723]],[[121.59584267330081,24.708576158263156],[121.59692232110831,24.70796149053041],[121.5969984472216,24.70794379290911],[121.59584267330081,24.708576158263156]],[[121.62617974759735,24.687245504676355],[121.62677313197457,24.687180606899517],[121.62604963889412,24.687335728159457],[121.62617974759735,24.687245504676355]],[[121.63037895350531,24.689154488925553],[121.63023866138519,24.689118614432573],[121.62962589212134,24.688595202706495],[121.63037895350531,24.689154488925553]],[[121.63047426689913,24.689125827273497],[121.63048329496814,24.689181170374752],[121.63044204677428,24.68917062268298],[121.63047426689913,24.689125827273497]],[[121.62992129650266,24.68758876323746],[121.63010023593722,24.687756238659517],[121.63033705621024,24.688284709971413],[121.62992129650266,24.68758876323746]],[[121.6281101432686,24.686203944956162],[121.62943253608273,24.687131315957515],[121.62960047986172,24.68728850017651],[121.6281101432686,24.686203944956162]],[[121.62712941017925,24.684669923226704],[121.62720022271219,24.684719939473666],[121.6281101432686,24.686203944956162],[121.62712941017925,24.684669923226704]],[[121.62562947941706,24.683992417616025],[121.62681785885718,24.684449868566617],[121.62706863729937,24.684626998178807],[121.62562947941706,24.683992417616025]],[[121.62322860521601,24.681774735315855],[121.62384105611989,24.682243843278798],[121.62562947941706,24.683992417616025],[121.62322860521601,24.681774735315855]],[[121.63527145911064,24.682652848650093],[121.63538383813513,24.682679222145033],[121.633524637552,24.682468039768253],[121.63527145911064,24.682652848650093]],[[121.63743856623694,24.68327568222702],[121.63746595943935,24.68330072492899],[121.63691665637862,24.683038949188187],[121.63743856623694,24.68327568222702]],[[121.71413436281068,24.699499433951758],[121.71498963246563,24.699823091862243],[121.71408917629431,24.699519181436276],[121.71413436281068,24.699499433951758]],[[121.72615632995075,24.703228002470382],[121.72731987371321,24.703807050754847],[121.7260898652254,24.703211597069334],[121.72615632995075,24.703228002470382]],[[121.74073909143601,24.709522542731236],[121.73878654781248,24.708816188953463],[121.74218678992949,24.710085811178757],[121.74073909143601,24.709522542731236]],[[121.74652872667558,24.718175835526576],[121.74639844683088,24.718084794577635],[121.74581645416606,24.717303918640994],[121.74652872667558,24.718175835526576]],[[121.74752512378552,24.7184745139877],[121.74678114703238,24.718352229571792],[121.74664598143583,24.7182577744072],[121.74752512378552,24.7184745139877]],[[121.74967015742203,24.71816025345352],[121.74929892590478,24.718240195628596],[121.74752512378552,24.7184745139877],[121.74967015742203,24.71816025345352]],[[121.75579574078085,24.716976301015507],[121.75674202073442,24.71685969584511],[121.75354784036062,24.717325220882287],[121.75579574078085,24.716976301015507]],[[121.75747849913353,24.716768943432044],[121.76023501203622,24.716725535854835],[121.75719988417991,24.716803275707623],[121.75747849913353,24.716768943432044]],[[121.76086124464678,24.71659015231388],[121.76080914012982,24.7166083065282],[121.76023501203622,24.716725535854835],[121.76086124464678,24.71659015231388]],[[121.76314477103037,24.715571099723682],[121.76311783472033,24.71560293912438],[121.76224451477265,24.716108194437652],[121.76314477103037,24.715571099723682]],[[121.76481920094545,24.713701562776976],[121.76487924636145,24.713686691935166],[121.76476688950136,24.713761441027707],[121.76481920094545,24.713701562776976]],[[121.76602468369231,24.713403013038658],[121.76696834936931,24.71336896308768],[121.76553620352165,24.713523989989596],[121.76602468369231,24.713403013038658]],[[121.811704396241,24.711909340743546],[121.81189978999276,24.71193158443725],[121.81131911719336,24.71193786844874],[121.811704396241,24.711909340743546]],[[121.8125186972801,24.712002041061396],[121.81481996257128,24.712921352338583],[121.81236983792103,24.71198509485939],[121.8125186972801,24.712002041061396]],[[121.73605548966918,24.62001673368536],[121.73528484891676,24.62064830957189],[121.73606510197463,24.620002242514776],[121.73605548966918,24.62001673368536]],[[121.73786784248246,24.61625306119548],[121.73725300262402,24.61665299853712],[121.7378356652838,24.616235871388426],[121.73786784248246,24.61625306119548]],[[121.7384165131117,24.616636183912817],[121.73798752116451,24.616316996327757],[121.74066066785565,24.61774505339156],[121.7384165131117,24.616636183912817]],[[121.74143943937872,24.61879769096072],[121.7414139637231,24.618763256429656],[121.74148599030315,24.618814484487757],[121.74143943937872,24.61879769096072]],[[121.7426520879236,24.618904270515714],[121.74277238711979,24.618966655256525],[121.74160450521292,24.618857239456982],[121.7426520879236,24.618904270515714]],[[121.74431347658572,24.620218782570817],[121.7436457056848,24.619419540679303],[121.74433938728471,24.620222183690114],[121.74431347658572,24.620218782570817]],[[121.74457215398184,24.62025273737396],[121.7444456203776,24.620236128177766],[121.74464694860505,24.62019379668272],[121.74457215398184,24.62025273737396]],[[121.74518644808478,24.61976865285703],[121.74478517391422,24.620084870466933],[121.74495498008832,24.61989508239219],[121.74518644808478,24.61976865285703]],[[121.7455731911499,24.619463886249378],[121.74555345114916,24.619479442037193],[121.74568461175545,24.619045778839677],[121.7455731911499,24.619463886249378]],[[121.74677941415233,24.606915432833457],[121.7466366826369,24.60703609284144],[121.7467444852698,24.606902812414887],[121.74677941415233,24.606915432833457]],[[121.75449172074907,24.616296253944256],[121.75318472649394,24.616937088975533],[121.75431088274115,24.616299710663156],[121.75449172074907,24.616296253944256]],[[121.75498207286444,24.616570216842092],[121.7545252722737,24.61629561260679],[121.75459039473094,24.616294367790886],[121.75498207286444,24.616570216842092]],[[121.75644982579888,24.61829788104245],[121.75644769309515,24.618279802198845],[121.75653982537078,24.618429904306574],[121.75644982579888,24.61829788104245]],[[121.75805288785196,24.61914000955416],[121.75701240749663,24.619123150213284],[121.75698487242471,24.61908275813146],[121.75805288785196,24.61914000955416]],[[121.75926708520785,24.618943346957963],[121.7582703429523,24.619104788521614],[121.75933077209409,24.61890458840769],[121.75926708520785,24.618943346957963]],[[121.75980153611204,24.618618090952168],[121.75952224165178,24.618788063909218],[121.76066637275494,24.617695752556983],[121.75980153611204,24.618618090952168]],[[121.76684185932173,24.61412439841713],[121.76646273087044,24.61451574710412],[121.76675659334217,24.61415931879759],[121.76684185932173,24.61412439841713]],[[121.76878340263204,24.613980064128725],[121.7668647820218,24.614115010506367],[121.76703673935413,24.614044585988893],[121.76878340263204,24.613980064128725]],[[121.77273874842889,24.6116332302913],[121.77249173331913,24.611739378504947],[121.77256964197545,24.611685318023035],[121.77273874842889,24.6116332302913]],[[121.77450361964634,24.611432491616256],[121.77304348074044,24.611539367434066],[121.77321865301849,24.611485411322747],[121.77450361964634,24.611432491616256]],[[121.78665857223541,24.60193199686421],[121.78637821578207,24.60316085029308],[121.78664861919735,24.601589307377044],[121.78665857223541,24.60193199686421]],[[121.78816450228999,24.601047109836315],[121.78669944808472,24.601293897728464],[121.786704550075,24.601264245748382],[121.78816450228999,24.601047109836315]],[[121.78943412633976,24.601164938811053],[121.78940107100266,24.60118852912734],[121.78816450228999,24.601047109836315],[121.78943412633976,24.601164938811053]],[[121.7933979812011,24.599239520665737],[121.79328422671976,24.599263020946626],[121.79334488505845,24.599228216608935],[121.7933979812011,24.599239520665737]],[[121.79480597956521,24.59990706124468],[121.79404205030039,24.59937664161879],[121.794631051382,24.599714087934842],[121.79480597956521,24.59990706124468]],[[121.7960987035924,24.60162854761944],[121.79600955023362,24.60147821228669],[121.796248429021,24.60176189272955],[121.7960987035924,24.60162854761944]],[[121.79664062786276,24.602111184083924],[121.79651971240382,24.602003497064178],[121.7967561128576,24.602129470262913],[121.79664062786276,24.602111184083924]],[[121.79782709084759,24.60229905156001],[121.79738208968135,24.602228588977503],[121.79826553349992,24.602270359029355],[121.79782709084759,24.60229905156001]],[[121.82442942472858,24.640284505325866],[121.82448443615853,24.640035304283305],[121.82446291623069,24.640254763146856],[121.82442942472858,24.640284505325866]],[[121.82368902263033,24.64061588141783],[121.82371196802521,24.64061281732795],[121.82343711173337,24.640843114018537],[121.82368902263033,24.64061588141783]],[[121.81371641068034,24.65123978837666],[121.81399923407741,24.651528940408298],[121.8142012204461,24.651798600323975],[121.81371641068034,24.65123978837666]],[[121.81443819122775,24.652228330934083],[121.8144476031888,24.652127531182323],[121.81447185838965,24.652159912849754],[121.81443819122775,24.652228330934083]],[[121.81808587756132,24.65561922254915],[121.81776708318444,24.655452056567185],[121.81810371498383,24.655582536582248],[121.81808587756132,24.65561922254915]],[[121.81841526954906,24.654941766849106],[121.81823046626832,24.655321849062954],[121.81856840970443,24.654150001921096],[121.81841526954906,24.654941766849106]],[[121.62189207311322,24.68154265774812],[121.62281766202047,24.681626299944522],[121.6220178677305,24.681610598250586],[121.62189207311322,24.68154265774812]],[[121.62148632460224,24.681304245187494],[121.62161265309308,24.68139174559483],[121.62151018244901,24.681336402153306],[121.62148632460224,24.681304245187494]],[[121.61525223380363,24.67597621163293],[121.61554082085229,24.676231664959403],[121.61522044769683,24.675964974167588],[121.61525223380363,24.67597621163293]],[[121.61061876924089,24.673246049765453],[121.6115861070133,24.67408371429201],[121.610592493187,24.673241918657492],[121.61061876924089,24.673246049765453]],[[121.58816481115718,24.661128198707445],[121.59073786972384,24.66339730191398],[121.59067524346779,24.663374731258898],[121.58816481115718,24.661128198707445]],[[121.56486413117631,24.643646556555264],[121.56496605455922,24.643859514299894],[121.56489579300649,24.64376179447129],[121.56486413117631,24.643646556555264]],[[121.56455281765852,24.641909814286578],[121.56466644455556,24.64292704684673],[121.56463521444368,24.64281338023335],[121.56455281765852,24.641909814286578]],[[121.56643999575041,24.640509718003504],[121.56569615185595,24.640756726941447],[121.56622667452143,24.64052931447634],[121.56643999575041,24.640509718003504]],[[121.56740927581745,24.640715624326674],[121.56663708929115,24.640491612265805],[121.56669395865936,24.640486388036436],[121.56740927581745,24.640715624326674]],[[121.56851957480797,24.641441100331566],[121.56841619185388,24.641405464590548],[121.56740927581745,24.640715624326674],[121.56851957480797,24.641441100331566]],[[121.65960614600692,24.6382161376647],[121.6595897997489,24.638202049581608],[121.65974895659829,24.638148697291143],[121.65960614600692,24.6382161376647]],[[121.6599578771544,24.638050037379344],[121.65994015923341,24.638058404428307],[121.659982078884,24.638021631814233],[121.6599578771544,24.638050037379344]],[[121.66918915784255,24.635952661468423],[121.66900120086896,24.63601846086122],[121.66907343688968,24.63597332291056],[121.66918915784255,24.635952661468423]],[[121.67061631469119,24.635952265284857],[121.66935685637095,24.63592271967003],[121.6697172129791,24.635858379660533],[121.67061631469119,24.635952265284857]],[[121.67182436949906,24.635740900322332],[121.67216748154975,24.63576895797942],[121.67061631469119,24.635952265284857],[121.67182436949906,24.635740900322332]],[[121.67704426565724,24.63705568100493],[121.67645598955232,24.637677386202483],[121.67697776271359,24.637074372784127],[121.67704426565724,24.63705568100493]],[[121.67793807352756,24.63683396414549],[121.67745890682129,24.636939139079733],[121.67787942389634,24.636820945630177],[121.67793807352756,24.63683396414549]],[[121.67874483404631,24.637024074646977],[121.67846435508297,24.636950783370896],[121.67870385759704,24.63700394597538],[121.67874483404631,24.637024074646977]],[[121.6796960283491,24.63754557346948],[121.67887841040181,24.637089690742094],[121.67981885934077,24.637551663123393],[121.6796960283491,24.63754557346948]],[[121.68011999617529,24.635944800026394],[121.68015364117764,24.636690630268447],[121.68006224487681,24.636104088832667],[121.68011999617529,24.635944800026394]],[[121.6802197829563,24.635749698896173],[121.6801602547609,24.63583375937082],[121.68018073415362,24.635777273402482],[121.6802197829563,24.635749698896173]],[[121.68363204396738,24.63187007726861],[121.6820930984178,24.633770807676683],[121.6835736415104,24.63189202589632],[121.68363204396738,24.63187007726861]],[[121.72446339217186,24.61821409480467],[121.72440999577466,24.61823954268676],[121.72447144286498,24.618169182579813],[121.72446339217186,24.61821409480467]],[[121.72564875888315,24.619389836971436],[121.72482158584762,24.618445207980017],[121.72571027711147,24.619415064340487],[121.72564875888315,24.619389836971436]],[[121.72724467796394,24.62004429079304],[121.72663974385426,24.619796219669222],[121.727215178238,24.62001331176498],[121.72724467796394,24.62004429079304]],[[121.72781698476615,24.6206253849536],[121.72779213433785,24.620597358527288],[121.72799604506203,24.620695725717436],[121.72781698476615,24.6206253849536]],[[121.72839310485801,24.62085170384313],[121.7283001824814,24.6208152008824],[121.73119553354707,24.620892950349457],[121.72839310485801,24.62085170384313]],[[121.73262255258874,24.621442002646347],[121.73281072925771,24.621462621383884],[121.73191656387634,24.62155648519589],[121.73262255258874,24.621442002646347]],[[121.79731319035147,24.600508433917128],[121.79828928103716,24.59954938287951],[121.7982506769273,24.59965951707312],[121.79731319035147,24.600508433917128]],[[121.84958391743446,24.538014925093005],[121.84968635869994,24.537973443327704],[121.84965828849931,24.53803643893059],[121.84958391743446,24.538014925093005]],[[121.84975537476052,24.537818556356918],[121.84972978326907,24.53770153419815],[121.84978532673153,24.537751337654186],[121.84975537476052,24.537818556356918]],[[121.4423874998899,24.402567021799292],[121.44240227326297,24.402600518780147],[121.44238831287043,24.40257686872758],[121.4423874998899,24.402567021799292]],[[121.44287644042875,24.403403796937464],[121.443310827989,24.404099443548407],[121.44327490051626,24.40407882108076],[121.44287644042875,24.403403796937464]],[[121.45777097144133,24.41392825198261],[121.4578909414139,24.413995255876387],[121.45795072562468,24.414142583901572],[121.45777097144133,24.41392825198261]],[[121.45808319242715,24.414469025819155],[121.45815773788934,24.41465273043923],[121.45810392476196,24.41904071563768],[121.45808319242715,24.414469025819155]],[[121.45810739835123,24.41980667725882],[121.45820057949284,24.42111124660237],[121.45810812768798,24.41996750339763],[121.45810739835123,24.41980667725882]],[[121.45828728679518,24.42218392320407],[121.45829070714865,24.422199673722545],[121.45828815577386,24.42219467354539],[121.45828728679518,24.42218392320407]],[[121.48303818736247,24.452055973204665],[121.4840026207885,24.452909558341062],[121.48380196448909,24.452791570074965],[121.48303818736247,24.452055973204665]],[[121.48436985793367,24.453125498105393],[121.48490954505877,24.453323638098897],[121.48457327523647,24.45324510987399],[121.48436985793367,24.453125498105393]],[[121.48622260777408,24.45363027425055],[121.48685545871251,24.453756561516172],[121.4869214894423,24.45379348228525],[121.48622260777408,24.45363027425055]],[[121.49300612825523,24.456249006277247],[121.49303894529112,24.456261712108358],[121.49328348264669,24.456783840501885],[121.49300612825523,24.456249006277247]],[[121.49384936266198,24.457394149929726],[121.49380525850597,24.457380112602152],[121.49328348264669,24.456783840501885],[121.49384936266198,24.457394149929726]],[[121.49513318754668,24.458024169280066],[121.49567948971674,24.458110332425974],[121.49620705249411,24.458338417858823],[121.49513318754668,24.458024169280066]],[[121.4964567210827,24.458411479186797],[121.49742796118181,24.45813808608954],[121.49649994032006,24.458424126572254],[121.4964567210827,24.458411479186797]],[[121.49868730522284,24.45778359499285],[121.49875345430848,24.457764974773795],[121.4995052524655,24.457955086058405],[121.49868730522284,24.45778359499285]],[[121.50036318501304,24.45781835942978],[121.50094651277867,24.45784775797317],[121.4995052524655,24.457955086058405],[121.50036318501304,24.45781835942978]],[[121.50096315814092,24.45784859686587],[121.5010836885615,24.457854671356074],[121.50222962809494,24.458559646310675],[121.50096315814092,24.45784859686587]],[[121.58780845211655,24.470673051175346],[121.58854896646164,24.470541727618695],[121.58782065499929,24.470681291608344],[121.58780845211655,24.470673051175346]],[[121.61785141124872,24.462831222487136],[121.61789441319672,24.462855014347497],[121.6178932722947,24.462879840819134],[121.61785141124872,24.462831222487136]],[[121.6178555532949,24.463700620918086],[121.61784000601153,24.464038935848237],[121.61761522046606,24.465198796887023],[121.6178555532949,24.463700620918086]],[[121.61870933518773,24.46671897054164],[121.61831097916843,24.46625727825085],[121.61761522046606,24.465198796887023],[121.61870933518773,24.46671897054164]],[[121.61883576456914,24.46686550145344],[121.6197768723049,24.466577309195486],[121.61885336389173,24.46688589896513],[121.61883576456914,24.46686550145344]],[[121.62051661415046,24.46670925772611],[121.62051936481146,24.466712415045198],[121.6197768723049,24.466577309195486],[121.62051661415046,24.46670925772611]],[[121.62076114223133,24.466989936870807],[121.62088597991793,24.46713323057752],[121.62084746933533,24.467105275088443],[121.62076114223133,24.466989936870807]],[[121.62101563692558,24.467227350811903],[121.6214283630286,24.467472327985604],[121.62143275571091,24.467530144456127],[121.62101563692558,24.467227350811903]],[[121.73506413550149,24.591580501538942],[121.73459676602121,24.59178548395729],[121.73471191872011,24.59169668045746],[121.73506413550149,24.591580501538942]],[[121.73435061233452,24.5919753128461],[121.73405645539307,24.592253270056545],[121.73410901591842,24.592161627257326],[121.73435061233452,24.5919753128461]],[[121.7243745004829,24.606881587515318],[121.72387436350692,24.60801466257138],[121.7238703989998,24.607872466840945],[121.7243745004829,24.606881587515318]],[[121.75046212849759,24.684795504770072],[121.75048241764081,24.684419644857403],[121.75050799244991,24.68477633056324],[121.75046212849759,24.684795504770072]],[[121.75046028146502,24.684110916942803],[121.75015901682525,24.68334926115955],[121.75045554398821,24.684044844494053],[121.75046028146502,24.684110916942803]],[[121.74931994755764,24.682091122207567],[121.74930572345028,24.682052751678572],[121.75015901682525,24.68334926115955],[121.74931994755764,24.682091122207567]],[[121.74920485927424,24.68178066347712],[121.74860733466085,24.680168798851014],[121.74860454974824,24.680059433168996],[121.74920485927424,24.68178066347712]],[[121.74857269564158,24.67880849765092],[121.74856445048908,24.67848470410587],[121.74857180857332,24.678476879572838],[121.74857269564158,24.67880849765092]],[[121.80115799264729,24.668394384493297],[121.80120226771662,24.670063771397825],[121.80116042801137,24.670042877776666],[121.80115799264729,24.668394384493297]],[[121.80133968386211,24.670132393317335],[121.80187917946247,24.670268457383457],[121.80155131204344,24.670238074727422],[121.80133968386211,24.670132393317335]],[[121.80704859483829,24.67236408242249],[121.80782944126459,24.67236973915633],[121.80708487566653,24.67238680150973],[121.80704859483829,24.67236408242249]],[[121.80831277941127,24.672373240632623],[121.8089158728693,24.67263430572865],[121.80824841150947,24.67237277432827],[121.80831277941127,24.672373240632623]],[[121.8109647120226,24.67250463078924],[121.80949064937408,24.67269973860209],[121.80937393614902,24.672686451904354],[121.8109647120226,24.67250463078924]],[[121.81191828687564,24.671533233268928],[121.81241187310957,24.670340297067128],[121.81196271031092,24.671469930093224],[121.81191828687564,24.671533233268928]],[[121.81304335391341,24.66922131229515],[121.81304258830765,24.66915984031019],[121.81306089134716,24.669190235940675],[121.81304335391341,24.66922131229515]],[[121.81156092289837,24.66353883774724],[121.81182222811344,24.66283144901223],[121.81190542338504,24.662728682091537],[121.81156092289837,24.66353883774724]],[[121.81263139835404,24.66183192184746],[121.81290778954641,24.66149050975516],[121.81287502845987,24.661545964374795],[121.81263139835404,24.66183192184746]],[[121.81311917939021,24.661132690628268],[121.813438303192,24.66055000419334],[121.81338004994939,24.66069111560256],[121.81311917939021,24.661132690628268]],[[121.8137901693762,24.659697651073092],[121.81388381590287,24.65941825081067],[121.81386998171433,24.65950431537192],[121.8137901693762,24.659697651073092]],[[121.81395679007416,24.658964267549035],[121.81396089068842,24.658763944085596],[121.81397854697241,24.658828914622745],[121.81395679007416,24.658964267549035]],[[121.81390080154105,24.658542831637167],[121.8126276843202,24.65730508716007],[121.81386045789384,24.658394377498553],[121.81390080154105,24.658542831637167]],[[121.8125260348487,24.653580281404913],[121.81221697828352,24.652452781092084],[121.81225316075484,24.652487911787773],[121.8125260348487,24.653580281404913]],[[121.81162417061546,24.651877205543197],[121.81144362252519,24.651716511108134],[121.81143425968891,24.651692815071073],[121.81162417061546,24.651877205543197]],[[121.81138217787685,24.65156100324483],[121.81131567867567,24.651392703010913],[121.81136433904996,24.6513873483457],[121.81138217787685,24.65156100324483]],[[121.81198332816814,24.651319233795675],[121.8133768078934,24.650892586423765],[121.81340125945222,24.650917585126066],[121.81198332816814,24.651319233795675]],[[121.7452884640744,24.71172202349887],[121.74747163750612,24.712649560129137],[121.74592858073947,24.712064243570012],[121.7452884640744,24.71172202349887]],[[121.75924371992176,24.711106453899788],[121.7604103348872,24.710976852643036],[121.7602785733975,24.711013771568332],[121.75924371992176,24.711106453899788]],[[121.76074959397573,24.710881793904896],[121.76148565174853,24.710610753801543],[121.7614024984266,24.71069885326949],[121.76074959397573,24.710881793904896]],[[121.76154720193513,24.710545542471856],[121.76163239931589,24.710309171631025],[121.76167731955275,24.710407685166615],[121.76154720193513,24.710545542471856]],[[121.75657561037622,24.705805806592764],[121.75531637605002,24.70356254487558],[121.75669936300724,24.705947952086074],[121.75657561037622,24.705805806592764]],[[121.75488316632516,24.702256108732456],[121.75485635249404,24.702077486677513],[121.75531637605002,24.70356254487558],[121.75488316632516,24.702256108732456]],[[121.75474537288503,24.701338188897182],[121.7546932870656,24.700991215871966],[121.75460456984513,24.697759658581447],[121.75474537288503,24.701338188897182]],[[121.7538383201971,24.694312699544792],[121.75370890724164,24.693886198586572],[121.75374465249376,24.69389133721552],[121.7538383201971,24.694312699544792]],[[121.75271039727717,24.693742655824888],[121.75239583147764,24.693708829446933],[121.75243966335984,24.693703735938698],[121.75271039727717,24.693742655824888]],[[121.68225282654544,24.638195647000884],[121.68214331476224,24.63818756620327],[121.68210172331996,24.638157344107388],[121.68225282654544,24.638195647000884]],[[121.70106220789272,24.64148102582264],[121.70095771652541,24.641530070156648],[121.70090221731095,24.641527645972896],[121.70106220789272,24.64148102582264]],[[121.70136060290952,24.64139407557616],[121.70198665965665,24.642473208971467],[121.70132600728931,24.641404156500887],[121.70136060290952,24.64139407557616]],[[121.70316319052893,24.650787254228476],[121.70316344935732,24.650818544955477],[121.70257406893825,24.650342508000392],[121.70316319052893,24.650787254228476]],[[121.703167455114,24.651302815772397],[121.70311830831145,24.65136911066357],[121.70316549382612,24.651065708388995],[121.703167455114,24.651302815772397]],[[121.70287016892325,24.651703829767996],[121.70170493263663,24.65264970881708],[121.70302284150175,24.651497887337353],[121.70287016892325,24.651703829767996]],[[121.69589009806447,24.654319051206045],[121.69591507482096,24.654286565772452],[121.69834428126364,24.654232377122582],[121.69589009806447,24.654319051206045]],[[121.69538681779404,24.65502144184878],[121.69542579236645,24.654922939542075],[121.69574773042407,24.65450421834447],[121.69538681779404,24.65502144184878]],[[121.69524363468611,24.658438341756096],[121.69468128813162,24.65791216775608],[121.69527260932436,24.658444568538112],[121.69524363468611,24.658438341756096]],[[121.69563534712856,24.658457576820233],[121.69554216643792,24.658502497592224],[121.69538034100881,24.65846772056885],[121.69563534712856,24.658457576820233]],[[121.69701788107045,24.657754387554974],[121.69705199353508,24.65777463650522],[121.69597767178956,24.658292548122354],[121.69701788107045,24.657754387554974]],[[121.69751094067749,24.658047064720336],[121.69751032559769,24.658072929404653],[121.69732659907162,24.657937640671204],[121.69751094067749,24.658047064720336]],[[121.75110684491861,24.69384355871236],[121.75099271624094,24.69385653884825],[121.75028628798191,24.693420814618946],[121.75110684491861,24.69384355871236]],[[121.76314276567648,24.692699476302504],[121.7631412728515,24.692675758679343],[121.76358140915477,24.69230303016076],[121.76314276567648,24.692699476302504]],[[121.76482769774009,24.69778727586214],[121.76482584467725,24.69782838645828],[121.76444356581794,24.696894992809746],[121.76482769774009,24.69778727586214]],[[121.76481505866809,24.69806767638221],[121.76473052675703,24.698148642524682],[121.76482108303314,24.697934024552865],[121.76481505866809,24.69806767638221]],[[121.76368730612433,24.699147857487674],[121.76407850132182,24.69868049151154],[121.7644817838567,24.69838689282396],[121.76368730612433,24.699147857487674]],[[121.76178551430706,24.700991048479978],[121.76181387980682,24.700953360709093],[121.76181994800335,24.70099215538044],[121.76178551430706,24.700991048479978]],[[121.62821860330598,24.794614972003387],[121.62660695884415,24.79393242524128],[121.62892074416816,24.794794333684898],[121.62821860330598,24.794614972003387]],[[121.62978708835729,24.795305280413082],[121.62915233059798,24.794880601973155],[121.62933439936307,24.794948424430288],[121.62978708835729,24.795305280413082]],[[121.63031669465977,24.795659608304334],[121.630135983332,24.795538705166674],[121.63046441446174,24.795675943618757],[121.63031669465977,24.795659608304334]],[[121.63065658623248,24.795697194569925],[121.63049995959277,24.795679874309727],[121.6341101843376,24.79513853301694],[121.63065658623248,24.795697194569925]],[[121.64740956469973,24.795361218645382],[121.64658212546476,24.795215236194224],[121.64787407218017,24.79533926126688],[121.64740956469973,24.795361218645382]],[[121.64821704797839,24.79532304871975],[121.64807232691126,24.795329889718836],[121.64902780029286,24.794998719015723],[121.64821704797839,24.79532304871975]],[[121.64884051728417,24.794160837970608],[121.64881610547422,24.794259910578074],[121.64881006633152,24.794238834154896],[121.64884051728417,24.794160837970608]],[[121.64907720448362,24.79378892416154],[121.6489306635577,24.793929939928038],[121.64896010742314,24.79385452326767],[121.64907720448362,24.79378892416154]],[[121.64937429336727,24.793686878736686],[121.64922252351761,24.793707514784618],[121.64927987396709,24.79367538641003],[121.64937429336727,24.793686878736686]],[[121.65563114795918,24.79306674233635],[121.65517100263969,24.79320097964154],[121.655747465633,24.792998330578705],[121.65563114795918,24.79306674233635]],[[121.71656648935209,24.779681672771005],[121.71328162025065,24.78036295688503],[121.71689861926662,24.779570777193896],[121.71656648935209,24.779681672771005]],[[121.71774072875166,24.779289603432517],[121.7176226318739,24.77932903505503],[121.71775353746118,24.77925344343367],[121.71774072875166,24.779289603432517]],[[121.71859786607477,24.77800974750325],[121.71814204716432,24.77825191156322],[121.71815089065115,24.778227519384586],[121.71859786607477,24.77800974750325]],[[121.72226226516558,24.77651508192623],[121.72000569164689,24.777323837703253],[121.72030411494302,24.77717844223139],[121.72226226516558,24.77651508192623]],[[121.72351691597294,24.776267853478714],[121.72244009333988,24.776454839279573],[121.72248985692147,24.776437980928108],[121.72351691597294,24.776267853478714]],[[121.72347541149263,24.775223200718163],[121.72348770823356,24.77553270524062],[121.72343685562646,24.77526262906713],[121.72347541149263,24.775223200718163]],[[121.72397836385417,24.7747681392944],[121.72376214187345,24.77492998189992],[121.72389925284835,24.77478976823329],[121.72397836385417,24.7747681392944]],[[121.73367749395265,24.76852831721018],[121.73296401527716,24.769328580249805],[121.73367749395265,24.768528317210176],[121.73367749395265,24.76852831721018]],[[121.7342930039506,24.76959071083486],[121.73373513469056,24.76859359103989],[121.7339439192765,24.76883002398648],[121.7342930039506,24.76959071083486]],[[121.73469735150161,24.772645051527945],[121.73445695036658,24.76994796479568],[121.73446749917582,24.769970951598168],[121.73469735150161,24.772645051527945]],[[121.73350617327951,24.77568169831796],[121.73386567645991,24.774195819081854],[121.73353160619877,24.775649131602165],[121.73350617327951,24.77568169831796]],[[121.73185517727472,24.777397946957763],[121.73338907562298,24.77583164123493],[121.73297484940986,24.77636205566438],[121.73185517727472,24.777397946957763]],[[121.73044509833834,24.779969967894782],[121.73044728681293,24.779901557910648],[121.73185517727472,24.777397946957763],[121.73044509833834,24.779969967894782]],[[121.73521501476114,24.782980122534696],[121.73415548109189,24.783152829232474],[121.73421845801545,24.783112277010048],[121.73521501476114,24.782980122534696]],[[121.7701319846035,24.77181954043948],[121.76970819078042,24.771572883381907],[121.77035866115381,24.77185105466665],[121.7701319846035,24.77181954043948]],[[121.7705166183473,24.771873015027666],[121.7704558473273,24.771864566197266],[121.77069631256214,24.77183076604049],[121.7705166183473,24.771873015027666]],[[121.77226430865096,24.771625408286013],[121.77200232264909,24.771523702157197],[121.77229412718413,24.771582155851913],[121.77226430865096,24.771625408286013]],[[121.79168511517594,24.79397966572907],[121.79164373374707,24.793891503241042],[121.79174380718615,24.793960223903046],[121.79168511517594,24.79397966572907]],[[121.8097693330883,24.799116441270826],[121.80974059323475,24.798171132595762],[121.80975754927158,24.798191511029472],[121.8097693330883,24.799116441270826]],[[121.81703897047214,24.80833458847053],[121.81656186787005,24.807682939696235],[121.81660662139848,24.80770508642064],[121.81703897047214,24.80833458847053]],[[121.819133425867,24.807643737368608],[121.8190140016499,24.807640062942582],[121.819239138237,24.807608036606613],[121.819133425867,24.807643737368608]],[[121.72800796929243,24.751440910969336],[121.73150996711138,24.74855818001606],[121.73277232470888,24.74761321585136],[121.72800796929243,24.751440910969336]],[[121.73444252095142,24.746362955544498],[121.73449313165281,24.746325069846137],[121.73452635193476,24.746313515125138],[121.73444252095142,24.746362955544498]],[[121.73733983486598,24.74533492589004],[121.73738908174084,24.745317796778977],[121.73748307487782,24.745302941855325],[121.73733983486598,24.74533492589004]],[[121.73974499462648,24.744945462083393],[121.7421151665817,24.744570873846783],[121.74063544546948,24.744869954185106],[121.73974499462648,24.744945462083393]],[[121.73338109116446,24.728583864154075],[121.73476734034057,24.7243701482638],[121.7347797777406,24.724369118460597],[121.73338109116446,24.728583864154075]],[[121.73492114449859,24.724357413446686],[121.73507150634498,24.72434496364923],[121.73527903347455,24.72443645300856],[121.73492114449859,24.724357413446686]],[[121.73583762660537,24.72468271154724],[121.73598915747368,24.72474951467842],[121.73601125786647,24.72477428103727],[121.73583762660537,24.72468271154724]],[[121.76008535765322,24.719873569509673],[121.76102155874305,24.719175572773633],[121.76100777968531,24.71919904290155],[121.76008535765322,24.719873569509673]],[[121.7612459832224,24.71879330634184],[121.76138210270199,24.71853172076237],[121.76141220681968,24.718510174565832],[121.7612459832224,24.71879330634184]],[[121.76197654478376,24.718069084898936],[121.7620045087036,24.717979118820743],[121.76201337371833,24.71804245449573],[121.76197654478376,24.718069084898936]],[[121.76198656940285,24.71785095234195],[121.76167009170149,24.717224889816862],[121.76196521142538,24.717698361290388],[121.76198656940285,24.71785095234195]],[[121.77072207836125,24.769971635082925],[121.77119327005346,24.768835480173323],[121.77074320120968,24.769989126097006],[121.77072207836125,24.769971635082925]],[[121.77237858910064,24.766634977622175],[121.7724045066694,24.766640643053954],[121.77236529566294,24.766659656415325],[121.77237858910064,24.766634977622175]],[[121.77392487982945,24.76769919216406],[121.77286141900703,24.766740521468503],[121.7740066158984,24.767736864439343],[121.77392487982945,24.76769919216406]],[[121.77583483409417,24.768268264256555],[121.77439752482599,24.767917034943252],[121.77404887911783,24.767756343619798],[121.77583483409417,24.768268264256555]],[[121.77642322435236,24.768436918628936],[121.77677684407615,24.768644936314786],[121.77615531222125,24.76836012512038],[121.77642322435236,24.768436918628936]],[[121.78587178640142,24.763614181649555],[121.78572926679226,24.763893009454875],[121.78569684390095,24.763883471526608],[121.78587178640142,24.763614181649555]],[[121.7757050689338,24.73548612758276],[121.77544647697334,24.732557391810246],[121.7757254987539,24.73551410041095],[121.7757050689338,24.73548612758276]],[[121.77470892677559,24.856285095480814],[121.77564595868365,24.8562110717191],[121.77535068298766,24.856308630738795],[121.77470892677559,24.856285095480814]],[[121.77598439271613,24.85618433606585],[121.77673331818264,24.8561251723599],[121.7766922340594,24.85620067701967],[121.77598439271613,24.85618433606585]],[[121.7762980004602,24.85488010456389],[121.77680160960665,24.855999665951856],[121.77677654430941,24.856045731112584],[121.7762980004602,24.85488010456389]],[[121.77875905644927,24.84487133902459],[121.77877704332593,24.844828622942657],[121.77955157454562,24.84459717701816],[121.77875905644927,24.84487133902459]],[[121.81863641823622,24.831906405656127],[121.81941739399758,24.830449174789635],[121.81999695092114,24.829608779293668],[121.81863641823622,24.831906405656127]],[[121.82024841831837,24.82918410877486],[121.82044355282778,24.82850789282503],[121.8203656877264,24.82898606775285],[121.82024841831837,24.82918410877486]],[[121.82028561714102,24.828004191129327],[121.8203306636293,24.828087900436287],[121.82044355282778,24.82850789282503],[121.82028561714102,24.828004191129327]],[[121.81967370437803,24.82686708155063],[121.81839102922265,24.825576800828742],[121.81783491485191,24.824874603645178],[121.81967370437803,24.82686708155063]],[[121.81731285422923,24.82421540561293],[121.81710939907953,24.823958505880398],[121.81673464189012,24.823326863406546],[121.81731285422923,24.82421540561293]],[[121.81520921801066,24.82075580529176],[121.81487551279474,24.82019335473956],[121.81473768421024,24.819873933415014],[121.81520921801066,24.82075580529176]],[[121.8143130534047,24.818889840493796],[121.81420663752635,24.81798947343549],[121.81421555751318,24.817949327420926],[121.8143130534047,24.818889840493796]],[[121.81426907271546,24.817708472570814],[121.8143605034345,24.817296972077656],[121.81445064767712,24.817116337811715],[121.81426907271546,24.817708472570814]],[[121.8147204834116,24.816575631290636],[121.81641124818066,24.813187616215544],[121.81602964964873,24.814128522013732],[121.8147204834116,24.816575631290636]],[[121.81592078820171,24.811159813624236],[121.81585196249819,24.811041951624816],[121.81584089415026,24.810855049650513],[121.81592078820171,24.811159813624236]],[[121.81581686990296,24.81044937219264],[121.81580647209103,24.810273793001215],[121.81590260926119,24.81013672901649],[121.81581686990296,24.81044937219264]],[[121.81598994252694,24.810012216870135],[121.816075939553,24.809889609817674],[121.81689840463775,24.80921339158482],[121.81598994252694,24.810012216870135]],[[121.81706117496533,24.808802566904287],[121.81706435743422,24.808869640121827],[121.81689840463775,24.80921339158482],[121.81706117496533,24.808802566904287]],[[121.75682492493036,24.851376747738755],[121.75748898702716,24.850715150683698],[121.75758944095476,24.850698831620488],[121.75682492493036,24.851376747738755]],[[121.75814955342251,24.85060783955094],[121.75822372054836,24.85059579086311],[121.75824114908097,24.85060323943134],[121.75814955342251,24.85060783955094]],[[121.76938876761622,24.85569847304467],[121.77042981668274,24.85576674423993],[121.76941331657133,24.855724969831556],[121.76938876761622,24.85569847304467]],[[121.7740435340518,24.85655320050724],[121.772856673197,24.856573270639956],[121.77283994573669,24.85655343537373],[121.7740435340518,24.85655320050724]]],[[[121.96494846819735,24.840485817466572],[121.96450943626155,24.837806197498082],[121.9614801329019,24.83527960437027],[121.95706752834383,24.836817378519243],[121.94572854773435,24.835515250128765],[121.94022805128361,24.838564432102885],[121.93441895696935,24.846728730346683],[121.94333685201423,24.844609355637317],[121.94753840637247,24.851245894582405],[121.95306712444835,24.85141759314746],[121.95810208594253,24.849447540971312],[121.96033395324946,24.8430026403596],[121.96494846819735,24.840485817466572]]],[[[123.47161991762516,25.73825735769094],[123.47159351982509,25.73830624393804],[123.47163512156362,25.738315618471063],[123.47161991762516,25.73825735769094]]],[[[123.45812228711395,25.738959980019104],[123.45804548141393,25.738891072165302],[123.45809510420577,25.738962954077124],[123.45812228711395,25.738959980019104]]],[[[123.47485359281916,25.73938855014154],[123.474847677978,25.739445143578564],[123.47489611816138,25.73944442681892],[123.47485359281916,25.73938855014154]]],[[[123.4578909194305,25.73941721423313],[123.45788191631743,25.73946145098523],[123.45797284766888,25.73949710730568],[123.4578909194305,25.73941721423313]]],[[[123.47573061077912,25.739988442912363],[123.47569743838619,25.7400169046565],[123.47574572568476,25.74003458173064],[123.47573061077912,25.739988442912363]]],[[[123.47543139194522,25.74006795197448],[123.47550276304219,25.74012647175931],[123.47553866577687,25.740061681001805],[123.47543139194522,25.74006795197448]]],[[[123.47629336154944,25.740118395847333],[123.47619805859358,25.740141304277813],[123.47622340148882,25.74019783566166],[123.47629336154944,25.740118395847333]]],[[[123.47631533378569,25.740201441943043],[123.47627405310516,25.74028289354078],[123.4763153005108,25.740295138709712],[123.47631533378569,25.740201441943043]]],[[[123.47637419261491,25.74034243045884],[123.47652514741765,25.740307392871955],[123.4764055825517,25.74021098734721],[123.47637419261491,25.74034243045884]]],[[[123.48272537757418,25.740317655035824],[123.48268489639088,25.740372877006735],[123.48278182442175,25.740376141545767],[123.48272537757418,25.740317655035824]]],[[[123.48117793751192,25.740484142029572],[123.48115258832138,25.740543401956472],[123.48120104019586,25.740548594642007],[123.48117793751192,25.740484142029572]]],[[[123.48108291424512,25.750165036287456],[123.48960269740667,25.748227082713754],[123.49372888767812,25.74427725848875],[123.49392773317845,25.742235274038705],[123.4886321103836,25.740187769549948],[123.47721843658167,25.741266713188338],[123.47450850856092,25.73987268307792],[123.47399697238245,25.738126674506475],[123.4722822332385,25.738934923108275],[123.4644557806098,25.73490987868803],[123.45940590116152,25.735643182287106],[123.45787763284659,25.740666787142573],[123.46030512428217,25.744714725604126],[123.46517978971553,25.748026030277117],[123.4764719444247,25.751919735907165],[123.48108291424512,25.750165036287456]]],[[[123.46637795647757,25.749023195863856],[123.46639869304533,25.749096529281474],[123.46645227375348,25.74909011082002],[123.46637795647757,25.749023195863856]]],[[[123.48441431067192,25.749782081577848],[123.48442383359315,25.74984366355426],[123.48447684592975,25.749843579018034],[123.48441431067192,25.749782081577848]]],[[[123.48756374816855,25.750216076410823],[123.48756357100206,25.750106856446337],[123.48746322374882,25.750203311433722],[123.48756374816855,25.750216076410823]]],[[[123.47982964062544,25.750851231599086],[123.47974746597288,25.75081204813756],[123.47975988111364,25.750875849640806],[123.47982964062544,25.750851231599086]]],[[[123.55576034616308,25.721113685847968],[123.5558254094152,25.721349425135884],[123.55596101908577,25.721147902353835],[123.55576034616308,25.721113685847968]]],[[[123.55632731655248,25.722205261363797],[123.55654559999948,25.722078571169163],[123.55633930271676,25.72197638750032],[123.55632731655248,25.722205261363797]]],[[[123.55630466802609,25.72233356494212],[123.55630270210804,25.722439017646593],[123.55644255208222,25.72241780174022],[123.55630466802609,25.72233356494212]]],[[[123.54333794598949,25.722513071421133],[123.54333945325322,25.722547316705345],[123.54337254470727,25.722558076194332],[123.54333794598949,25.722513071421133]]],[[[123.54335388467405,25.722626895015253],[123.54330334547308,25.722644869764963],[123.54333419851446,25.722682537868877],[123.54335388467405,25.722626895015253]]],[[[123.54290153647673,25.72280528633496],[123.54301851129537,25.72277484608236],[123.54291542470719,25.722768555324592],[123.54290153647673,25.72280528633496]]],[[[123.5433581834335,25.72302384047788],[123.54309867056725,25.72288568032991],[123.54304705757568,25.722996943554165],[123.5433581834335,25.72302384047788]]],[[[123.55253865083807,25.724751925560952],[123.55567225846801,25.72086284244625],[123.55308311749195,25.72026001698623],[123.54462628327644,25.723345502792768],[123.54797072976544,25.725684657421027],[123.55253865083807,25.724751925560952]]],[[[123.5446767658201,25.723154788962404],[123.54475106151233,25.72314104732152],[123.54472815038389,25.723127302982675],[123.5446767658201,25.723154788962404]]],[[[123.54408626017278,25.72430264225318],[123.5443105286081,25.723846522299198],[123.54401728037328,25.723956405963406],[123.54408626017278,25.72430264225318]]],[[[123.54468580400669,25.724070280818864],[123.54479439714373,25.72410316273084],[123.54478805512474,25.724077360282024],[123.54468580400669,25.724070280818864]]],[[[123.54445827912639,25.7243399803059],[123.54448653492568,25.724449765044653],[123.54456497559318,25.72445822226922],[123.54445827912639,25.7243399803059]]],[[[123.544932747948,25.727855434680635],[123.54526341967119,25.728001349682586],[123.54522808171066,25.727864040293298],[123.544932747948,25.727855434680635]]],[[[123.54485315614829,25.729282192019582],[123.54502077898587,25.72939126629393],[123.5449488386181,25.729193787763165],[123.54485315614829,25.729282192019582]]],[[[123.54114240319939,25.734890122381273],[123.54365717204087,25.72951907074855],[123.54562967037305,25.72873112164399],[123.54475259665503,25.72789438431846],[123.54463158567921,25.726144796445226],[123.5424190232194,25.725254991025054],[123.537620417948,25.731802338806915],[123.54114240319939,25.734890122381273]]],[[[123.50610306890155,25.73560635325066],[123.50615749137523,25.735809547872407],[123.506529304384,25.735371096898632],[123.50610306890155,25.73560635325066]]],[[[123.50713576220573,25.735806334594713],[123.50710840752708,25.735949114560015],[123.50719540704245,25.735959295784937],[123.50713576220573,25.735806334594713]]],[[[123.49080608023644,25.740456966316003],[123.49057393014277,25.740231849820077],[123.49049009084513,25.740441921557476],[123.49080608023644,25.740456966316003]]],[[[123.49085650972017,25.74058937979612],[123.49095692082528,25.740712561735393],[123.4909835839253,25.740666313199824],[123.49085650972017,25.74058937979612]]],[[[123.49051672246878,25.74071401054323],[123.49035378509916,25.740486373247563],[123.49027128579132,25.74068268985428],[123.49051672246878,25.74071401054323]]],[[[123.49079988120957,25.740631489651605],[123.49046709068375,25.740536198386906],[123.4909230631489,25.740873354221947],[123.49079988120957,25.740631489651605]]],[[[123.49077387551404,25.740848598584023],[123.49077320372044,25.74088380434415],[123.49081586486034,25.740886007683173],[123.49077387551404,25.740848598584023]]],[[[123.4929124219708,25.741787103192337],[123.4929019718486,25.741818973367003],[123.49293186441412,25.741824256884],[123.4929124219708,25.741787103192337]]],[[[123.4877051908419,25.750094541130238],[123.4877107441556,25.749889853633874],[123.48756128312675,25.75005595751645],[123.4877051908419,25.750094541130238]]],[[[123.54192548517301,25.779271062809357],[123.54089399785983,25.778991485168945],[123.54061443460853,25.779246327855788],[123.54080151877508,25.779390574615377],[123.54192548517301,25.779271062809357]]],[[[123.540028834763,25.77965114418498],[123.54047138934322,25.778869335651393],[123.53957273729202,25.779520062600852],[123.540028834763,25.77965114418498]]],[[[123.53903368545627,25.779411165492945],[123.53894053367878,25.779381652441373],[123.53897861277278,25.779467739144877],[123.53903368545627,25.779411165492945]]],[[[123.54293704890574,25.779861794186502],[123.54309853656832,25.77999364289235],[123.54313326478837,25.779886631662748],[123.54293704890574,25.779861794186502]]],[[[123.5447377875189,25.780909197701362],[123.54323753488438,25.780330111645412],[123.54352578378791,25.781936826923072],[123.5447377875189,25.780909197701362]]],[[[123.5563638542086,25.721161400278447],[123.55671947222595,25.721469248107383],[123.55642581210157,25.72093037973326],[123.5563638542086,25.721161400278447]]],[[[123.55653596915977,25.721710317677093],[123.5566396744814,25.72187989474139],[123.55673088282401,25.72182273563078],[123.55653596915977,25.721710317677093]]],[[[123.56611359066972,25.75564014847413],[123.56666067974663,25.75547298339154],[123.56768936207447,25.755645768337615],[123.56611359066972,25.75564014847413]]],[[[123.68246872685029,25.919111297248605],[123.68247200577855,25.919200415566763],[123.68256455680887,25.919208925851308],[123.68246872685029,25.919111297248605]]],[[[123.68321190950212,25.91913963308764],[123.68326968015162,25.919181042371235],[123.683285726755,25.919156211190227],[123.68321190950212,25.91913963308764]]],[[[123.67906691350731,25.91996793117511],[123.67913503265572,25.919934858606894],[123.67905252705259,25.919962776261173],[123.67906691350731,25.91996793117511]]],[[[123.6787430406589,25.920234135896692],[123.67858972963234,25.920325752531483],[123.67862122928636,25.920350613390156],[123.6787430406589,25.920234135896692]]],[[[123.6783270682397,25.920491950842916],[123.6784236203539,25.920537182245198],[123.67845264417429,25.920484588992622],[123.6783270682397,25.920491950842916]]],[[[123.67729707200237,25.922233478991927],[123.67734832976168,25.92231002568718],[123.67735959466961,25.922232765829506],[123.67729707200237,25.922233478991927]]],[[[123.67674196277142,25.922603455585033],[123.67677781334544,25.922605006016283],[123.67676681553621,25.92257443985858],[123.67674196277142,25.922603455585033]]],[[[123.6767708220159,25.92268147896715],[123.67680555832987,25.922726293083997],[123.67681946005007,25.92269855079752],[123.6767708220159,25.92268147896715]]],[[[123.6764013427478,25.922846122350734],[123.67646787908939,25.922855553541012],[123.67646205597919,25.922818676840507],[123.6764013427478,25.922846122350734]]],[[[123.67648917233748,25.922930619052863],[123.67640205501084,25.922891203566223],[123.67641286126457,25.92291677578862],[123.67648917233748,25.922930619052863]]],[[[123.67591800301352,25.923113211105886],[123.67608648560292,25.923099801314834],[123.67608182441677,25.92306299206348],[123.67591800301352,25.923113211105886]]],[[[123.6824480334501,25.928878043486975],[123.6886914202729,25.92222129407753],[123.68830140228795,25.92209034919034],[123.68765884837717,25.92071890195581],[123.68631977313908,25.920111722877778],[123.6860151772587,25.919704423520386],[123.6792584735997,25.919868334855835],[123.67759740599558,25.92223530191768],[123.67637912139935,25.92318170976813],[123.67608772666733,25.92312963812236],[123.67672004089718,25.925049884044938],[123.67950935567228,25.927654332381564],[123.67978309851128,25.928195364524527],[123.67977081736944,25.928610661552852],[123.68110652914311,25.928392609231594],[123.6824480334501,25.928878043486975]]],[[[123.67611297963037,25.924251649394137],[123.6761874668781,25.924351405792777],[123.67644241298706,25.924241067071648],[123.67611297963037,25.924251649394137]]],[[[123.67610162748815,25.924440291186556],[123.67609071781249,25.92447640975854],[123.67617926865842,25.92446696327977],[123.67610162748815,25.924440291186556]]],[[[123.67689768847765,25.92560631887659],[123.67706237592802,25.925631723825063],[123.67703401131064,25.925583146045426],[123.67689768847765,25.92560631887659]]],[[[123.67793132606994,25.927078091780572],[123.67794076175676,25.92714265321092],[123.67800096597182,25.927105445559903],[123.67793132606994,25.927078091780572]]],[[[123.67875174609628,25.927341437557345],[123.67870717389701,25.927338102871204],[123.67871756916054,25.927362166031173],[123.67875174609628,25.927341437557345]]],[[[123.6849229380432,25.9273726575222],[123.68499176136072,25.927382229006696],[123.6849915374296,25.927339275587144],[123.6849229380432,25.9273726575222]]],[[[123.68529231748653,25.927385787624075],[123.6852581702284,25.927409441592488],[123.6853217945652,25.927448820206962],[123.68529231748653,25.927385787624075]]],[[[123.67874303706162,25.92750154476056],[123.67878112065227,25.927518309922107],[123.67879604670031,25.92750321300292],[123.67874303706162,25.92750154476056]]],[[[123.67892989639768,25.92799555045434],[123.67896372079917,25.928191402111565],[123.6791346315581,25.92780456412936],[123.67892989639768,25.92799555045434]]],[[[123.67956725132763,25.928024241525577],[123.67957937418885,25.928067533989577],[123.67964156680489,25.928051639371688],[123.67956725132763,25.928024241525577]]],[[[123.68071132836519,25.928473764952344],[123.68068675528957,25.92855363913918],[123.68076356908352,25.928505439974117],[123.68071132836519,25.928473764952344]]],[[[123.68380949551192,25.928564138724084],[123.68378967805131,25.928479358735444],[123.68375474298705,25.928505311371055],[123.68380949551192,25.928564138724084]]],[[[123.6813288667339,25.92870221523509],[123.6813151601666,25.928761851078605],[123.68132917969797,25.928764286442743],[123.6813288667339,25.92870221523509]]],[[[123.68269408166657,25.92912488310691],[123.68275360689347,25.929127533408973],[123.68274722620356,25.929092109113583],[123.68269408166657,25.92912488310691]]],[[[123.68601079126506,25.91966531200461],[123.68604546462655,25.91967909411494],[123.68605598399654,25.91964899380605],[123.68601079126506,25.91966531200461]]],[[[123.68611102970033,25.919703269690217],[123.68606984614655,25.919768493021593],[123.68618895055965,25.919757755116336],[123.68611102970033,25.919703269690217]]],[[[123.68757632928418,25.919894091439232],[123.68752634496491,25.919975944134592],[123.68761904078622,25.919975217482374],[123.68757632928418,25.919894091439232]]],[[[123.68783032480974,25.920832814582752],[123.68790551262941,25.920800424599975],[123.68787325304822,25.920777760785086],[123.68783032480974,25.920832814582752]]],[[[124.55593223518451,25.921431861990868],[124.55588396946973,25.921397855926386],[124.55586029661549,25.92146964790595],[124.55593223518451,25.921431861990868]]],[[[124.55606241564806,25.92155821673839],[124.556022239335,25.921569281996824],[124.55614663266101,25.92161793352085],[124.55606241564806,25.92155821673839]]],[[[124.55596909209999,25.921669762349723],[124.5560477926715,25.92167096744123],[124.55603422010324,25.921627627313228],[124.55596909209999,25.921669762349723]]],[[[124.55613913591242,25.921714136698085],[124.5564567611707,25.92155655029461],[124.55622560482789,25.92156990432767],[124.55613913591242,25.921714136698085]]],[[[123.68821859631123,25.921755667390187],[123.68825512947069,25.921812411014002],[123.68831050882295,25.92172131778466],[123.68821859631123,25.921755667390187]]],[[[123.68906097778199,25.921908369575647],[123.6892566360849,25.92175604870272],[123.68903956492409,25.92184756641211],[123.68906097778199,25.921908369575647]]],[[[124.5564907978121,25.922331684959317],[124.55633431038018,25.92188807187705],[124.55597494848519,25.922012051515026],[124.5564907978121,25.922331684959317]]],[[[124.55675569222149,25.922110932873295],[124.55667149409419,25.922094494165606],[124.55675287374618,25.922150588478928],[124.55675569222149,25.922110932873295]]],[[[124.55671872379014,25.922312660700754],[124.55672101436335,25.92234152983781],[124.55676018883173,25.922321666511777],[124.55671872379014,25.922312660700754]]],[[[124.56085570322819,25.922315945024877],[124.55759501689658,25.921523532585013],[124.55652024341452,25.92187354782601],[124.55913181528115,25.923365765018104],[124.56085570322819,25.922315945024877]]],[[[124.55928342389097,25.92344774002123],[124.56006250927749,25.92355933689396],[124.55972788863119,25.92332467139653],[124.55928342389097,25.92344774002123]]],[[[124.55922396881112,25.92357336092192],[124.55906568363446,25.923829781918926],[124.55951448130838,25.923695996972754],[124.55922396881112,25.92357336092192]]],[[[124.56002029420131,25.923846328545267],[124.55950157513769,25.923966379944545],[124.56017596864615,25.924137413910557],[124.56002029420131,25.923846328545267]]],[[[123.68762211736691,25.9241974733348],[123.68775470261744,25.924069496210336],[123.68758005427617,25.924113983873326],[123.68762211736691,25.9241974733348]]],[[[124.55905686128517,25.924060545257987],[124.55940146260752,25.924401107724975],[124.55907950621429,25.924052000799236],[124.55905686128517,25.924060545257987]]],[[[123.68726477265125,25.924833304813205],[123.68727412200315,25.924854009005344],[123.68730827735521,25.924833918150853],[123.68726477265125,25.924833304813205]]],[[[123.68738982248237,25.92484652754524],[123.68740568292594,25.924866151651656],[123.68742134551871,25.924860886121053],[123.68738982248237,25.92484652754524]]],[[[123.68721352838168,25.92492912397995],[123.68726152519935,25.924984972778304],[123.68730302801237,25.924946971025918],[123.68721352838168,25.92492912397995]]],[[[123.68810965423722,25.924907304628448],[123.68779776305644,25.924965133733963],[123.6879132099267,25.92505779358237],[123.68810965423722,25.924907304628448]]],[[[123.68804532932859,25.925176879109756],[123.68809483161124,25.92523890625057],[123.68814859128452,25.92518399904236],[123.68804532932859,25.925176879109756]]],[[[123.68653423446744,25.925401072901252],[123.68652512433505,25.92537067671543],[123.68648841760648,25.92538788704138],[123.68653423446744,25.925401072901252]]],[[[123.68598034651586,25.926246996801524],[123.68596053535043,25.92625875453797],[123.68602214160865,25.92629738041984],[123.68598034651586,25.926246996801524]]]]}}]}