{"type":"FeatureCollection","name":"yilan-official-schools","metadata":{"provider":"內政部國土測繪中心","dataset_url":"https://data.gov.tw/dataset/174606","source_file":"各級學校範圍圖_121_1150409.shp","source_crs":"TWD97[2020] TM2 zone 121","output_crs":"EPSG:4326","geometry_method":"dissolve by school ID/name/source month; representative_point for each school polygon; filter by derived Yilan county boundary","scope_source":"https://data.gov.tw/dataset/7441","note":"衍生點位供官方 TGOS 下載端點無法存取時使用；代表校地內一點，不等於校門或校舍位置。","feature_count":133},"features":[{"type":"Feature","geometry":{"type":"Point","coordinates":[121.72609621369925,24.815878085116]},"properties":{"school_id":"1","school_name":"佛光大學","source_month":"202407"}},{"type":"Feature","geometry":{"type":"Point","coordinates":[121.57853271249375,24.655981507000316]},"properties":{"school_id":"10","school_name":"宜蘭縣大同鄉大同國民小學松羅分校","source_month":"202206"}},{"type":"Feature","geometry":{"type":"Point","coordinates":[121.790504757799,24.795969093372893]},"properties":{"school_id":"100","school_name":"宜蘭縣礁溪鄉玉田國民小學","source_month":"202408"}},{"type":"Feature","geometry":{"type":"Point","coordinates":[121.74470681599331,24.779890757114746]},"properties":{"school_id":"101","school_name":"宜蘭縣礁溪鄉龍潭國民小學","source_month":"202406"}},{"type":"Feature","geometry":{"type":"Point","coordinates":[121.72927398871292,24.792404557730876]},"properties":{"school_id":"102","school_name":"宜蘭縣礁溪鄉龍潭國民小學匏崙分校","source_month":"201901"}},{"type":"Feature","geometry":{"type":"Point","coordinates":[121.76837140674677,24.82180558992952]},"properties":{"school_id":"103","school_name":"宜蘭縣礁溪鄉礁溪國民小學","source_month":"202406"}},{"type":"Feature","geometry":{"type":"Point","coordinates":[121.76637184458144,24.678582089517544]},"properties":{"school_id":"104","school_name":"宜蘭縣羅東鎮公正國民小學","source_month":"202206"}},{"type":"Feature","geometry":{"type":"Point","coordinates":[121.75820158969985,24.674656153773263]},"properties":{"school_id":"105","school_name":"宜蘭縣羅東鎮北成國民小學","source_month":"202406"}},{"type":"Feature","geometry":{"type":"Point","coordinates":[121.76904557782437,24.67141433408012]},"properties":{"school_id":"106","school_name":"宜蘭縣羅東鎮成功國民小學","source_month":"202406"}},{"type":"Feature","geometry":{"type":"Point","coordinates":[121.76675129106465,24.688719009148762]},"properties":{"school_id":"107","school_name":"宜蘭縣羅東鎮竹林國民小學","source_month":"202206"}},{"type":"Feature","geometry":{"type":"Point","coordinates":[121.7725911398541,24.672808305048832]},"properties":{"school_id":"108","school_name":"宜蘭縣羅東鎮羅東國民小學","source_month":"202406"}},{"type":"Feature","geometry":{"type":"Point","coordinates":[121.85399490956208,24.59199916794138]},"properties":{"school_id":"109","school_name":"宜蘭縣蘇澳鎮士敏國民小學","source_month":"202207"}},{"type":"Feature","geometry":{"type":"Point","coordinates":[121.5295118193693,24.6004529669087]},"properties":{"school_id":"11","school_name":"宜蘭縣大同鄉大同國民小學樂水分校","source_month":"202208"}},{"type":"Feature","geometry":{"type":"Point","coordinates":[121.84441122316994,24.5757980490003]},"properties":{"school_id":"110","school_name":"宜蘭縣蘇澳鎮永樂國民小學","source_month":"201901"}},{"type":"Feature","geometry":{"type":"Point","coordinates":[121.8337872027456,24.640440462795386]},"properties":{"school_id":"111","school_name":"宜蘭縣蘇澳鎮育英國民小學","source_month":"202405"}},{"type":"Feature","geometry":{"type":"Point","coordinates":[121.86855637195995,24.579056658678038]},"properties":{"school_id":"112","school_name":"宜蘭縣蘇澳鎮南安國民小學","source_month":"202207"}},{"type":"Feature","geometry":{"type":"Point","coordinates":[121.83520148024866,24.621913960580905]},"properties":{"school_id":"113","school_name":"宜蘭縣蘇澳鎮馬賽國民小學","source_month":"202405"}},{"type":"Feature","geometry":{"type":"Point","coordinates":[121.80325651535455,24.464553664878316]},"properties":{"school_id":"114","school_name":"宜蘭縣蘇澳鎮蓬萊國民小學","source_month":"202012"}},{"type":"Feature","geometry":{"type":"Point","coordinates":[121.84096970648966,24.596689259591102]},"properties":{"school_id":"115","school_name":"宜蘭縣蘇澳鎮蘇澳國民小學","source_month":"202207"}},{"type":"Feature","geometry":{"type":"Point","coordinates":[121.84084571647591,24.597376413574864]},"properties":{"school_id":"116","school_name":"宜蘭縣蘇澳鎮蘇澳國民小學1","source_month":"202207"}},{"type":"Feature","geometry":{"type":"Point","coordinates":[121.68519836945542,24.697550169030116]},"properties":{"school_id":"117","school_name":"耕莘健康管理專科學校宜蘭校區","source_month":"202201"}},{"type":"Feature","geometry":{"type":"Point","coordinates":[121.7459511283663,24.74637711853619]},"properties":{"school_id":"118","school_name":"國立宜蘭大學","source_month":"202207"}},{"type":"Feature","geometry":{"type":"Point","coordinates":[121.8330611166287,24.66880865597118]},"properties":{"school_id":"119","school_name":"國立宜蘭大學五結校區","source_month":"202405"}},{"type":"Feature","geometry":{"type":"Point","coordinates":[121.42640644486275,24.488402702724965]},"properties":{"school_id":"12","school_name":"宜蘭縣大同鄉四季國民小學","source_month":"201901"}},{"type":"Feature","geometry":{"type":"Point","coordinates":[121.74948782924533,24.729121035076307]},"properties":{"school_id":"120","school_name":"國立宜蘭大學城南校區","source_month":"202409"}},{"type":"Feature","geometry":{"type":"Point","coordinates":[121.74332276882896,24.729585871685035]},"properties":{"school_id":"121","school_name":"國立宜蘭大學城南校區1","source_month":"202409"}},{"type":"Feature","geometry":{"type":"Point","coordinates":[121.79464942794498,24.693713689569424]},"properties":{"school_id":"122","school_name":"國立宜蘭特殊教育學校","source_month":"202206"}},{"type":"Feature","geometry":{"type":"Point","coordinates":[121.74255553268168,24.75166543271012]},"properties":{"school_id":"123","school_name":"國立宜蘭高級中學","source_month":"202207"}},{"type":"Feature","geometry":{"type":"Point","coordinates":[121.76559128220406,24.754323701005564]},"properties":{"school_id":"124","school_name":"國立宜蘭高級商業職業學校","source_month":"202406"}},{"type":"Feature","geometry":{"type":"Point","coordinates":[121.81619347664046,24.851617113430883]},"properties":{"school_id":"125","school_name":"國立頭城高級家事商業職業學校","source_month":"202405"}},{"type":"Feature","geometry":{"type":"Point","coordinates":[121.75103446907711,24.669713623703895]},"properties":{"school_id":"126","school_name":"國立羅東高級工業職業學校","source_month":"202406"}},{"type":"Feature","geometry":{"type":"Point","coordinates":[121.76271728621889,24.682208119459922]},"properties":{"school_id":"127","school_name":"國立羅東高級中學","source_month":"202406"}},{"type":"Feature","geometry":{"type":"Point","coordinates":[121.75634797233594,24.67350149968654]},"properties":{"school_id":"128","school_name":"國立羅東高級商業職業學校","source_month":"202206"}},{"type":"Feature","geometry":{"type":"Point","coordinates":[121.84386255504683,24.592525075106735]},"properties":{"school_id":"129","school_name":"國立蘇澳高級海事水產職業學校","source_month":"202406"}},{"type":"Feature","geometry":{"type":"Point","coordinates":[121.52585335044007,24.6124541795366]},"properties":{"school_id":"13","school_name":"宜蘭縣大同鄉四季國民小學英士分校","source_month":"201901"}},{"type":"Feature","geometry":{"type":"Point","coordinates":[121.7535350391615,24.74490609614899]},"properties":{"school_id":"130","school_name":"國立蘭陽女子高級中學","source_month":"201510"}},{"type":"Feature","geometry":{"type":"Point","coordinates":[121.73047710347247,24.821236530570147]},"properties":{"school_id":"131","school_name":"淡江大學蘭陽校園","source_month":"202207"}},{"type":"Feature","geometry":{"type":"Point","coordinates":[121.70227406058794,24.664741759330383]},"properties":{"school_id":"132","school_name":"聖母醫護管理專科學校","source_month":"202206"}},{"type":"Feature","geometry":{"type":"Point","coordinates":[121.77288945439703,24.67084411261409]},"properties":{"school_id":"133","school_name":"聖母醫護管理專科學校羅東校區","source_month":"202508"}},{"type":"Feature","geometry":{"type":"Point","coordinates":[121.45084651765958,24.53283330581376]},"properties":{"school_id":"14","school_name":"宜蘭縣大同鄉四季國民小學茂安分班","source_month":"202508"}},{"type":"Feature","geometry":{"type":"Point","coordinates":[121.38065828934248,24.4375079488649]},"properties":{"school_id":"15","school_name":"宜蘭縣大同鄉南山國民小學","source_month":"202206"}},{"type":"Feature","geometry":{"type":"Point","coordinates":[121.6874798540977,24.609459747025834]},"properties":{"school_id":"16","school_name":"宜蘭縣大同鄉寒溪國民小學","source_month":"201901"}},{"type":"Feature","geometry":{"type":"Point","coordinates":[121.77243211851325,24.692058817713185]},"properties":{"school_id":"17","school_name":"宜蘭縣五結鄉中興國民小學","source_month":"201901"}},{"type":"Feature","geometry":{"type":"Point","coordinates":[121.79921696956153,24.687224838186243]},"properties":{"school_id":"18","school_name":"宜蘭縣五結鄉五結國民小學","source_month":"202405"}},{"type":"Feature","geometry":{"type":"Point","coordinates":[121.82735247539449,24.66489259916699]},"properties":{"school_id":"19","school_name":"宜蘭縣五結鄉利澤國民小學","source_month":"201901"}},{"type":"Feature","geometry":{"type":"Point","coordinates":[121.75369132958042,24.762293141103974]},"properties":{"school_id":"2","school_name":"佛光大學宜蘭城區部","source_month":"202508"}},{"type":"Feature","geometry":{"type":"Point","coordinates":[121.81198881818808,24.696635193471714]},"properties":{"school_id":"20","school_name":"宜蘭縣五結鄉孝威國民小學","source_month":"202405"}},{"type":"Feature","geometry":{"type":"Point","coordinates":[121.77037808005905,24.706697413187754]},"properties":{"school_id":"21","school_name":"宜蘭縣五結鄉學進國民小學","source_month":"202406"}},{"type":"Feature","geometry":{"type":"Point","coordinates":[121.7160689168856,24.634051902324654]},"properties":{"school_id":"22","school_name":"宜蘭縣冬山鄉大進國民小學","source_month":"202206"}},{"type":"Feature","geometry":{"type":"Point","coordinates":[121.7901766347159,24.63177912961118]},"properties":{"school_id":"23","school_name":"宜蘭縣冬山鄉冬山國民小學","source_month":"202405"}},{"type":"Feature","geometry":{"type":"Point","coordinates":[121.80692552948578,24.628664350296493]},"properties":{"school_id":"24","school_name":"宜蘭縣冬山鄉東興國民小學","source_month":"202405"}},{"type":"Feature","geometry":{"type":"Point","coordinates":[121.79855622061164,24.661825336123133]},"properties":{"school_id":"25","school_name":"宜蘭縣冬山鄉武淵國民小學","source_month":"202405"}},{"type":"Feature","geometry":{"type":"Point","coordinates":[121.73161596879308,24.676541538906474]},"properties":{"school_id":"26","school_name":"宜蘭縣冬山鄉柯林國民小學","source_month":"202206"}},{"type":"Feature","geometry":{"type":"Point","coordinates":[121.76408228555199,24.6636479795918]},"properties":{"school_id":"27","school_name":"宜蘭縣冬山鄉清溝國民小學","source_month":"202206"}},{"type":"Feature","geometry":{"type":"Point","coordinates":[121.76295425090957,24.65411738170016]},"properties":{"school_id":"28","school_name":"宜蘭縣冬山鄉順安國民小學","source_month":"202406"}},{"type":"Feature","geometry":{"type":"Point","coordinates":[121.74351622948981,24.626856982329198]},"properties":{"school_id":"29","school_name":"宜蘭縣冬山鄉順安國民小學中山分校","source_month":"201901"}},{"type":"Feature","geometry":{"type":"Point","coordinates":[121.6505638304019,24.666767153317856]},"properties":{"school_id":"3","school_name":"宜蘭縣三星鄉三星國民小學","source_month":"202206"}},{"type":"Feature","geometry":{"type":"Point","coordinates":[121.74285811685795,24.66498487167835]},"properties":{"school_id":"30","school_name":"宜蘭縣冬山鄉廣興國民小學","source_month":"202206"}},{"type":"Feature","geometry":{"type":"Point","coordinates":[121.81942301619942,24.859914246395793]},"properties":{"school_id":"31","school_name":"宜蘭縣立人文國民中小學","source_month":"202405"}},{"type":"Feature","geometry":{"type":"Point","coordinates":[121.65370549762024,24.668073499182864]},"properties":{"school_id":"32","school_name":"宜蘭縣立三星國民中學","source_month":"202206"}},{"type":"Feature","geometry":{"type":"Point","coordinates":[121.47795719776319,24.57428737078619]},"properties":{"school_id":"33","school_name":"宜蘭縣立大同國民中學","source_month":"201810"}},{"type":"Feature","geometry":{"type":"Point","coordinates":[121.47876240705865,24.575443181119]},"properties":{"school_id":"34","school_name":"宜蘭縣立大同國民中學1","source_month":"202208"}},{"type":"Feature","geometry":{"type":"Point","coordinates":[121.47878402128121,24.576308904781552]},"properties":{"school_id":"35","school_name":"宜蘭縣立大同國民中學2","source_month":"202208"}},{"type":"Feature","geometry":{"type":"Point","coordinates":[121.7670106813222,24.749795187737483]},"properties":{"school_id":"36","school_name":"宜蘭縣立中華國民中學","source_month":"202207"}},{"type":"Feature","geometry":{"type":"Point","coordinates":[121.80064886580848,24.696696153751418]},"properties":{"school_id":"37","school_name":"宜蘭縣立五結國民中學","source_month":"202206"}},{"type":"Feature","geometry":{"type":"Point","coordinates":[121.68807416476399,24.71827437587271]},"properties":{"school_id":"38","school_name":"宜蘭縣立內城國民中小學","source_month":"202206"}},{"type":"Feature","geometry":{"type":"Point","coordinates":[121.83317696909225,24.618725895529977]},"properties":{"school_id":"39","school_name":"宜蘭縣立文化國民中學","source_month":"202405"}},{"type":"Feature","geometry":{"type":"Point","coordinates":[121.72790765958798,24.69278844784824]},"properties":{"school_id":"4","school_name":"宜蘭縣三星鄉大洲國民小學","source_month":"202206"}},{"type":"Feature","geometry":{"type":"Point","coordinates":[121.79234390697304,24.63185405910353]},"properties":{"school_id":"40","school_name":"宜蘭縣立冬山國民中學","source_month":"202405"}},{"type":"Feature","geometry":{"type":"Point","coordinates":[121.82913660139805,24.66483101835637]},"properties":{"school_id":"41","school_name":"宜蘭縣立利澤國民中學","source_month":"202206"}},{"type":"Feature","geometry":{"type":"Point","coordinates":[121.75924096783965,24.78525490545142]},"properties":{"school_id":"42","school_name":"宜蘭縣立吳沙國民中學","source_month":"202406"}},{"type":"Feature","geometry":{"type":"Point","coordinates":[121.78861161431306,24.749452158612097]},"properties":{"school_id":"43","school_name":"宜蘭縣立壯圍國民中學","source_month":"201005"}},{"type":"Feature","geometry":{"type":"Point","coordinates":[121.75759035426896,24.76222182775812]},"properties":{"school_id":"44","school_name":"宜蘭縣立宜蘭國民中學","source_month":"202406"}},{"type":"Feature","geometry":{"type":"Point","coordinates":[121.8527632227828,24.61427702997379]},"properties":{"school_id":"45","school_name":"宜蘭縣立岳明國民中小學","source_month":"202406"}},{"type":"Feature","geometry":{"type":"Point","coordinates":[121.76650178355683,24.671780322996614]},"properties":{"school_id":"46","school_name":"宜蘭縣立東光國民中學","source_month":"202206"}},{"type":"Feature","geometry":{"type":"Point","coordinates":[121.86857236574929,24.574993664502333]},"properties":{"school_id":"47","school_name":"宜蘭縣立南安國民中學","source_month":"202406"}},{"type":"Feature","geometry":{"type":"Point","coordinates":[121.80111249737982,24.46569012792883]},"properties":{"school_id":"48","school_name":"宜蘭縣立南澳高級中學","source_month":"202207"}},{"type":"Feature","geometry":{"type":"Point","coordinates":[121.7146390755464,24.750646602983014]},"properties":{"school_id":"49","school_name":"宜蘭縣立員山國民中學","source_month":"202207"}},{"type":"Feature","geometry":{"type":"Point","coordinates":[121.71300299587374,24.667232151593378]},"properties":{"school_id":"5","school_name":"宜蘭縣三星鄉大隱國民小學","source_month":"202206"}},{"type":"Feature","geometry":{"type":"Point","coordinates":[121.76126887038824,24.678139749010743]},"properties":{"school_id":"50","school_name":"宜蘭縣立國華國民中學","source_month":"202206"}},{"type":"Feature","geometry":{"type":"Point","coordinates":[121.75617371992757,24.72543964741962]},"properties":{"school_id":"51","school_name":"宜蘭縣立凱旋國民中學","source_month":"202207"}},{"type":"Feature","geometry":{"type":"Point","coordinates":[121.74662825675436,24.74842560534229]},"properties":{"school_id":"52","school_name":"宜蘭縣立復興國民中學","source_month":"202012"}},{"type":"Feature","geometry":{"type":"Point","coordinates":[121.7657738837742,24.654186633540444]},"properties":{"school_id":"53","school_name":"宜蘭縣立順安國民中學","source_month":"202406"}},{"type":"Feature","geometry":{"type":"Point","coordinates":[121.795122200644,24.626796137667224]},"properties":{"school_id":"54","school_name":"宜蘭縣立慈心華德福教育實驗高級中學","source_month":"202206"}},{"type":"Feature","geometry":{"type":"Point","coordinates":[121.77120986034859,24.699469889800653]},"properties":{"school_id":"55","school_name":"宜蘭縣立興中國民中學","source_month":"202206"}},{"type":"Feature","geometry":{"type":"Point","coordinates":[121.82185061939882,24.86449439957721]},"properties":{"school_id":"56","school_name":"宜蘭縣立頭城國民中學","source_month":"201811"}},{"type":"Feature","geometry":{"type":"Point","coordinates":[121.76690829481058,24.81734935930801]},"properties":{"school_id":"57","school_name":"宜蘭縣立礁溪國民中學","source_month":"202207"}},{"type":"Feature","geometry":{"type":"Point","coordinates":[121.76742004598218,24.682508091698494]},"properties":{"school_id":"58","school_name":"宜蘭縣立羅東國民中學","source_month":"202206"}},{"type":"Feature","geometry":{"type":"Point","coordinates":[121.83567608766924,24.59555579274062]},"properties":{"school_id":"59","school_name":"宜蘭縣立蘇澳國民中學","source_month":"202207"}},{"type":"Feature","geometry":{"type":"Point","coordinates":[121.6882587837758,24.679499994730968]},"properties":{"school_id":"6","school_name":"宜蘭縣三星鄉萬富國民小學","source_month":"202406"}},{"type":"Feature","geometry":{"type":"Point","coordinates":[121.81437563756211,24.801383185656977]},"properties":{"school_id":"60","school_name":"宜蘭縣壯圍鄉大福國民小學","source_month":"201901"}},{"type":"Feature","geometry":{"type":"Point","coordinates":[121.81620286367128,24.736237361677073]},"properties":{"school_id":"61","school_name":"宜蘭縣壯圍鄉公館國民小學","source_month":"202207"}},{"type":"Feature","geometry":{"type":"Point","coordinates":[121.798274206836,24.771792156661487]},"properties":{"school_id":"62","school_name":"宜蘭縣壯圍鄉古亭國民小學","source_month":"202405"}},{"type":"Feature","geometry":{"type":"Point","coordinates":[121.79007455043347,24.743843127214724]},"properties":{"school_id":"63","school_name":"宜蘭縣壯圍鄉壯圍國民小學","source_month":"202405"}},{"type":"Feature","geometry":{"type":"Point","coordinates":[121.79986941520161,24.722387674277137]},"properties":{"school_id":"64","school_name":"宜蘭縣壯圍鄉新南國民小學","source_month":"202405"}},{"type":"Feature","geometry":{"type":"Point","coordinates":[121.81472134956087,24.75929627542415]},"properties":{"school_id":"65","school_name":"宜蘭縣壯圍鄉過嶺國民小學","source_month":"202207"}},{"type":"Feature","geometry":{"type":"Point","coordinates":[121.79371978738334,24.75952413693633]},"properties":{"school_id":"66","school_name":"宜蘭縣私立中道高級中學","source_month":"202405"}},{"type":"Feature","geometry":{"type":"Point","coordinates":[121.71571643367852,24.777260522435565]},"properties":{"school_id":"67","school_name":"宜蘭縣私立慧燈高級中學","source_month":"202207"}},{"type":"Feature","geometry":{"type":"Point","coordinates":[121.7553855159705,24.763954726244247]},"properties":{"school_id":"68","school_name":"宜蘭縣宜蘭市力行國民小學","source_month":"202207"}},{"type":"Feature","geometry":{"type":"Point","coordinates":[121.75513577757904,24.75377391637026]},"properties":{"school_id":"69","school_name":"宜蘭縣宜蘭市中山國民小學","source_month":"202406"}},{"type":"Feature","geometry":{"type":"Point","coordinates":[121.61859343459794,24.66082619028661]},"properties":{"school_id":"7","school_name":"宜蘭縣三星鄉憲明國民小學","source_month":"201901"}},{"type":"Feature","geometry":{"type":"Point","coordinates":[121.74694972100662,24.75521433766088]},"properties":{"school_id":"70","school_name":"宜蘭縣宜蘭市光復國民小學","source_month":"202207"}},{"type":"Feature","geometry":{"type":"Point","coordinates":[121.7377286689887,24.73319131344182]},"properties":{"school_id":"71","school_name":"宜蘭縣宜蘭市育才國民小學","source_month":"202207"}},{"type":"Feature","geometry":{"type":"Point","coordinates":[121.75451967258032,24.752966773481127]},"properties":{"school_id":"72","school_name":"宜蘭縣宜蘭市宜蘭國民小學","source_month":"202207"}},{"type":"Feature","geometry":{"type":"Point","coordinates":[121.74253450013134,24.754828846032286]},"properties":{"school_id":"73","school_name":"宜蘭縣宜蘭市南屏國民小學","source_month":"202207"}},{"type":"Feature","geometry":{"type":"Point","coordinates":[121.76360601580144,24.72451326125833]},"properties":{"school_id":"74","school_name":"宜蘭縣宜蘭市凱旋國民小學","source_month":"202207"}},{"type":"Feature","geometry":{"type":"Point","coordinates":[121.75443887511352,24.770720851993776]},"properties":{"school_id":"75","school_name":"宜蘭縣宜蘭市新生國民小學","source_month":"202207"}},{"type":"Feature","geometry":{"type":"Point","coordinates":[121.76409771992734,24.751390551908116]},"properties":{"school_id":"76","school_name":"宜蘭縣宜蘭市黎明國民小學","source_month":"202207"}},{"type":"Feature","geometry":{"type":"Point","coordinates":[121.8331688848963,24.5214217227843]},"properties":{"school_id":"77","school_name":"宜蘭縣南澳鄉東澳國民小學","source_month":"202207"}},{"type":"Feature","geometry":{"type":"Point","coordinates":[121.7782891857181,24.44562991245959]},"properties":{"school_id":"78","school_name":"宜蘭縣南澳鄉武塔國民小學","source_month":"202407"}},{"type":"Feature","geometry":{"type":"Point","coordinates":[121.77717999918143,24.4709610005608]},"properties":{"school_id":"79","school_name":"宜蘭縣南澳鄉金岳國民小學","source_month":"201901"}},{"type":"Feature","geometry":{"type":"Point","coordinates":[121.61929054654324,24.66037626168247]},"properties":{"school_id":"8","school_name":"宜蘭縣三星鄉憲明國民小學1","source_month":"201711"}},{"type":"Feature","geometry":{"type":"Point","coordinates":[121.749390219091,24.42601520884363]},"properties":{"school_id":"80","school_name":"宜蘭縣南澳鄉金洋國民小學","source_month":"201901"}},{"type":"Feature","geometry":{"type":"Point","coordinates":[121.74961189501366,24.426479704753053]},"properties":{"school_id":"81","school_name":"宜蘭縣南澳鄉金洋國民小學1","source_month":"201811"}},{"type":"Feature","geometry":{"type":"Point","coordinates":[121.8004545820444,24.46715063280059]},"properties":{"school_id":"82","school_name":"宜蘭縣南澳鄉南澳國民小學","source_month":"201901"}},{"type":"Feature","geometry":{"type":"Point","coordinates":[121.7847891021448,24.474186212699987]},"properties":{"school_id":"83","school_name":"宜蘭縣南澳鄉碧候國民小學","source_month":"201901"}},{"type":"Feature","geometry":{"type":"Point","coordinates":[121.73940182375514,24.329107111598518]},"properties":{"school_id":"84","school_name":"宜蘭縣南澳鄉澳花國民小學","source_month":"201901"}},{"type":"Feature","geometry":{"type":"Point","coordinates":[121.74351683907265,24.71945564618422]},"properties":{"school_id":"85","school_name":"宜蘭縣員山鄉七賢國民小學","source_month":"202206"}},{"type":"Feature","geometry":{"type":"Point","coordinates":[121.69105241238339,24.747560409273262]},"properties":{"school_id":"86","school_name":"宜蘭縣員山鄉大湖國民小學","source_month":"201901"}},{"type":"Feature","geometry":{"type":"Point","coordinates":[121.65258972415353,24.711588591861013]},"properties":{"school_id":"87","school_name":"宜蘭縣員山鄉內城國民小學化育分校","source_month":"202206"}},{"type":"Feature","geometry":{"type":"Point","coordinates":[121.72910681750635,24.763182798217866]},"properties":{"school_id":"88","school_name":"宜蘭縣員山鄉同樂國民小學","source_month":"202207"}},{"type":"Feature","geometry":{"type":"Point","coordinates":[121.72214016370646,24.743617112816597]},"properties":{"school_id":"89","school_name":"宜蘭縣員山鄉員山國民小學","source_month":"202207"}},{"type":"Feature","geometry":{"type":"Point","coordinates":[121.60924922511478,24.678432895425]},"properties":{"school_id":"9","school_name":"宜蘭縣大同鄉大同國民小學","source_month":"202206"}},{"type":"Feature","geometry":{"type":"Point","coordinates":[121.72370394020949,24.723840363266323]},"properties":{"school_id":"90","school_name":"宜蘭縣員山鄉深溝國民小學","source_month":"202206"}},{"type":"Feature","geometry":{"type":"Point","coordinates":[121.69942568026015,24.77922272077923]},"properties":{"school_id":"91","school_name":"宜蘭縣員山鄉湖山國民小學","source_month":"202207"}},{"type":"Feature","geometry":{"type":"Point","coordinates":[121.8053594329321,24.84317496068244]},"properties":{"school_id":"92","school_name":"宜蘭縣頭城鎮二城國民小學","source_month":"202207"}},{"type":"Feature","geometry":{"type":"Point","coordinates":[121.92651525477193,24.97068415733659]},"properties":{"school_id":"93","school_name":"宜蘭縣頭城鎮大里國民小學","source_month":"202405"}},{"type":"Feature","geometry":{"type":"Point","coordinates":[121.88702976252665,24.93553093884392]},"properties":{"school_id":"94","school_name":"宜蘭縣頭城鎮大溪國民小學","source_month":"201901"}},{"type":"Feature","geometry":{"type":"Point","coordinates":[121.82052950561251,24.8251668863688]},"properties":{"school_id":"95","school_name":"宜蘭縣頭城鎮竹安國民小學","source_month":"202405"}},{"type":"Feature","geometry":{"type":"Point","coordinates":[121.86247339165901,24.900312039984737]},"properties":{"school_id":"96","school_name":"宜蘭縣頭城鎮梗枋國民小學","source_month":"202207"}},{"type":"Feature","geometry":{"type":"Point","coordinates":[121.8278245383361,24.862703793494095]},"properties":{"school_id":"97","school_name":"宜蘭縣頭城鎮頭城國民小學","source_month":"201901"}},{"type":"Feature","geometry":{"type":"Point","coordinates":[121.76018884730462,24.81339710952094]},"properties":{"school_id":"98","school_name":"宜蘭縣礁溪鄉三民國民小學","source_month":"202406"}},{"type":"Feature","geometry":{"type":"Point","coordinates":[121.75990869231923,24.78681452474716]},"properties":{"school_id":"99","school_name":"宜蘭縣礁溪鄉四結國民小學","source_month":"202406"}}]}
