{"type":"FeatureCollection","features":[{"type":"Feature","geometry":{"type":"Point","coordinates":[121.379725,24.437095]},"properties":{"facility_id":"NLSC-MED-G0000000014","facility_name":"宜蘭縣大同鄉南山村衛生室","facility_type":"醫療機構","facility_source":"內政部國土測繪中心醫療設施 API（官方）","source_record_id":"G0000000014","source_date":"2026-09-25","admin_area":"宜蘭縣","medical_marktype":"9930102","address":"宜蘭縣大同鄉埤南巷4-5號"}},{"type":"Feature","geometry":{"type":"Point","coordinates":[121.80348,24.465898]},"properties":{"facility_id":"NLSC-MED-G0000000040","facility_name":"宜蘭縣南澳鄉衛生所","facility_type":"醫療機構","facility_source":"內政部國土測繪中心醫療設施 API（官方）","source_record_id":"G0000000040","source_date":"2026-09-25","admin_area":"宜蘭縣","medical_marktype":"9930102","address":"宜蘭縣南澳鄉南澳村蘇花路二段375號"}},{"type":"Feature","geometry":{"type":"Point","coordinates":[121.426397,24.487654]},"properties":{"facility_id":"NLSC-MED-G0000000067","facility_name":"宜蘭縣大同鄉四季村衛生室","facility_type":"醫療機構","facility_source":"內政部國土測繪中心醫療設施 API（官方）","source_record_id":"G0000000067","source_date":"2026-09-25","admin_area":"宜蘭縣","medical_marktype":"9930102","address":"宜蘭縣大同鄉四季村和勳巷1號"}},{"type":"Feature","geometry":{"type":"Point","coordinates":[121.831728,24.51924]},"properties":{"facility_id":"NLSC-MED-G0000000086","facility_name":"國立陽明交通大學附設醫院東澳復健醫療站","facility_type":"醫療機構","facility_source":"內政部國土測繪中心醫療設施 API（官方）","source_record_id":"G0000000086","source_date":"2026-09-25","admin_area":"宜蘭縣","medical_marktype":"9930101","address":"宜蘭縣南澳鄉東岳村蘇花路3段141號"}},{"type":"Feature","geometry":{"type":"Point","coordinates":[121.451493,24.531869]},"properties":{"facility_id":"NLSC-MED-G0000000095","facility_name":"宜蘭縣大同鄉茂安村衛生室","facility_type":"醫療機構","facility_source":"內政部國土測繪中心醫療設施 API（官方）","source_record_id":"G0000000095","source_date":"2026-09-25","admin_area":"宜蘭縣","medical_marktype":"9930102","address":"宜蘭縣大同鄉泰雅路5段68號"}},{"type":"Feature","geometry":{"type":"Point","coordinates":[121.841663,24.59405]},"properties":{"facility_id":"NLSC-MED-G0000000142","facility_name":"宜蘭縣蘇澳鎮衛生所","facility_type":"醫療機構","facility_source":"內政部國土測繪中心醫療設施 API（官方）","source_record_id":"G0000000142","source_date":"2026-09-25","admin_area":"宜蘭縣","medical_marktype":"9930102","address":"宜蘭縣蘇澳鎮志成路60號"}},{"type":"Feature","geometry":{"type":"Point","coordinates":[121.530057,24.599564]},"properties":{"facility_id":"NLSC-MED-G0000000197","facility_name":"宜蘭縣大同鄉樂水村衛生室","facility_type":"醫療機構","facility_source":"內政部國土測繪中心醫療設施 API（官方）","source_record_id":"G0000000197","source_date":"2026-09-25","admin_area":"宜蘭縣","medical_marktype":"9930102","address":"宜蘭縣大同鄉碼崙路51號"}},{"type":"Feature","geometry":{"type":"Point","coordinates":[121.848616,24.614094]},"properties":{"facility_id":"NLSC-MED-G0000000237","facility_name":"臺北榮民總醫院蘇澳分院","facility_type":"醫療機構","facility_source":"內政部國土測繪中心醫療設施 API（官方）","source_record_id":"G0000000237","source_date":"2026-09-25","admin_area":"宜蘭縣","medical_marktype":"9930101","address":"宜蘭縣蘇澳鎮蘇濱路一段301號"}},{"type":"Feature","geometry":{"type":"Point","coordinates":[121.791525,24.63616]},"properties":{"facility_id":"NLSC-MED-G0000000317","facility_name":"宜蘭縣冬山鄉衛生所","facility_type":"醫療機構","facility_source":"內政部國土測繪中心醫療設施 API（官方）","source_record_id":"G0000000317","source_date":"2026-09-25","admin_area":"宜蘭縣","medical_marktype":"9930102","address":"宜蘭縣冬山鄉冬山村中正路16號"}},{"type":"Feature","geometry":{"type":"Point","coordinates":[121.651575,24.666137]},"properties":{"facility_id":"NLSC-MED-G0000000391","facility_name":"宜蘭縣三星鄉衛生所","facility_type":"醫療機構","facility_source":"內政部國土測繪中心醫療設施 API（官方）","source_record_id":"G0000000391","source_date":"2026-09-25","admin_area":"宜蘭縣","medical_marktype":"9930102","address":"宜蘭縣三星鄉三星路五段70號"}},{"type":"Feature","geometry":{"type":"Point","coordinates":[121.771501,24.671818]},"properties":{"facility_id":"NLSC-MED-G0000000477","facility_name":"天主教靈醫會醫療財團法人羅東聖母醫院","facility_type":"醫療機構","facility_source":"內政部國土測繪中心醫療設施 API（官方）","source_record_id":"G0000000477","source_date":"2026-09-25","admin_area":"宜蘭縣","medical_marktype":"9930101","address":"宜蘭縣羅東鎮中正南路160號"}},{"type":"Feature","geometry":{"type":"Point","coordinates":[121.608822,24.677851]},"properties":{"facility_id":"NLSC-MED-G0000000553","facility_name":"宜蘭縣大同鄉衛生所","facility_type":"醫療機構","facility_source":"內政部國土測繪中心醫療設施 API（官方）","source_record_id":"G0000000553","source_date":"2026-09-25","admin_area":"宜蘭縣","medical_marktype":"9930102","address":"宜蘭縣大同鄉朝陽路40號"}},{"type":"Feature","geometry":{"type":"Point","coordinates":[121.766956,24.677528]},"properties":{"facility_id":"NLSC-MED-G0000000565","facility_name":"宜蘭縣羅東鎮衛生所","facility_type":"醫療機構","facility_source":"內政部國土測繪中心醫療設施 API（官方）","source_record_id":"G0000000565","source_date":"2026-09-25","admin_area":"宜蘭縣","medical_marktype":"9930102","address":"宜蘭縣羅東鎮民生路79號"}},{"type":"Feature","geometry":{"type":"Point","coordinates":[121.798941,24.684716]},"properties":{"facility_id":"NLSC-MED-G0000000687","facility_name":"宜蘭縣五結鄉衛生所","facility_type":"醫療機構","facility_source":"內政部國土測繪中心醫療設施 API（官方）","source_record_id":"G0000000687","source_date":"2026-09-25","admin_area":"宜蘭縣","medical_marktype":"9930102","address":"宜蘭縣五結鄉五結村五結路二段337號"}},{"type":"Feature","geometry":{"type":"Point","coordinates":[121.687812,24.721835]},"properties":{"facility_id":"NLSC-MED-G0000000786","facility_name":"臺北榮民總醫院員山分院","facility_type":"醫療機構","facility_source":"內政部國土測繪中心醫療設施 API（官方）","source_record_id":"G0000000786","source_date":"2026-09-25","admin_area":"宜蘭縣","medical_marktype":"9930101","address":"宜蘭縣員山鄉榮光路386號"}},{"type":"Feature","geometry":{"type":"Point","coordinates":[121.815457,24.736365]},"properties":{"facility_id":"NLSC-MED-G0000000834","facility_name":"宜蘭縣壯圍鄉紅葉社區衛生室","facility_type":"醫療機構","facility_source":"內政部國土測繪中心醫療設施 API（官方）","source_record_id":"G0000000834","source_date":"2026-09-25","admin_area":"宜蘭縣","medical_marktype":"9930102","address":"宜蘭縣壯圍鄉復興村紅葉路69之4號"}},{"type":"Feature","geometry":{"type":"Point","coordinates":[121.724391,24.744249]},"properties":{"facility_id":"NLSC-MED-G0000000857","facility_name":"宜蘭縣員山鄉衛生所","facility_type":"醫療機構","facility_source":"內政部國土測繪中心醫療設施 API（官方）","source_record_id":"G0000000857","source_date":"2026-09-25","admin_area":"宜蘭縣","medical_marktype":"9930102","address":"宜蘭縣員山鄉復興路2號"}},{"type":"Feature","geometry":{"type":"Point","coordinates":[121.786323,24.746749]},"properties":{"facility_id":"NLSC-MED-G0000000894","facility_name":"宜蘭縣壯圍鄉衛生所","facility_type":"醫療機構","facility_source":"內政部國土測繪中心醫療設施 API（官方）","source_record_id":"G0000000894","source_date":"2026-09-25","admin_area":"宜蘭縣","medical_marktype":"9930102","address":"宜蘭縣壯圍鄉吉祥村中央路二段290號"}},{"type":"Feature","geometry":{"type":"Point","coordinates":[121.754442,24.74874]},"properties":{"facility_id":"NLSC-MED-G0000000929","facility_name":"宜蘭仁愛醫療財團法人宜蘭仁愛醫院","facility_type":"醫療機構","facility_source":"內政部國土測繪中心醫療設施 API（官方）","source_record_id":"G0000000929","source_date":"2026-09-25","admin_area":"宜蘭縣","medical_marktype":"9930101","address":"宜蘭縣宜蘭市中山路二段260號"}},{"type":"Feature","geometry":{"type":"Point","coordinates":[121.758638,24.748976]},"properties":{"facility_id":"NLSC-MED-G0000000934","facility_name":"國立陽明交通大學附設醫院蘭陽院區","facility_type":"醫療機構","facility_source":"內政部國土測繪中心醫療設施 API（官方）","source_record_id":"G0000000934","source_date":"2026-09-25","admin_area":"宜蘭縣","medical_marktype":"9930101","address":"宜蘭縣宜蘭市校舍路169號"}},{"type":"Feature","geometry":{"type":"Point","coordinates":[121.757427,24.750357]},"properties":{"facility_id":"NLSC-MED-G0000000957","facility_name":"臺北榮民總醫院員山分院","facility_type":"醫療機構","facility_source":"內政部國土測繪中心醫療設施 API（官方）","source_record_id":"G0000000957","source_date":"2026-09-25","admin_area":"宜蘭縣","medical_marktype":"9930101","address":"宜蘭縣宜蘭市林森路1號"}},{"type":"Feature","geometry":{"type":"Point","coordinates":[121.754005,24.757924]},"properties":{"facility_id":"NLSC-MED-G0000001120","facility_name":"國立陽明交通大學附設醫院新民院區","facility_type":"醫療機構","facility_source":"內政部國土測繪中心醫療設施 API（官方）","source_record_id":"G0000001120","source_date":"2026-09-25","admin_area":"宜蘭縣","medical_marktype":"9930101","address":"宜蘭縣宜蘭市新民路152號"}},{"type":"Feature","geometry":{"type":"Point","coordinates":[121.809099,24.805344]},"properties":{"facility_id":"NLSC-MED-G0000001263","facility_name":"宜蘭縣礁溪鄉時潮村衛生室","facility_type":"醫療機構","facility_source":"內政部國土測繪中心醫療設施 API（官方）","source_record_id":"G0000001263","source_date":"2026-09-25","admin_area":"宜蘭縣","medical_marktype":"9930102","address":"宜蘭縣礁溪鄉時潮村塭底路60之1號"}},{"type":"Feature","geometry":{"type":"Point","coordinates":[121.769739,24.820802]},"properties":{"facility_id":"NLSC-MED-G0000001283","facility_name":"宜蘭縣礁溪鄉衛生所","facility_type":"醫療機構","facility_source":"內政部國土測繪中心醫療設施 API（官方）","source_record_id":"G0000001283","source_date":"2026-09-25","admin_area":"宜蘭縣","medical_marktype":"9930102","address":"宜蘭縣礁溪鄉礁溪路四段126號B1"}},{"type":"Feature","geometry":{"type":"Point","coordinates":[121.81081,24.844576]},"properties":{"facility_id":"NLSC-MED-G0000001468","facility_name":"宜蘭縣頭城鎮頂埔里衛生室","facility_type":"醫療機構","facility_source":"內政部國土測繪中心醫療設施 API（官方）","source_record_id":"G0000001468","source_date":"2026-09-25","admin_area":"宜蘭縣","medical_marktype":"9930102","address":"宜蘭縣頭城鎮頂埔里頂埔二段116號"}},{"type":"Feature","geometry":{"type":"Point","coordinates":[121.820514,24.856776]},"properties":{"facility_id":"NLSC-MED-G0000001490","facility_name":"宜蘭縣頭城鎮衛生所","facility_type":"醫療機構","facility_source":"內政部國土測繪中心醫療設施 API（官方）","source_record_id":"G0000001490","source_date":"2026-09-25","admin_area":"宜蘭縣","medical_marktype":"9930102","address":"宜蘭縣頭城鎮新建里吉祥路15號"}},{"type":"Feature","geometry":{"type":"Point","coordinates":[121.752392,24.745424]},"properties":{"facility_id":"NLSC-MED-G0000001837","facility_name":"宜蘭縣宜蘭市衛生所","facility_type":"醫療機構","facility_source":"內政部國土測繪中心醫療設施 API（官方）","source_record_id":"G0000001837","source_date":"2026-09-25","admin_area":"宜蘭縣","medical_marktype":"9930102","address":"宜蘭縣宜蘭市健康路二段2之2號"}},{"type":"Feature","geometry":{"type":"Point","coordinates":[121.773019,24.671578]},"properties":{"facility_id":"NLSC-MED-G0000002636","facility_name":"醫療財團法人羅許基金會羅東博愛醫院","facility_type":"醫療機構","facility_source":"內政部國土測繪中心醫療設施 API（官方）","source_record_id":"G0000002636","source_date":"2026-09-25","admin_area":"宜蘭縣","medical_marktype":"9930101","address":"宜蘭縣羅東鎮站前南路61、63號"}},{"type":"Feature","geometry":{"type":"Point","coordinates":[121.810781,24.778865]},"properties":{"facility_id":"NLSC-MED-G0000002825","facility_name":"海天醫療社團法人海天醫院","facility_type":"醫療機構","facility_source":"內政部國土測繪中心醫療設施 API（官方）","source_record_id":"G0000002825","source_date":"2026-09-25","admin_area":"宜蘭縣","medical_marktype":"9930101","address":"宜蘭縣壯圍鄉古亭路23之9號"}},{"type":"Feature","geometry":{"type":"Point","coordinates":[121.749867,24.426212]},"properties":{"facility_id":"NLSC-MED-G0000002956","facility_name":"宜蘭縣南澳鄉金洋村衛生室","facility_type":"醫療機構","facility_source":"內政部國土測繪中心醫療設施 API（官方）","source_record_id":"G0000002956","source_date":"2026-09-25","admin_area":"宜蘭縣","medical_marktype":"9930102","address":"宜蘭縣南澳鄉金洋路9-1號"}},{"type":"Feature","geometry":{"type":"Point","coordinates":[121.721583,24.721463]},"properties":{"facility_id":"NLSC-MED-G0000003610","facility_name":"宜蘭員山醫療財團法人宜蘭員山醫院","facility_type":"醫療機構","facility_source":"內政部國土測繪中心醫療設施 API（官方）","source_record_id":"G0000003610","source_date":"2026-09-25","admin_area":"宜蘭縣","medical_marktype":"9930101","address":"宜蘭縣員山鄉深溝村尚深路91號"}},{"type":"Feature","geometry":{"type":"Point","coordinates":[121.739462,24.32991]},"properties":{"facility_id":"NLSC-MED-G0000003877","facility_name":"宜蘭縣南澳鄉澳花村衛生室","facility_type":"醫療機構","facility_source":"內政部國土測繪中心醫療設施 API（官方）","source_record_id":"G0000003877","source_date":"2026-09-25","admin_area":"宜蘭縣","medical_marktype":"9930102","address":"宜蘭縣南澳鄉中央路48號"}},{"type":"Feature","geometry":{"type":"Point","coordinates":[121.771047,24.671891]},"properties":{"facility_id":"NLSC-MED-G0000003935","facility_name":"醫療財團法人羅許基金會羅東博愛醫院門診中心","facility_type":"醫療機構","facility_source":"內政部國土測繪中心醫療設施 API（官方）","source_record_id":"G0000003935","source_date":"2026-09-25","admin_area":"宜蘭縣","medical_marktype":"9930101","address":"宜蘭縣羅東鎮南昌街83號"}},{"type":"Feature","geometry":{"type":"Point","coordinates":[121.839576,24.596219]},"properties":{"facility_id":"NLSC-MED-G0000004136","facility_name":"臺北榮民總醫院蘇澳分院","facility_type":"醫療機構","facility_source":"內政部國土測繪中心醫療設施 API（官方）","source_record_id":"G0000004136","source_date":"2026-09-25","admin_area":"宜蘭縣","medical_marktype":"9930101","address":"宜蘭縣蘇澳鎮中山路一段439號"}},{"type":"Feature","geometry":{"type":"Point","coordinates":[121.769144,24.820582]},"properties":{"facility_id":"NLSC-MED-G0000004199","facility_name":"天主教靈醫會醫療財團法人礁溪杏和醫院","facility_type":"醫療機構","facility_source":"內政部國土測繪中心醫療設施 API（官方）","source_record_id":"G0000004199","source_date":"2026-09-25","admin_area":"宜蘭縣","medical_marktype":"9930101","address":"宜蘭縣礁溪鄉礁溪路四段129號"}},{"type":"Feature","geometry":{"type":"Point","coordinates":[121.801612,24.465049]},"properties":{"facility_id":"NLSC-MED-G0000004340","facility_name":"羅東聖母醫院山地巡迴醫療南澳復健站","facility_type":"醫療機構","facility_source":"內政部國土測繪中心醫療設施 API（官方）","source_record_id":"G0000004340","source_date":"2026-09-25","admin_area":"宜蘭縣","medical_marktype":"9930101","address":"宜蘭縣南澳鄉蘇花路2段317號"}},{"type":"Feature","geometry":{"type":"Point","coordinates":[121.77647,24.471238]},"properties":{"facility_id":"NLSC-MED-G0000004444","facility_name":"宜蘭縣南澳鄉金岳村衛生室","facility_type":"醫療機構","facility_source":"內政部國土測繪中心醫療設施 API（官方）","source_record_id":"G0000004444","source_date":"2026-09-25","admin_area":"宜蘭縣","medical_marktype":"9930102","address":"宜蘭縣南澳鄉金岳路8號"}},{"type":"Feature","geometry":{"type":"Point","coordinates":[121.832074,24.519667]},"properties":{"facility_id":"NLSC-MED-G0000004450","facility_name":"宜蘭縣南澳鄉東岳村衛生室","facility_type":"醫療機構","facility_source":"內政部國土測繪中心醫療設施 API（官方）","source_record_id":"G0000004450","source_date":"2026-09-25","admin_area":"宜蘭縣","medical_marktype":"9930102","address":"宜蘭縣南澳鄉東岳路35號"}},{"type":"Feature","geometry":{"type":"Point","coordinates":[121.686508,24.609382]},"properties":{"facility_id":"NLSC-MED-G0000004687","facility_name":"宜蘭縣大同鄉寒溪村衛生室","facility_type":"醫療機構","facility_source":"內政部國土測繪中心醫療設施 API（官方）","source_record_id":"G0000004687","source_date":"2026-09-25","admin_area":"宜蘭縣","medical_marktype":"9930102","address":"宜蘭縣大同鄉寒溪村(巷)6號"}},{"type":"Feature","geometry":{"type":"Point","coordinates":[121.52614,24.613441]},"properties":{"facility_id":"NLSC-MED-G0000004688","facility_name":"宜蘭縣大同鄉英士村衛生室","facility_type":"醫療機構","facility_source":"內政部國土測繪中心醫療設施 API（官方）","source_record_id":"G0000004688","source_date":"2026-09-25","admin_area":"宜蘭縣","medical_marktype":"9930102","address":"宜蘭縣大同鄉英士村梵梵段72號之一"}},{"type":"Feature","geometry":{"type":"Point","coordinates":[121.606932,24.631584]},"properties":{"facility_id":"NLSC-MED-G0000004689","facility_name":"宜蘭縣大同鄉復興村衛生室","facility_type":"醫療機構","facility_source":"內政部國土測繪中心醫療設施 API（官方）","source_record_id":"G0000004689","source_date":"2026-09-25","admin_area":"宜蘭縣","medical_marktype":"9930102","address":"宜蘭縣大同鄉泰雅一路35巷1號"}},{"type":"Feature","geometry":{"type":"Point","coordinates":[121.578528,24.656532]},"properties":{"facility_id":"NLSC-MED-G0000004691","facility_name":"宜蘭縣大同鄉松羅村衛生室","facility_type":"醫療機構","facility_source":"內政部國土測繪中心醫療設施 API（官方）","source_record_id":"G0000004691","source_date":"2026-09-25","admin_area":"宜蘭縣","medical_marktype":"9930102","address":"宜蘭縣大同鄉松羅村松羅巷21號"}}],"metadata":{"dataset_url":"https://data.gov.tw/dataset/139250","api":"https://api.nlsc.gov.tw/other/MarkBufferAnlys/med","grid_spacing_m":7000,"query_radius_m":5000,"query_count":82,"queried_at_utc":"2026-09-25T12:35:34.797175+00:00","marktypes_observed":{"9930102":30,"9930302":45,"9930101":15,"9930301":40,"9930303":1,"9930304":8},"included_marktypes":{"9930101":"醫院","9930102":"衛生所"},"limitation":"API 未提供診所完整名冊；僅納入經名稱核對為醫院與衛生所的兩類地標。"}}