{"type":"FeatureCollection","name":"yilan-public-facility-hazard-exposure-2026-09","features":[{"type":"Feature","geometry":{"type":"Point","coordinates":[121.57853271249375,24.65598150700032]},"properties":{"facility_id":"NLSC-121-10","facility_name":"宜蘭縣大同鄉大同國民小學松羅分校","facility_type":"學校","facility_source":"內政部國土測繪中心（官方衍生快取）","source_record_id":"10","source_date":"202206","admin_area":"宜蘭縣","osm_amenity":"","osm_office":"","source":null,"matched_hazard_groups":["土石流影響範圍","地質敏感區"],"matched_hazard_details":[{"group":"地質敏感區","source_id":"G0003","distance_m":0.0},{"group":"土石流影響範圍","source_id":"176526","distance_m":44.6}],"hazard_group_count":2,"flood_point_count_300m":0,"screening_priority":"複合災害暴露（優先查核）","analysis_predicate":"public facility point intersects hazard polygon or is within 300 metres of hazard geometry/point","analysis_role":"SCREENING_REFERENCE"}},{"type":"Feature","geometry":{"type":"Point","coordinates":[121.76637184458144,24.678582089517548]},"properties":{"facility_id":"NLSC-121-104","facility_name":"宜蘭縣羅東鎮公正國民小學","facility_type":"學校","facility_source":"內政部國土測繪中心（官方衍生快取）","source_record_id":"104","source_date":"202206","admin_area":"宜蘭縣","osm_amenity":"","osm_office":"","source":null,"matched_hazard_groups":["近5年歷史淹水災點"],"matched_hazard_details":[{"group":"近5年歷史淹水災點","source_id":"130016","distance_m":122.8,"match_count":2}],"hazard_group_count":1,"flood_point_count_300m":2,"screening_priority":"單一災害暴露（篩選參考）","analysis_predicate":"public facility point intersects hazard polygon or is within 300 metres of hazard geometry/point","analysis_role":"SCREENING_REFERENCE"}},{"type":"Feature","geometry":{"type":"Point","coordinates":[121.75820158969985,24.674656153773263]},"properties":{"facility_id":"NLSC-121-105","facility_name":"宜蘭縣羅東鎮北成國民小學","facility_type":"學校","facility_source":"內政部國土測繪中心（官方衍生快取）","source_record_id":"105","source_date":"202406","admin_area":"宜蘭縣","osm_amenity":"","osm_office":"","source":null,"matched_hazard_groups":["近5年歷史淹水災點"],"matched_hazard_details":[{"group":"近5年歷史淹水災點","source_id":"130016","distance_m":138.1,"match_count":1}],"hazard_group_count":1,"flood_point_count_300m":1,"screening_priority":"單一災害暴露（篩選參考）","analysis_predicate":"public facility point intersects hazard polygon or is within 300 metres of hazard geometry/point","analysis_role":"SCREENING_REFERENCE"}},{"type":"Feature","geometry":{"type":"Point","coordinates":[121.76904557782437,24.671414334080115]},"properties":{"facility_id":"NLSC-121-106","facility_name":"宜蘭縣羅東鎮成功國民小學","facility_type":"學校","facility_source":"內政部國土測繪中心（官方衍生快取）","source_record_id":"106","source_date":"202406","admin_area":"宜蘭縣","osm_amenity":"","osm_office":"","source":null,"matched_hazard_groups":["近5年歷史淹水災點"],"matched_hazard_details":[{"group":"近5年歷史淹水災點","source_id":"130016","distance_m":296.3,"match_count":1}],"hazard_group_count":1,"flood_point_count_300m":1,"screening_priority":"單一災害暴露（篩選參考）","analysis_predicate":"public facility point intersects hazard polygon or is within 300 metres of hazard geometry/point","analysis_role":"SCREENING_REFERENCE"}},{"type":"Feature","geometry":{"type":"Point","coordinates":[121.7725911398541,24.672808305048836]},"properties":{"facility_id":"NLSC-121-108","facility_name":"宜蘭縣羅東鎮羅東國民小學","facility_type":"學校","facility_source":"內政部國土測繪中心（官方衍生快取）","source_record_id":"108","source_date":"202406","admin_area":"宜蘭縣","osm_amenity":"","osm_office":"","source":null,"matched_hazard_groups":["近5年歷史淹水災點"],"matched_hazard_details":[{"group":"近5年歷史淹水災點","source_id":"130016","distance_m":221.7,"match_count":2}],"hazard_group_count":1,"flood_point_count_300m":2,"screening_priority":"單一災害暴露（篩選參考）","analysis_predicate":"public facility point intersects hazard polygon or is within 300 metres of hazard geometry/point","analysis_role":"SCREENING_REFERENCE"}},{"type":"Feature","geometry":{"type":"Point","coordinates":[121.5295118193693,24.600452966908698]},"properties":{"facility_id":"NLSC-121-11","facility_name":"宜蘭縣大同鄉大同國民小學樂水分校","facility_type":"學校","facility_source":"內政部國土測繪中心（官方衍生快取）","source_record_id":"11","source_date":"202208","admin_area":"宜蘭縣","osm_amenity":"","osm_office":"","source":null,"matched_hazard_groups":["土石流影響範圍","近5年歷史淹水災點"],"matched_hazard_details":[{"group":"近5年歷史淹水災點","source_id":"130016","distance_m":85.9,"match_count":1},{"group":"土石流影響範圍","source_id":"176526","distance_m":62.3}],"hazard_group_count":2,"flood_point_count_300m":1,"screening_priority":"複合災害暴露（優先查核）","analysis_predicate":"public facility point intersects hazard polygon or is within 300 metres of hazard geometry/point","analysis_role":"SCREENING_REFERENCE"}},{"type":"Feature","geometry":{"type":"Point","coordinates":[121.84441122316994,24.5757980490003]},"properties":{"facility_id":"NLSC-121-110","facility_name":"宜蘭縣蘇澳鎮永樂國民小學","facility_type":"學校","facility_source":"內政部國土測繪中心（官方衍生快取）","source_record_id":"110","source_date":"201901","admin_area":"宜蘭縣","osm_amenity":"","osm_office":"","source":null,"matched_hazard_groups":["土石流影響範圍"],"matched_hazard_details":[{"group":"土石流影響範圍","source_id":"176526","distance_m":39.6}],"hazard_group_count":1,"flood_point_count_300m":0,"screening_priority":"單一災害暴露（篩選參考）","analysis_predicate":"public facility point intersects hazard polygon or is within 300 metres of hazard geometry/point","analysis_role":"SCREENING_REFERENCE"}},{"type":"Feature","geometry":{"type":"Point","coordinates":[121.86855637195995,24.579056658678038]},"properties":{"facility_id":"NLSC-121-112","facility_name":"宜蘭縣蘇澳鎮南安國民小學","facility_type":"學校","facility_source":"內政部國土測繪中心（官方衍生快取）","source_record_id":"112","source_date":"202207","admin_area":"宜蘭縣","osm_amenity":"","osm_office":"","source":null,"matched_hazard_groups":["地質敏感區","近5年歷史淹水災點"],"matched_hazard_details":[{"group":"地質敏感區","source_id":"L0016","distance_m":20.7},{"group":"近5年歷史淹水災點","source_id":"130016","distance_m":250.8,"match_count":1}],"hazard_group_count":2,"flood_point_count_300m":1,"screening_priority":"複合災害暴露（優先查核）","analysis_predicate":"public facility point intersects hazard polygon or is within 300 metres of hazard geometry/point","analysis_role":"SCREENING_REFERENCE"}},{"type":"Feature","geometry":{"type":"Point","coordinates":[121.80325651535455,24.464553664878316]},"properties":{"facility_id":"NLSC-121-114","facility_name":"宜蘭縣蘇澳鎮蓬萊國民小學","facility_type":"學校","facility_source":"內政部國土測繪中心（官方衍生快取）","source_record_id":"114","source_date":"202012","admin_area":"宜蘭縣","osm_amenity":"","osm_office":"","source":null,"matched_hazard_groups":["近5年歷史淹水災點"],"matched_hazard_details":[{"group":"近5年歷史淹水災點","source_id":"130016","distance_m":288.9,"match_count":1}],"hazard_group_count":1,"flood_point_count_300m":1,"screening_priority":"單一災害暴露（篩選參考）","analysis_predicate":"public facility point intersects hazard polygon or is within 300 metres of hazard geometry/point","analysis_role":"SCREENING_REFERENCE"}},{"type":"Feature","geometry":{"type":"Point","coordinates":[121.84096970648966,24.596689259591102]},"properties":{"facility_id":"NLSC-121-115","facility_name":"宜蘭縣蘇澳鎮蘇澳國民小學","facility_type":"學校","facility_source":"內政部國土測繪中心（官方衍生快取）","source_record_id":"115","source_date":"202207","admin_area":"宜蘭縣","osm_amenity":"","osm_office":"","source":null,"matched_hazard_groups":["地質敏感區"],"matched_hazard_details":[{"group":"地質敏感區","source_id":"L0016","distance_m":134.9}],"hazard_group_count":1,"flood_point_count_300m":0,"screening_priority":"單一災害暴露（篩選參考）","analysis_predicate":"public facility point intersects hazard polygon or is within 300 metres of hazard geometry/point","analysis_role":"SCREENING_REFERENCE"}},{"type":"Feature","geometry":{"type":"Point","coordinates":[121.84084571647591,24.597376413574864]},"properties":{"facility_id":"NLSC-121-116","facility_name":"宜蘭縣蘇澳鎮蘇澳國民小學1","facility_type":"學校","facility_source":"內政部國土測繪中心（官方衍生快取）","source_record_id":"116","source_date":"202207","admin_area":"宜蘭縣","osm_amenity":"","osm_office":"","source":null,"matched_hazard_groups":["地質敏感區"],"matched_hazard_details":[{"group":"地質敏感區","source_id":"L0016","distance_m":104.8}],"hazard_group_count":1,"flood_point_count_300m":0,"screening_priority":"單一災害暴露（篩選參考）","analysis_predicate":"public facility point intersects hazard polygon or is within 300 metres of hazard geometry/point","analysis_role":"SCREENING_REFERENCE"}},{"type":"Feature","geometry":{"type":"Point","coordinates":[121.68519836945542,24.697550169030112]},"properties":{"facility_id":"NLSC-121-117","facility_name":"耕莘健康管理專科學校宜蘭校區","facility_type":"學校","facility_source":"內政部國土測繪中心（官方衍生快取）","source_record_id":"117","source_date":"202201","admin_area":"宜蘭縣","osm_amenity":"","osm_office":"","source":null,"matched_hazard_groups":["地質敏感區"],"matched_hazard_details":[{"group":"地質敏感區","source_id":"G0003","distance_m":0.0}],"hazard_group_count":1,"flood_point_count_300m":0,"screening_priority":"單一災害暴露（篩選參考）","analysis_predicate":"public facility point intersects hazard polygon or is within 300 metres of hazard geometry/point","analysis_role":"SCREENING_REFERENCE"}},{"type":"Feature","geometry":{"type":"Point","coordinates":[121.75103446907711,24.669713623703895]},"properties":{"facility_id":"NLSC-121-126","facility_name":"國立羅東高級工業職業學校","facility_type":"學校","facility_source":"內政部國土測繪中心（官方衍生快取）","source_record_id":"126","source_date":"202406","admin_area":"宜蘭縣","osm_amenity":"","osm_office":"","source":null,"matched_hazard_groups":["近5年歷史淹水災點"],"matched_hazard_details":[{"group":"近5年歷史淹水災點","source_id":"130016","distance_m":265.1,"match_count":1}],"hazard_group_count":1,"flood_point_count_300m":1,"screening_priority":"單一災害暴露（篩選參考）","analysis_predicate":"public facility point intersects hazard polygon or is within 300 metres of hazard geometry/point","analysis_role":"SCREENING_REFERENCE"}},{"type":"Feature","geometry":{"type":"Point","coordinates":[121.52585335044007,24.6124541795366]},"properties":{"facility_id":"NLSC-121-13","facility_name":"宜蘭縣大同鄉四季國民小學英士分校","facility_type":"學校","facility_source":"內政部國土測繪中心（官方衍生快取）","source_record_id":"13","source_date":"201901","admin_area":"宜蘭縣","osm_amenity":"","osm_office":"","source":null,"matched_hazard_groups":["土石流影響範圍"],"matched_hazard_details":[{"group":"土石流影響範圍","source_id":"176526","distance_m":80.1}],"hazard_group_count":1,"flood_point_count_300m":0,"screening_priority":"單一災害暴露（篩選參考）","analysis_predicate":"public facility point intersects hazard polygon or is within 300 metres of hazard geometry/point","analysis_role":"SCREENING_REFERENCE"}},{"type":"Feature","geometry":{"type":"Point","coordinates":[121.73047710347247,24.821236530570147]},"properties":{"facility_id":"NLSC-121-131","facility_name":"淡江大學蘭陽校園","facility_type":"學校","facility_source":"內政部國土測繪中心（官方衍生快取）","source_record_id":"131","source_date":"202207","admin_area":"宜蘭縣","osm_amenity":"","osm_office":"","source":null,"matched_hazard_groups":["地質敏感區"],"matched_hazard_details":[{"group":"地質敏感區","source_id":"L0016","distance_m":211.3}],"hazard_group_count":1,"flood_point_count_300m":0,"screening_priority":"單一災害暴露（篩選參考）","analysis_predicate":"public facility point intersects hazard polygon or is within 300 metres of hazard geometry/point","analysis_role":"SCREENING_REFERENCE"}},{"type":"Feature","geometry":{"type":"Point","coordinates":[121.70227406058794,24.66474175933038]},"properties":{"facility_id":"NLSC-121-132","facility_name":"聖母醫護管理專科學校","facility_type":"學校","facility_source":"內政部國土測繪中心（官方衍生快取）","source_record_id":"132","source_date":"202206","admin_area":"宜蘭縣","osm_amenity":"","osm_office":"","source":null,"matched_hazard_groups":["地質敏感區"],"matched_hazard_details":[{"group":"地質敏感區","source_id":"G0003","distance_m":0.0}],"hazard_group_count":1,"flood_point_count_300m":0,"screening_priority":"單一災害暴露（篩選參考）","analysis_predicate":"public facility point intersects hazard polygon or is within 300 metres of hazard geometry/point","analysis_role":"SCREENING_REFERENCE"}},{"type":"Feature","geometry":{"type":"Point","coordinates":[121.77288945439703,24.67084411261409]},"properties":{"facility_id":"NLSC-121-133","facility_name":"聖母醫護管理專科學校羅東校區","facility_type":"學校","facility_source":"內政部國土測繪中心（官方衍生快取）","source_record_id":"133","source_date":"202508","admin_area":"宜蘭縣","osm_amenity":"","osm_office":"","source":null,"matched_hazard_groups":["近5年歷史淹水災點"],"matched_hazard_details":[{"group":"近5年歷史淹水災點","source_id":"130016","distance_m":274.9,"match_count":1}],"hazard_group_count":1,"flood_point_count_300m":1,"screening_priority":"單一災害暴露（篩選參考）","analysis_predicate":"public facility point intersects hazard polygon or is within 300 metres of hazard geometry/point","analysis_role":"SCREENING_REFERENCE"}},{"type":"Feature","geometry":{"type":"Point","coordinates":[121.45084651765958,24.53283330581376]},"properties":{"facility_id":"NLSC-121-14","facility_name":"宜蘭縣大同鄉四季國民小學茂安分班","facility_type":"學校","facility_source":"內政部國土測繪中心（官方衍生快取）","source_record_id":"14","source_date":"202508","admin_area":"宜蘭縣","osm_amenity":"","osm_office":"","source":null,"matched_hazard_groups":["土石流影響範圍","地質敏感區"],"matched_hazard_details":[{"group":"地質敏感區","source_id":"L0016","distance_m":259.7},{"group":"土石流影響範圍","source_id":"176526","distance_m":31.0}],"hazard_group_count":2,"flood_point_count_300m":0,"screening_priority":"複合災害暴露（優先查核）","analysis_predicate":"public facility point intersects hazard polygon or is within 300 metres of hazard geometry/point","analysis_role":"SCREENING_REFERENCE"}},{"type":"Feature","geometry":{"type":"Point","coordinates":[121.38065828934248,24.4375079488649]},"properties":{"facility_id":"NLSC-121-15","facility_name":"宜蘭縣大同鄉南山國民小學","facility_type":"學校","facility_source":"內政部國土測繪中心（官方衍生快取）","source_record_id":"15","source_date":"202206","admin_area":"宜蘭縣","osm_amenity":"","osm_office":"","source":null,"matched_hazard_groups":["土石流影響範圍","地質敏感區"],"matched_hazard_details":[{"group":"地質敏感區","source_id":"L0016","distance_m":127.4},{"group":"土石流影響範圍","source_id":"176526","distance_m":154.1}],"hazard_group_count":2,"flood_point_count_300m":0,"screening_priority":"複合災害暴露（優先查核）","analysis_predicate":"public facility point intersects hazard polygon or is within 300 metres of hazard geometry/point","analysis_role":"SCREENING_REFERENCE"}},{"type":"Feature","geometry":{"type":"Point","coordinates":[121.6874798540977,24.60945974702583]},"properties":{"facility_id":"NLSC-121-16","facility_name":"宜蘭縣大同鄉寒溪國民小學","facility_type":"學校","facility_source":"內政部國土測繪中心（官方衍生快取）","source_record_id":"16","source_date":"201901","admin_area":"宜蘭縣","osm_amenity":"","osm_office":"","source":null,"matched_hazard_groups":["土石流影響範圍","地質敏感區"],"matched_hazard_details":[{"group":"地質敏感區","source_id":"G0003","distance_m":0.0},{"group":"土石流影響範圍","source_id":"176526","distance_m":216.8}],"hazard_group_count":2,"flood_point_count_300m":0,"screening_priority":"複合災害暴露（優先查核）","analysis_predicate":"public facility point intersects hazard polygon or is within 300 metres of hazard geometry/point","analysis_role":"SCREENING_REFERENCE"}},{"type":"Feature","geometry":{"type":"Point","coordinates":[121.7160689168856,24.634051902324654]},"properties":{"facility_id":"NLSC-121-22","facility_name":"宜蘭縣冬山鄉大進國民小學","facility_type":"學校","facility_source":"內政部國土測繪中心（官方衍生快取）","source_record_id":"22","source_date":"202206","admin_area":"宜蘭縣","osm_amenity":"","osm_office":"","source":null,"matched_hazard_groups":["地質敏感區","近5年歷史淹水災點"],"matched_hazard_details":[{"group":"地質敏感區","source_id":"G0003","distance_m":0.0},{"group":"近5年歷史淹水災點","source_id":"130016","distance_m":189.5,"match_count":1}],"hazard_group_count":2,"flood_point_count_300m":1,"screening_priority":"複合災害暴露（優先查核）","analysis_predicate":"public facility point intersects hazard polygon or is within 300 metres of hazard geometry/point","analysis_role":"SCREENING_REFERENCE"}},{"type":"Feature","geometry":{"type":"Point","coordinates":[121.73161596879308,24.67654153890647]},"properties":{"facility_id":"NLSC-121-26","facility_name":"宜蘭縣冬山鄉柯林國民小學","facility_type":"學校","facility_source":"內政部國土測繪中心（官方衍生快取）","source_record_id":"26","source_date":"202206","admin_area":"宜蘭縣","osm_amenity":"","osm_office":"","source":null,"matched_hazard_groups":["地質敏感區"],"matched_hazard_details":[{"group":"地質敏感區","source_id":"G0003","distance_m":107.0}],"hazard_group_count":1,"flood_point_count_300m":0,"screening_priority":"單一災害暴露（篩選參考）","analysis_predicate":"public facility point intersects hazard polygon or is within 300 metres of hazard geometry/point","analysis_role":"SCREENING_REFERENCE"}},{"type":"Feature","geometry":{"type":"Point","coordinates":[121.6505638304019,24.666767153317856]},"properties":{"facility_id":"NLSC-121-3","facility_name":"宜蘭縣三星鄉三星國民小學","facility_type":"學校","facility_source":"內政部國土測繪中心（官方衍生快取）","source_record_id":"3","source_date":"202206","admin_area":"宜蘭縣","osm_amenity":"","osm_office":"","source":null,"matched_hazard_groups":["地質敏感區"],"matched_hazard_details":[{"group":"地質敏感區","source_id":"G0003","distance_m":0.0}],"hazard_group_count":1,"flood_point_count_300m":0,"screening_priority":"單一災害暴露（篩選參考）","analysis_predicate":"public facility point intersects hazard polygon or is within 300 metres of hazard geometry/point","analysis_role":"SCREENING_REFERENCE"}},{"type":"Feature","geometry":{"type":"Point","coordinates":[121.65370549762024,24.668073499182864]},"properties":{"facility_id":"NLSC-121-32","facility_name":"宜蘭縣立三星國民中學","facility_type":"學校","facility_source":"內政部國土測繪中心（官方衍生快取）","source_record_id":"32","source_date":"202206","admin_area":"宜蘭縣","osm_amenity":"","osm_office":"","source":null,"matched_hazard_groups":["地質敏感區"],"matched_hazard_details":[{"group":"地質敏感區","source_id":"G0003","distance_m":0.0}],"hazard_group_count":1,"flood_point_count_300m":0,"screening_priority":"單一災害暴露（篩選參考）","analysis_predicate":"public facility point intersects hazard polygon or is within 300 metres of hazard geometry/point","analysis_role":"SCREENING_REFERENCE"}},{"type":"Feature","geometry":{"type":"Point","coordinates":[121.47795719776319,24.574287370786188]},"properties":{"facility_id":"NLSC-121-33","facility_name":"宜蘭縣立大同國民中學","facility_type":"學校","facility_source":"內政部國土測繪中心（官方衍生快取）","source_record_id":"33","source_date":"201810","admin_area":"宜蘭縣","osm_amenity":"","osm_office":"","source":null,"matched_hazard_groups":["地質敏感區"],"matched_hazard_details":[{"group":"地質敏感區","source_id":"L0016","distance_m":210.8}],"hazard_group_count":1,"flood_point_count_300m":0,"screening_priority":"單一災害暴露（篩選參考）","analysis_predicate":"public facility point intersects hazard polygon or is within 300 metres of hazard geometry/point","analysis_role":"SCREENING_REFERENCE"}},{"type":"Feature","geometry":{"type":"Point","coordinates":[121.47876240705865,24.575443181118995]},"properties":{"facility_id":"NLSC-121-34","facility_name":"宜蘭縣立大同國民中學1","facility_type":"學校","facility_source":"內政部國土測繪中心（官方衍生快取）","source_record_id":"34","source_date":"202208","admin_area":"宜蘭縣","osm_amenity":"","osm_office":"","source":null,"matched_hazard_groups":["地質敏感區"],"matched_hazard_details":[{"group":"地質敏感區","source_id":"L0016","distance_m":148.9}],"hazard_group_count":1,"flood_point_count_300m":0,"screening_priority":"單一災害暴露（篩選參考）","analysis_predicate":"public facility point intersects hazard polygon or is within 300 metres of hazard geometry/point","analysis_role":"SCREENING_REFERENCE"}},{"type":"Feature","geometry":{"type":"Point","coordinates":[121.47878402128121,24.57630890478155]},"properties":{"facility_id":"NLSC-121-35","facility_name":"宜蘭縣立大同國民中學2","facility_type":"學校","facility_source":"內政部國土測繪中心（官方衍生快取）","source_record_id":"35","source_date":"202208","admin_area":"宜蘭縣","osm_amenity":"","osm_office":"","source":null,"matched_hazard_groups":["地質敏感區"],"matched_hazard_details":[{"group":"地質敏感區","source_id":"L0016","distance_m":72.1}],"hazard_group_count":1,"flood_point_count_300m":0,"screening_priority":"單一災害暴露（篩選參考）","analysis_predicate":"public facility point intersects hazard polygon or is within 300 metres of hazard geometry/point","analysis_role":"SCREENING_REFERENCE"}},{"type":"Feature","geometry":{"type":"Point","coordinates":[121.86857236574929,24.57499366450233]},"properties":{"facility_id":"NLSC-121-47","facility_name":"宜蘭縣立南安國民中學","facility_type":"學校","facility_source":"內政部國土測繪中心（官方衍生快取）","source_record_id":"47","source_date":"202406","admin_area":"宜蘭縣","osm_amenity":"","osm_office":"","source":null,"matched_hazard_groups":["土石流影響範圍","地質敏感區"],"matched_hazard_details":[{"group":"地質敏感區","source_id":"L0016","distance_m":249.8},{"group":"土石流影響範圍","source_id":"176526","distance_m":23.6}],"hazard_group_count":2,"flood_point_count_300m":0,"screening_priority":"複合災害暴露（優先查核）","analysis_predicate":"public facility point intersects hazard polygon or is within 300 metres of hazard geometry/point","analysis_role":"SCREENING_REFERENCE"}},{"type":"Feature","geometry":{"type":"Point","coordinates":[121.80111249737982,24.465690127928823]},"properties":{"facility_id":"NLSC-121-48","facility_name":"宜蘭縣立南澳高級中學","facility_type":"學校","facility_source":"內政部國土測繪中心（官方衍生快取）","source_record_id":"48","source_date":"202207","admin_area":"宜蘭縣","osm_amenity":"","osm_office":"","source":null,"matched_hazard_groups":["近5年歷史淹水災點"],"matched_hazard_details":[{"group":"近5年歷史淹水災點","source_id":"130016","distance_m":156.4,"match_count":1}],"hazard_group_count":1,"flood_point_count_300m":1,"screening_priority":"單一災害暴露（篩選參考）","analysis_predicate":"public facility point intersects hazard polygon or is within 300 metres of hazard geometry/point","analysis_role":"SCREENING_REFERENCE"}},{"type":"Feature","geometry":{"type":"Point","coordinates":[121.71300299587374,24.667232151593378]},"properties":{"facility_id":"NLSC-121-5","facility_name":"宜蘭縣三星鄉大隱國民小學","facility_type":"學校","facility_source":"內政部國土測繪中心（官方衍生快取）","source_record_id":"5","source_date":"202206","admin_area":"宜蘭縣","osm_amenity":"","osm_office":"","source":null,"matched_hazard_groups":["地質敏感區"],"matched_hazard_details":[{"group":"地質敏感區","source_id":"G0003","distance_m":0.0}],"hazard_group_count":1,"flood_point_count_300m":0,"screening_priority":"單一災害暴露（篩選參考）","analysis_predicate":"public facility point intersects hazard polygon or is within 300 metres of hazard geometry/point","analysis_role":"SCREENING_REFERENCE"}},{"type":"Feature","geometry":{"type":"Point","coordinates":[121.76126887038824,24.678139749010743]},"properties":{"facility_id":"NLSC-121-50","facility_name":"宜蘭縣立國華國民中學","facility_type":"學校","facility_source":"內政部國土測繪中心（官方衍生快取）","source_record_id":"50","source_date":"202206","admin_area":"宜蘭縣","osm_amenity":"","osm_office":"","source":null,"matched_hazard_groups":["近5年歷史淹水災點"],"matched_hazard_details":[{"group":"近5年歷史淹水災點","source_id":"130016","distance_m":174.7,"match_count":1}],"hazard_group_count":1,"flood_point_count_300m":1,"screening_priority":"單一災害暴露（篩選參考）","analysis_predicate":"public facility point intersects hazard polygon or is within 300 metres of hazard geometry/point","analysis_role":"SCREENING_REFERENCE"}},{"type":"Feature","geometry":{"type":"Point","coordinates":[121.75617371992757,24.72543964741962]},"properties":{"facility_id":"NLSC-121-51","facility_name":"宜蘭縣立凱旋國民中學","facility_type":"學校","facility_source":"內政部國土測繪中心（官方衍生快取）","source_record_id":"51","source_date":"202207","admin_area":"宜蘭縣","osm_amenity":"","osm_office":"","source":null,"matched_hazard_groups":["近5年歷史淹水災點"],"matched_hazard_details":[{"group":"近5年歷史淹水災點","source_id":"130016","distance_m":178.1,"match_count":7}],"hazard_group_count":1,"flood_point_count_300m":7,"screening_priority":"單一災害暴露（篩選參考）","analysis_predicate":"public facility point intersects hazard polygon or is within 300 metres of hazard geometry/point","analysis_role":"SCREENING_REFERENCE"}},{"type":"Feature","geometry":{"type":"Point","coordinates":[121.76742004598218,24.682508091698498]},"properties":{"facility_id":"NLSC-121-58","facility_name":"宜蘭縣立羅東國民中學","facility_type":"學校","facility_source":"內政部國土測繪中心（官方衍生快取）","source_record_id":"58","source_date":"202206","admin_area":"宜蘭縣","osm_amenity":"","osm_office":"","source":null,"matched_hazard_groups":["近5年歷史淹水災點"],"matched_hazard_details":[{"group":"近5年歷史淹水災點","source_id":"130016","distance_m":144.5,"match_count":2}],"hazard_group_count":1,"flood_point_count_300m":2,"screening_priority":"單一災害暴露（篩選參考）","analysis_predicate":"public facility point intersects hazard polygon or is within 300 metres of hazard geometry/point","analysis_role":"SCREENING_REFERENCE"}},{"type":"Feature","geometry":{"type":"Point","coordinates":[121.83567608766924,24.595555792740615]},"properties":{"facility_id":"NLSC-121-59","facility_name":"宜蘭縣立蘇澳國民中學","facility_type":"學校","facility_source":"內政部國土測繪中心（官方衍生快取）","source_record_id":"59","source_date":"202207","admin_area":"宜蘭縣","osm_amenity":"","osm_office":"","source":null,"matched_hazard_groups":["土石流影響範圍"],"matched_hazard_details":[{"group":"土石流影響範圍","source_id":"176526","distance_m":287.3}],"hazard_group_count":1,"flood_point_count_300m":0,"screening_priority":"單一災害暴露（篩選參考）","analysis_predicate":"public facility point intersects hazard polygon or is within 300 metres of hazard geometry/point","analysis_role":"SCREENING_REFERENCE"}},{"type":"Feature","geometry":{"type":"Point","coordinates":[121.6882587837758,24.679499994730968]},"properties":{"facility_id":"NLSC-121-6","facility_name":"宜蘭縣三星鄉萬富國民小學","facility_type":"學校","facility_source":"內政部國土測繪中心（官方衍生快取）","source_record_id":"6","source_date":"202406","admin_area":"宜蘭縣","osm_amenity":"","osm_office":"","source":null,"matched_hazard_groups":["地質敏感區"],"matched_hazard_details":[{"group":"地質敏感區","source_id":"G0003","distance_m":0.0}],"hazard_group_count":1,"flood_point_count_300m":0,"screening_priority":"單一災害暴露（篩選參考）","analysis_predicate":"public facility point intersects hazard polygon or is within 300 metres of hazard geometry/point","analysis_role":"SCREENING_REFERENCE"}},{"type":"Feature","geometry":{"type":"Point","coordinates":[121.61859343459794,24.660826190286606]},"properties":{"facility_id":"NLSC-121-7","facility_name":"宜蘭縣三星鄉憲明國民小學","facility_type":"學校","facility_source":"內政部國土測繪中心（官方衍生快取）","source_record_id":"7","source_date":"201901","admin_area":"宜蘭縣","osm_amenity":"","osm_office":"","source":null,"matched_hazard_groups":["地質敏感區"],"matched_hazard_details":[{"group":"地質敏感區","source_id":"G0003","distance_m":0.0},{"group":"地質敏感區","source_id":"L0016","distance_m":182.5}],"hazard_group_count":1,"flood_point_count_300m":0,"screening_priority":"單一災害暴露（篩選參考）","analysis_predicate":"public facility point intersects hazard polygon or is within 300 metres of hazard geometry/point","analysis_role":"SCREENING_REFERENCE"}},{"type":"Feature","geometry":{"type":"Point","coordinates":[121.76409771992734,24.751390551908116]},"properties":{"facility_id":"NLSC-121-76","facility_name":"宜蘭縣宜蘭市黎明國民小學","facility_type":"學校","facility_source":"內政部國土測繪中心（官方衍生快取）","source_record_id":"76","source_date":"202207","admin_area":"宜蘭縣","osm_amenity":"","osm_office":"","source":null,"matched_hazard_groups":["近5年歷史淹水災點"],"matched_hazard_details":[{"group":"近5年歷史淹水災點","source_id":"130016","distance_m":254.6,"match_count":1}],"hazard_group_count":1,"flood_point_count_300m":1,"screening_priority":"單一災害暴露（篩選參考）","analysis_predicate":"public facility point intersects hazard polygon or is within 300 metres of hazard geometry/point","analysis_role":"SCREENING_REFERENCE"}},{"type":"Feature","geometry":{"type":"Point","coordinates":[121.7782891857181,24.44562991245959]},"properties":{"facility_id":"NLSC-121-78","facility_name":"宜蘭縣南澳鄉武塔國民小學","facility_type":"學校","facility_source":"內政部國土測繪中心（官方衍生快取）","source_record_id":"78","source_date":"202407","admin_area":"宜蘭縣","osm_amenity":"","osm_office":"","source":null,"matched_hazard_groups":["地質敏感區"],"matched_hazard_details":[{"group":"地質敏感區","source_id":"L0016","distance_m":255.0}],"hazard_group_count":1,"flood_point_count_300m":0,"screening_priority":"單一災害暴露（篩選參考）","analysis_predicate":"public facility point intersects hazard polygon or is within 300 metres of hazard geometry/point","analysis_role":"SCREENING_REFERENCE"}},{"type":"Feature","geometry":{"type":"Point","coordinates":[121.77717999918143,24.4709610005608]},"properties":{"facility_id":"NLSC-121-79","facility_name":"宜蘭縣南澳鄉金岳國民小學","facility_type":"學校","facility_source":"內政部國土測繪中心（官方衍生快取）","source_record_id":"79","source_date":"201901","admin_area":"宜蘭縣","osm_amenity":"","osm_office":"","source":null,"matched_hazard_groups":["地質敏感區"],"matched_hazard_details":[{"group":"地質敏感區","source_id":"L0016","distance_m":219.8}],"hazard_group_count":1,"flood_point_count_300m":0,"screening_priority":"單一災害暴露（篩選參考）","analysis_predicate":"public facility point intersects hazard polygon or is within 300 metres of hazard geometry/point","analysis_role":"SCREENING_REFERENCE"}},{"type":"Feature","geometry":{"type":"Point","coordinates":[121.61929054654324,24.660376261682465]},"properties":{"facility_id":"NLSC-121-8","facility_name":"宜蘭縣三星鄉憲明國民小學1","facility_type":"學校","facility_source":"內政部國土測繪中心（官方衍生快取）","source_record_id":"8","source_date":"201711","admin_area":"宜蘭縣","osm_amenity":"","osm_office":"","source":null,"matched_hazard_groups":["地質敏感區"],"matched_hazard_details":[{"group":"地質敏感區","source_id":"G0003","distance_m":0.0},{"group":"地質敏感區","source_id":"L0016","distance_m":99.3}],"hazard_group_count":1,"flood_point_count_300m":0,"screening_priority":"單一災害暴露（篩選參考）","analysis_predicate":"public facility point intersects hazard polygon or is within 300 metres of hazard geometry/point","analysis_role":"SCREENING_REFERENCE"}},{"type":"Feature","geometry":{"type":"Point","coordinates":[121.749390219091,24.42601520884363]},"properties":{"facility_id":"NLSC-121-80","facility_name":"宜蘭縣南澳鄉金洋國民小學","facility_type":"學校","facility_source":"內政部國土測繪中心（官方衍生快取）","source_record_id":"80","source_date":"201901","admin_area":"宜蘭縣","osm_amenity":"","osm_office":"","source":null,"matched_hazard_groups":["土石流影響範圍","地質敏感區"],"matched_hazard_details":[{"group":"地質敏感區","source_id":"L0016","distance_m":183.2},{"group":"土石流影響範圍","source_id":"176526","distance_m":216.9}],"hazard_group_count":2,"flood_point_count_300m":0,"screening_priority":"複合災害暴露（優先查核）","analysis_predicate":"public facility point intersects hazard polygon or is within 300 metres of hazard geometry/point","analysis_role":"SCREENING_REFERENCE"}},{"type":"Feature","geometry":{"type":"Point","coordinates":[121.74961189501366,24.42647970475305]},"properties":{"facility_id":"NLSC-121-81","facility_name":"宜蘭縣南澳鄉金洋國民小學1","facility_type":"學校","facility_source":"內政部國土測繪中心（官方衍生快取）","source_record_id":"81","source_date":"201811","admin_area":"宜蘭縣","osm_amenity":"","osm_office":"","source":null,"matched_hazard_groups":["土石流影響範圍","地質敏感區"],"matched_hazard_details":[{"group":"地質敏感區","source_id":"L0016","distance_m":127.2},{"group":"土石流影響範圍","source_id":"176526","distance_m":233.5}],"hazard_group_count":2,"flood_point_count_300m":0,"screening_priority":"複合災害暴露（優先查核）","analysis_predicate":"public facility point intersects hazard polygon or is within 300 metres of hazard geometry/point","analysis_role":"SCREENING_REFERENCE"}},{"type":"Feature","geometry":{"type":"Point","coordinates":[121.7847891021448,24.474186212699983]},"properties":{"facility_id":"NLSC-121-83","facility_name":"宜蘭縣南澳鄉碧候國民小學","facility_type":"學校","facility_source":"內政部國土測繪中心（官方衍生快取）","source_record_id":"83","source_date":"201901","admin_area":"宜蘭縣","osm_amenity":"","osm_office":"","source":null,"matched_hazard_groups":["土石流影響範圍"],"matched_hazard_details":[{"group":"土石流影響範圍","source_id":"176526","distance_m":147.0}],"hazard_group_count":1,"flood_point_count_300m":0,"screening_priority":"單一災害暴露（篩選參考）","analysis_predicate":"public facility point intersects hazard polygon or is within 300 metres of hazard geometry/point","analysis_role":"SCREENING_REFERENCE"}},{"type":"Feature","geometry":{"type":"Point","coordinates":[121.73940182375514,24.329107111598518]},"properties":{"facility_id":"NLSC-121-84","facility_name":"宜蘭縣南澳鄉澳花國民小學","facility_type":"學校","facility_source":"內政部國土測繪中心（官方衍生快取）","source_record_id":"84","source_date":"201901","admin_area":"宜蘭縣","osm_amenity":"","osm_office":"","source":null,"matched_hazard_groups":["土石流影響範圍","地質敏感區"],"matched_hazard_details":[{"group":"地質敏感區","source_id":"L0016","distance_m":61.7},{"group":"土石流影響範圍","source_id":"176526","distance_m":35.6}],"hazard_group_count":2,"flood_point_count_300m":0,"screening_priority":"複合災害暴露（優先查核）","analysis_predicate":"public facility point intersects hazard polygon or is within 300 metres of hazard geometry/point","analysis_role":"SCREENING_REFERENCE"}},{"type":"Feature","geometry":{"type":"Point","coordinates":[121.65258972415353,24.711588591861013]},"properties":{"facility_id":"NLSC-121-87","facility_name":"宜蘭縣員山鄉內城國民小學化育分校","facility_type":"學校","facility_source":"內政部國土測繪中心（官方衍生快取）","source_record_id":"87","source_date":"202206","admin_area":"宜蘭縣","osm_amenity":"","osm_office":"","source":null,"matched_hazard_groups":["地質敏感區"],"matched_hazard_details":[{"group":"地質敏感區","source_id":"L0016","distance_m":43.8}],"hazard_group_count":1,"flood_point_count_300m":0,"screening_priority":"單一災害暴露（篩選參考）","analysis_predicate":"public facility point intersects hazard polygon or is within 300 metres of hazard geometry/point","analysis_role":"SCREENING_REFERENCE"}},{"type":"Feature","geometry":{"type":"Point","coordinates":[121.60924922511478,24.678432895424994]},"properties":{"facility_id":"NLSC-121-9","facility_name":"宜蘭縣大同鄉大同國民小學","facility_type":"學校","facility_source":"內政部國土測繪中心（官方衍生快取）","source_record_id":"9","source_date":"202206","admin_area":"宜蘭縣","osm_amenity":"","osm_office":"","source":null,"matched_hazard_groups":["地質敏感區"],"matched_hazard_details":[{"group":"地質敏感區","source_id":"G0003","distance_m":66.2},{"group":"地質敏感區","source_id":"L0016","distance_m":274.0}],"hazard_group_count":1,"flood_point_count_300m":0,"screening_priority":"單一災害暴露（篩選參考）","analysis_predicate":"public facility point intersects hazard polygon or is within 300 metres of hazard geometry/point","analysis_role":"SCREENING_REFERENCE"}},{"type":"Feature","geometry":{"type":"Point","coordinates":[121.72370394020949,24.723840363266316]},"properties":{"facility_id":"NLSC-121-90","facility_name":"宜蘭縣員山鄉深溝國民小學","facility_type":"學校","facility_source":"內政部國土測繪中心（官方衍生快取）","source_record_id":"90","source_date":"202206","admin_area":"宜蘭縣","osm_amenity":"","osm_office":"","source":null,"matched_hazard_groups":["近5年歷史淹水災點"],"matched_hazard_details":[{"group":"近5年歷史淹水災點","source_id":"130016","distance_m":120.5,"match_count":1}],"hazard_group_count":1,"flood_point_count_300m":1,"screening_priority":"單一災害暴露（篩選參考）","analysis_predicate":"public facility point intersects hazard polygon or is within 300 metres of hazard geometry/point","analysis_role":"SCREENING_REFERENCE"}},{"type":"Feature","geometry":{"type":"Point","coordinates":[121.69942568026015,24.779222720779224]},"properties":{"facility_id":"NLSC-121-91","facility_name":"宜蘭縣員山鄉湖山國民小學","facility_type":"學校","facility_source":"內政部國土測繪中心（官方衍生快取）","source_record_id":"91","source_date":"202207","admin_area":"宜蘭縣","osm_amenity":"","osm_office":"","source":null,"matched_hazard_groups":["土石流影響範圍"],"matched_hazard_details":[{"group":"土石流影響範圍","source_id":"176526","distance_m":223.4}],"hazard_group_count":1,"flood_point_count_300m":0,"screening_priority":"單一災害暴露（篩選參考）","analysis_predicate":"public facility point intersects hazard polygon or is within 300 metres of hazard geometry/point","analysis_role":"SCREENING_REFERENCE"}},{"type":"Feature","geometry":{"type":"Point","coordinates":[121.92651525477193,24.970684157336585]},"properties":{"facility_id":"NLSC-121-93","facility_name":"宜蘭縣頭城鎮大里國民小學","facility_type":"學校","facility_source":"內政部國土測繪中心（官方衍生快取）","source_record_id":"93","source_date":"202405","admin_area":"宜蘭縣","osm_amenity":"","osm_office":"","source":null,"matched_hazard_groups":["土石流影響範圍","地質敏感區"],"matched_hazard_details":[{"group":"地質敏感區","source_id":"L0016","distance_m":115.4},{"group":"土石流影響範圍","source_id":"176526","distance_m":45.9}],"hazard_group_count":2,"flood_point_count_300m":0,"screening_priority":"複合災害暴露（優先查核）","analysis_predicate":"public facility point intersects hazard polygon or is within 300 metres of hazard geometry/point","analysis_role":"SCREENING_REFERENCE"}},{"type":"Feature","geometry":{"type":"Point","coordinates":[121.88702976252665,24.935530938843925]},"properties":{"facility_id":"NLSC-121-94","facility_name":"宜蘭縣頭城鎮大溪國民小學","facility_type":"學校","facility_source":"內政部國土測繪中心（官方衍生快取）","source_record_id":"94","source_date":"201901","admin_area":"宜蘭縣","osm_amenity":"","osm_office":"","source":null,"matched_hazard_groups":["土石流影響範圍","近5年歷史淹水災點"],"matched_hazard_details":[{"group":"近5年歷史淹水災點","source_id":"130016","distance_m":162.2,"match_count":1},{"group":"土石流影響範圍","source_id":"176526","distance_m":84.0}],"hazard_group_count":2,"flood_point_count_300m":1,"screening_priority":"複合災害暴露（優先查核）","analysis_predicate":"public facility point intersects hazard polygon or is within 300 metres of hazard geometry/point","analysis_role":"SCREENING_REFERENCE"}},{"type":"Feature","geometry":{"type":"Point","coordinates":[121.86247339165901,24.900312039984737]},"properties":{"facility_id":"NLSC-121-96","facility_name":"宜蘭縣頭城鎮梗枋國民小學","facility_type":"學校","facility_source":"內政部國土測繪中心（官方衍生快取）","source_record_id":"96","source_date":"202207","admin_area":"宜蘭縣","osm_amenity":"","osm_office":"","source":null,"matched_hazard_groups":["地質敏感區"],"matched_hazard_details":[{"group":"地質敏感區","source_id":"L0016","distance_m":28.1}],"hazard_group_count":1,"flood_point_count_300m":0,"screening_priority":"單一災害暴露（篩選參考）","analysis_predicate":"public facility point intersects hazard polygon or is within 300 metres of hazard geometry/point","analysis_role":"SCREENING_REFERENCE"}}],"metadata":{"title":"宜蘭縣公共設施複合災害暴露查核結果","generated_at":"2026-09-25T12:20:50+00:00","crs":"EPSG:4326","scope":"宜蘭縣","buffer_m":300,"analysis_role":"SCREENING_REFERENCE","limitation":"結果為空間篩選參考，不是法定危險分級、工程安全鑑定或公共設施安全認定。"}}