{"type":"FeatureCollection","features":[{"type":"Feature","geometry":{"type":"MultiPolygon","coordinates":[[[[121.85179082568607,24.62885731761116],[121.85876606370287,24.61669669299806],[121.86613122977248,24.60992134099712],[121.87340345360656,24.60873139763595],[121.8753208387858,24.605638981653723],[121.880216154452,24.6057426590965],[121.88217546602505,24.603512766700874],[121.88513956314036,24.60371505300736],[121.88365948499732,24.60137974837676],[121.88603929617659,24.599813176137218],[121.87922891558208,24.599121652342433],[121.87345821062797,24.59661079645116],[121.87924217068974,24.59103512207326],[121.87621446542529,24.586489621099183],[121.87225299318118,24.5840490076556],[121.8740048977079,24.58456500627005],[121.87526640552028,24.581386009856548],[121.87979216097949,24.57966333149761],[121.87698341005638,24.57808016496767],[121.87570499409027,24.57900736959448],[121.87553080620182,24.577159369809127],[121.8720772593581,24.578179426739208],[121.86949338661056,24.57448817019298],[121.87121560002004,24.552374451719633],[121.87410669826556,24.545493978864098],[121.87231127284701,24.541484145576927],[121.8737529553347,24.534380710101743],[121.87257407543325,24.531096695356265],[121.86857470935549,24.527653008679465],[121.86092647267867,24.527174058536044],[121.85626414977071,24.523937025273536],[121.84254032717445,24.520805900671807],[121.83877681729632,24.511617610064715],[121.83833833664494,24.50348327633219],[121.83971035404966,24.4986353738235],[121.84643710129126,24.49658067026178],[121.84767003224624,24.497413334557788],[121.84804605048488,24.495808878377094],[121.85073567810913,24.495343434252163],[121.8496547442711,24.492201703046184],[121.8516590633152,24.48389462483709],[121.86022516785727,24.483641389238745],[121.86241783011883,24.48119632594972],[121.85969012519922,24.47855675548993],[121.85545037933163,24.480585043265194],[121.84173755184656,24.475916620255873],[121.83265678867998,24.467422938118144],[121.82086136436055,24.462089084243868],[121.82002920008757,24.458725717817686],[121.82180717596042,24.45564710732822],[121.81716867429498,24.450210799089177],[121.81655405422623,24.4467394043001],[121.81560146713412,24.447892669710992],[121.81218180224846,24.442686697633057],[121.80186436694703,24.434336829681],[121.79114802925824,24.408230186074267],[121.78702757666144,24.372496352124987],[121.7787176359102,24.356201321034174],[121.7716386754845,24.337563179197385],[121.77089084063982,24.332586780655447],[121.77396257581233,24.319606413205463],[121.77272412751654,24.31362869600758],[121.75939802559844,24.314106822372022],[121.74473627395992,24.32285255929821],[121.73517998526813,24.3230736063619],[121.72779145031531,24.325985398907104],[121.71353540533472,24.326886850547737],[121.69571464471517,24.33470621831737],[121.68846643817564,24.3336192167535],[121.6855812862474,24.340731448497596],[121.67484025767182,24.337773984781617],[121.67348751903387,24.339979817614562],[121.67398315250057,24.3433964571808],[121.66910892953354,24.343099766341197],[121.66390365443023,24.349173300007866],[121.66312931566539,24.352885976606558],[121.66001179870558,24.35115163134276],[121.65664620016209,24.35325456104919],[121.65351388575732,24.35218894086699],[121.65365359903446,24.356108975049207],[121.65067704181205,24.359853064067693],[121.64785276409383,24.35772503698092],[121.65072354485574,24.350930037491302],[121.64875568882405,24.349508493522194],[121.6404750120123,24.357167844920177],[121.63833661484296,24.36231914451298],[121.63502838764997,24.363716023675572],[121.63499921454219,24.366338599646717],[121.63061870049273,24.366420613320713],[121.63095152609208,24.370548851348474],[121.62188146575717,24.36675924494324],[121.62037773184694,24.363209485929072],[121.62356944287558,24.36234072464475],[121.62120182650312,24.358114152945856],[121.62677118584156,24.354330050391578],[121.62685163649394,24.349530988264576],[121.63046436423905,24.348216601215196],[121.63323666114309,24.349170075038952],[121.63552173234211,24.347617913535938],[121.63529676153632,24.34481515659428],[121.63137283418907,24.34398246531856],[121.63280419695616,24.334747367696927],[121.62863775572794,24.333694265178224],[121.62669023606566,24.335625902813202],[121.62747995863323,24.341118630020787],[121.622785001127,24.33947305413818],[121.6192137734969,24.3454818402148],[121.61613884573126,24.338134487916307],[121.61866169498127,24.33574298824834],[121.61753693358264,24.333646253072175],[121.61522998907277,24.333303479172287],[121.61220686225694,24.33588829710726],[121.6079166662213,24.33541590482019],[121.60646047946761,24.33005732138832],[121.60447266388236,24.32900874515752],[121.60071970305194,24.33086316520297],[121.59922975484939,24.333525071225093],[121.59697849725991,24.33346705506057],[121.59575243442737,24.331623240720035],[121.59657080220087,24.328138928069105],[121.60132686864016,24.32328479146002],[121.60109833472042,24.32058142669155],[121.60522677869291,24.31728224038312],[121.607022883999,24.312636929051113],[121.60574656525183,24.309422573992663],[121.60191823673733,24.314147626411852],[121.59719185152278,24.3162939097362],[121.59376069330143,24.31641318232255],[121.58948861320904,24.31380246930854],[121.58751516159555,24.31606192241986],[121.57585487929929,24.319670218305983],[121.56989963526007,24.317941625105952],[121.56637338362488,24.31918351600649],[121.5633298341046,24.322234679187144],[121.55948921905224,24.323153812398573],[121.55607855008509,24.331154080596377],[121.54498871136,24.337767895472034],[121.54053514538076,24.335912011330322],[121.53327223402641,24.337055334735965],[121.52215888072783,24.34302200915846],[121.51356669674567,24.340813983778386],[121.50968009306189,24.34120061311785],[121.5073032424507,24.343257548796885],[121.50387749275218,24.34278117341245],[121.49939508011892,24.339369817363213],[121.49540315503168,24.340289001836027],[121.4853675510717,24.348456219279164],[121.48111317863038,24.34907550143327],[121.47887456191155,24.35187580862174],[121.47526272719314,24.351264712096842],[121.46540060965049,24.355306063024443],[121.45201245271257,24.364679861286614],[121.44797807782606,24.374826330970446],[121.44255587095677,24.37312707365555],[121.43778703234568,24.38287609965232],[121.4293714104623,24.383059732220943],[121.41909943678968,24.379052239868994],[121.41277099748356,24.379741670941428],[121.40790682533977,24.377548166015114],[121.40088580643487,24.37967430272693],[121.39546800894153,24.37784750985474],[121.39304479827888,24.375205998657975],[121.38996497820119,24.375147431209026],[121.38762249068543,24.369685173032337],[121.38076339651354,24.366904100543874],[121.37373777847574,24.36805268858074],[121.36943435251341,24.372259268350604],[121.36710487818766,24.37892533203847],[121.36980307095506,24.382590017215584],[121.36488783080881,24.389073982578278],[121.35469210165921,24.39327201788938],[121.34296806822182,24.39284232631234],[121.33913490315331,24.38960389820142],[121.33233500775452,24.3979430813082],[121.32760101337612,24.398454782062572],[121.32597882885989,24.40103620325823],[121.32499644632901,24.406912483224577],[121.32744088728714,24.413021157900175],[121.32825676213997,24.433453050617853],[121.3216745107701,24.440368257089464],[121.31766529351852,24.44148852637443],[121.32379572639172,24.456721179339016],[121.33087762310392,24.465206334105062],[121.33600051850921,24.467365852751982],[121.33564135356562,24.472035097741635],[121.34007367036362,24.474851373292264],[121.34283926192246,24.48225950447261],[121.34631700142857,24.484656096102015],[121.35073934924162,24.484343309196387],[121.35775034250436,24.48660867085351],[121.36385101231438,24.494956736564177],[121.3712540407414,24.498363148140808],[121.37335395412174,24.50989558821089],[121.38356828394923,24.510217183975893],[121.38511672046037,24.516820422824306],[121.388533782708,24.51780022789825],[121.39062126116234,24.523031232605373],[121.39771383912237,24.524813464070174],[121.40150043369817,24.52898632286059],[121.39674703824527,24.539822453843215],[121.39876250348686,24.548203098394303],[121.39475965703265,24.55591118495329],[121.40125648629784,24.562005500153756],[121.40358493539655,24.568707203075004],[121.41233041511657,24.573498560710053],[121.40308850782846,24.591866117227593],[121.40847123715797,24.598980713289333],[121.41229016685783,24.600936516607014],[121.41278153753797,24.603649978963404],[121.41828741733048,24.601034135317153],[121.42440460858587,24.603005858433672],[121.42768883197402,24.60584896076096],[121.43061698678457,24.614508878082287],[121.43566105481385,24.62132633454274],[121.43483811938383,24.624455178463784],[121.43608563104715,24.627402040971443],[121.44054785569902,24.63509560347939],[121.44502103589218,24.63729519141998],[121.44507749353158,24.643177327771518],[121.4487629494506,24.646013833571605],[121.45133869232689,24.65091801655325],[121.44761308617502,24.65617149531829],[121.44914119890723,24.661379459394592],[121.45374553802617,24.664225390989028],[121.45964064170234,24.6732338063951],[121.46920665925995,24.671831485434783],[121.48734874225067,24.675213389586307],[121.49300912107411,24.673243394067416],[121.51174220793666,24.684353604235522],[121.52379561267742,24.683295103985927],[121.52695387252324,24.68525467276498],[121.52788073270972,24.68896891508342],[121.52949845658863,24.68757330306556],[121.53687321033044,24.688494833869523],[121.53755927973702,24.694014794347304],[121.53889281874866,24.6947759742319],[121.53786469310113,24.699844402197467],[121.54320708334023,24.705643862973943],[121.55062202598573,24.705742067142747],[121.5563765692234,24.711221808140007],[121.56254306221261,24.71283931528222],[121.56777952040864,24.711563200681212],[121.57037577772007,24.713971256868028],[121.57216094097475,24.710582621290992],[121.5750658806859,24.710326476385823],[121.57728279406582,24.714873730138603],[121.57805944678613,24.72216427765932],[121.58768793125309,24.72032920293043],[121.59795328141888,24.729029823567537],[121.59377130979819,24.729537483667972],[121.59530705777456,24.73963186821618],[121.59166853567444,24.74491605972844],[121.59613331889763,24.748302000936633],[121.59032819329151,24.751244577275486],[121.5889743206085,24.755152265564668],[121.59077870147598,24.761344578989167],[121.59627851893858,24.766939198485257],[121.59558848082385,24.769300752527784],[121.59758595512778,24.77216915997877],[121.5920841168886,24.787734034198365],[121.6056437349705,24.789126113679224],[121.60963678960627,24.79376568553801],[121.62096116882297,24.792503170484963],[121.6255796443852,24.795128975022234],[121.62582739501828,24.808780144987736],[121.6286643756605,24.80796009278413],[121.6388028395794,24.81072537407681],[121.645036580274,24.80928933663364],[121.64737409453892,24.813951818721527],[121.65311451032642,24.81126590080072],[121.66069020858629,24.810828607254447],[121.66904965881474,24.818009154199157],[121.67428332191786,24.814126999461507],[121.67715642382997,24.814091603944405],[121.68124072457988,24.817615829407032],[121.68844599388764,24.816193734153554],[121.69011832100377,24.821492393059543],[121.6876436691201,24.824904772537256],[121.69616640385652,24.82989412041735],[121.69640401643231,24.834619620698962],[121.69916435864832,24.835576560509928],[121.70186589149773,24.8344004694062],[121.70891376955488,24.84054441369381],[121.71426741031281,24.841783050847145],[121.71559079328051,24.84435031761313],[121.71973551947873,24.845588973652237],[121.72192139815412,24.84984966383098],[121.73051381775849,24.85529271968329],[121.7365964345779,24.855696205015867],[121.74198999893942,24.852459142975132],[121.74578333573243,24.852853345505537],[121.74796975669891,24.854950039312936],[121.76098529933212,24.856700890733578],[121.7615640661288,24.86015208135353],[121.76278935104779,24.861255212258296],[121.76437941807569,24.859889473020814],[121.76848841330968,24.865783375202685],[121.77542665051955,24.86508349131014],[121.77733079318159,24.870762917774467],[121.78517286343696,24.874135706397798],[121.7822408568302,24.879184352875654],[121.78168481140494,24.889465878247734],[121.78558315034218,24.890583224736073],[121.78579306020163,24.89249404936095],[121.79001026276353,24.89345422673125],[121.79293794632918,24.89615714723459],[121.79199500806327,24.89986878061978],[121.7951841524267,24.899752614291735],[121.7971639550525,24.9016202714584],[121.8046233394956,24.90118938018577],[121.81047607161351,24.903631488302604],[121.81163528244235,24.906518518914595],[121.8183805746039,24.902709920626364],[121.8255147632957,24.90526221457958],[121.83182035802315,24.904907599306338],[121.84373803618143,24.915722857923587],[121.84559774513991,24.919368643847857],[121.85363159492225,24.925118923399623],[121.85386754285288,24.92787870353936],[121.84914500763604,24.93032774003325],[121.84673627515907,24.93771456627428],[121.84244303401886,24.939360045929448],[121.8390478163037,24.944635944793045],[121.84175536651696,24.951124828548064],[121.8414118183008,24.95426383570748],[121.8468626829665,24.96026664938643],[121.85036323467556,24.961177801114673],[121.85256609255124,24.959605359000193],[121.86091146838965,24.963654675223154],[121.87155156964923,24.960719311447114],[121.88252926291524,24.96416956227551],[121.8885655043946,24.96317529430445],[121.88957462376992,24.964760658777436],[121.8972039827777,24.967067009734766],[121.90282820345885,24.974379032166663],[121.90542445537439,24.973417314257688],[121.90826466278406,24.97586322650676],[121.91032722192381,24.97477371583437],[121.91096436101647,24.976930987075434],[121.9148172617073,24.979331359454704],[121.92274368926984,24.978600547877022],[121.93349979318099,24.980897086331534],[121.93445456832374,24.98314421603277],[121.94042034612208,24.984445250847724],[121.94464081861895,24.98817837173453],[121.94789744001491,24.986662737095685],[121.95038506012247,24.98832387214901],[121.95808825706752,24.987288917949222],[121.96107515739264,24.988292975040785],[121.96599328795992,24.98303004260242],[121.96224171927997,24.981751886540394],[121.95830724108635,24.982622589460956],[121.94427361283704,24.976830951886996],[121.94183319094907,24.973385709383027],[121.93622901975358,24.973851782134087],[121.92559169380172,24.968560214382418],[121.92238743812983,24.96321254782088],[121.92304747935772,24.961830537149634],[121.92015226851241,24.959061777279253],[121.92019725439981,24.9551930772987],[121.90535942989379,24.94659780234673],[121.90467103573974,24.939816236030534],[121.89528345716589,24.940726732152996],[121.88926260308676,24.937097222159142],[121.88498312786908,24.91785186976802],[121.87250985754395,24.90618383171852],[121.87178758412972,24.903644787476992],[121.87187714851167,24.904967041795597],[121.86737504881955,24.90298725265961],[121.86047350035187,24.894461343316376],[121.85136210447763,24.890113748950395],[121.85083646782881,24.886459131683633],[121.84268995277922,24.87615705230615],[121.82714304071887,24.84235901895363],[121.81901871823936,24.797481441415417],[121.81799501635702,24.779333414805308],[121.81910720163613,24.758790909972557],[121.82195500921635,24.74411798155967],[121.82889507744596,24.726705221768608],[121.8336475924625,24.71903101986572],[121.83913923149045,24.717413652118406],[121.8363121955515,24.708233826829712],[121.83819260870202,24.672232351042226],[121.84381949947046,24.6482171968662],[121.85179082568607,24.62885731761116]],[[121.58812076865865,24.716371674213466],[121.58815878042307,24.71629076063067],[121.58804774640647,24.7178129735899],[121.58812076865865,24.716371674213466]],[[121.58833703942288,24.715911310358756],[121.58841192288975,24.715837428085987],[121.58828328488343,24.716025734733556],[121.58833703942288,24.715911310358756]],[[121.58865466018449,24.715597936195877],[121.58969477919071,24.715038965276054],[121.58857147914757,24.715680005099923],[121.58865466018449,24.715597936195877]],[[121.59507680794843,24.708877445537723],[121.59518485302516,24.708823821195615],[121.59442530488401,24.709667292211794],[121.59507680794843,24.708877445537723]],[[121.59584267330082,24.708576158263163],[121.59692232110831,24.707961490530405],[121.5969984472216,24.707943792909106],[121.59584267330082,24.708576158263163]],[[121.62617974759733,24.68724550467635],[121.62677313197457,24.687180606899517],[121.62604963889412,24.687335728159454],[121.62617974759733,24.68724550467635]],[[121.63037895350531,24.689154488925553],[121.63023866138519,24.689118614432573],[121.62962589212135,24.688595202706498],[121.63037895350531,24.689154488925553]],[[121.63047426689913,24.689125827273497],[121.63048329496814,24.689181170374756],[121.63044204677429,24.689170622682976],[121.63047426689913,24.689125827273497]],[[121.62992129650266,24.687588763237457],[121.63010023593722,24.687756238659514],[121.63033705621025,24.688284709971413],[121.62992129650266,24.687588763237457]],[[121.6281101432686,24.686203944956155],[121.62943253608273,24.687131315957515],[121.62960047986172,24.687288500176514],[121.6281101432686,24.686203944956155]],[[121.62712941017925,24.684669923226704],[121.6272002227122,24.684719939473666],[121.6281101432686,24.686203944956155],[121.62712941017925,24.684669923226704]],[[121.62562947941706,24.68399241761603],[121.6268178588572,24.68444986856662],[121.62706863729937,24.684626998178803],[121.62562947941706,24.68399241761603]],[[121.623228605216,24.681774735315855],[121.62384105611989,24.682243843278794],[121.62562947941706,24.68399241761603],[121.623228605216,24.681774735315855]],[[121.63527145911064,24.68265284865009],[121.63538383813511,24.682679222145033],[121.63352463755201,24.682468039768256],[121.63527145911064,24.68265284865009]],[[121.63743856623694,24.683275682227016],[121.63746595943935,24.683300724928998],[121.63691665637862,24.683038949188184],[121.63743856623694,24.683275682227016]],[[121.71413436281068,24.699499433951758],[121.71498963246563,24.69982309186224],[121.7140891762943,24.699519181436276],[121.71413436281068,24.699499433951758]],[[121.72615632995074,24.703228002470382],[121.72731987371323,24.703807050754847],[121.72608986522542,24.703211597069334],[121.72615632995074,24.703228002470382]],[[121.74073909143601,24.70952254273123],[121.73878654781247,24.70881618895346],[121.74218678992949,24.710085811178757],[121.74073909143601,24.70952254273123]],[[121.74652872667558,24.718175835526576],[121.74639844683088,24.71808479457764],[121.74581645416606,24.717303918640994],[121.74652872667558,24.718175835526576]],[[121.74752512378552,24.718474513987704],[121.7467811470324,24.718352229571792],[121.74664598143585,24.718257774407196],[121.74752512378552,24.718474513987704]],[[121.74967015742205,24.71816025345352],[121.7492989259048,24.718240195628596],[121.74752512378552,24.718474513987704],[121.74967015742205,24.71816025345352]],[[121.75579574078085,24.7169763010155],[121.75674202073442,24.716859695845113],[121.75354784036062,24.717325220882287],[121.75579574078085,24.7169763010155]],[[121.75747849913354,24.71676894343204],[121.76023501203623,24.716725535854838],[121.7571998841799,24.71680327570762],[121.75747849913354,24.71676894343204]],[[121.76086124464676,24.716590152313877],[121.76080914012982,24.716608306528194],[121.76023501203623,24.716725535854838],[121.76086124464676,24.716590152313877]],[[121.76314477103037,24.715571099723682],[121.76311783472033,24.71560293912438],[121.76224451477265,24.716108194437652],[121.76314477103037,24.715571099723682]],[[121.76481920094547,24.713701562776972],[121.76487924636146,24.713686691935166],[121.76476688950135,24.713761441027707],[121.76481920094547,24.713701562776972]],[[121.7660246836923,24.713403013038654],[121.76696834936931,24.713368963087675],[121.76553620352165,24.713523989989596],[121.7660246836923,24.713403013038654]],[[121.81170439624101,24.711909340743542],[121.81189978999276,24.711931584437252],[121.81131911719336,24.711937868448736],[121.81170439624101,24.711909340743542]],[[121.81251869728008,24.71200204106139],[121.81481996257129,24.71292135233858],[121.81236983792104,24.71198509485939],[121.81251869728008,24.71200204106139]],[[121.73605548966917,24.620016733685357],[121.73528484891678,24.620648309571884],[121.73606510197463,24.62000224251477],[121.73605548966917,24.620016733685357]],[[121.73786784248247,24.61625306119548],[121.73725300262402,24.616652998537123],[121.7378356652838,24.616235871388422],[121.73786784248247,24.61625306119548]],[[121.73841651311169,24.616636183912817],[121.73798752116451,24.616316996327757],[121.74066066785565,24.617745053391562],[121.73841651311169,24.616636183912817]],[[121.74143943937872,24.61879769096071],[121.7414139637231,24.61876325642965],[121.74148599030316,24.618814484487753],[121.74143943937872,24.61879769096071]],[[121.7426520879236,24.618904270515714],[121.74277238711979,24.618966655256518],[121.7416045052129,24.618857239456986],[121.7426520879236,24.618904270515714]],[[121.74431347658573,24.62021878257082],[121.7436457056848,24.6194195406793],[121.74433938728471,24.620222183690114],[121.74431347658573,24.62021878257082]],[[121.74457215398185,24.62025273737396],[121.7444456203776,24.620236128177762],[121.74464694860505,24.620193796682717],[121.74457215398185,24.62025273737396]],[[121.7451864480848,24.619768652857033],[121.74478517391422,24.620084870466926],[121.74495498008834,24.619895082392187],[121.7451864480848,24.619768652857033]],[[121.7455731911499,24.61946388624937],[121.74555345114918,24.619479442037193],[121.74568461175546,24.619045778839677],[121.7455731911499,24.61946388624937]],[[121.74677941415234,24.60691543283345],[121.74663668263689,24.60703609284144],[121.7467444852698,24.606902812414887],[121.74677941415234,24.60691543283345]],[[121.75449172074906,24.616296253944256],[121.75318472649393,24.616937088975533],[121.75431088274115,24.616299710663156],[121.75449172074906,24.616296253944256]],[[121.75498207286444,24.61657021684209],[121.75452527227368,24.616295612606788],[121.75459039473095,24.616294367790886],[121.75498207286444,24.61657021684209]],[[121.75644982579888,24.618297881042448],[121.75644769309515,24.618279802198842],[121.75653982537077,24.618429904306577],[121.75644982579888,24.618297881042448]],[[121.75805288785196,24.61914000955416],[121.75701240749663,24.619123150213284],[121.75698487242471,24.619082758131455],[121.75805288785196,24.61914000955416]],[[121.75926708520787,24.618943346957963],[121.7582703429523,24.619104788521614],[121.75933077209409,24.6189045884077],[121.75926708520787,24.618943346957963]],[[121.75980153611205,24.61861809095216],[121.75952224165178,24.618788063909218],[121.76066637275495,24.61769575255698],[121.75980153611205,24.61861809095216]],[[121.76684185932174,24.61412439841713],[121.76646273087043,24.614515747104118],[121.76675659334218,24.614159318797586],[121.76684185932174,24.61412439841713]],[[121.76878340263204,24.61398006412872],[121.76686478202181,24.614115010506367],[121.76703673935413,24.614044585988886],[121.76878340263204,24.61398006412872]],[[121.77273874842889,24.611633230291304],[121.77249173331913,24.611739378504947],[121.77256964197547,24.611685318023035],[121.77273874842889,24.611633230291304]],[[121.77450361964635,24.611432491616252],[121.77304348074044,24.611539367434062],[121.77321865301849,24.611485411322743],[121.77450361964635,24.611432491616252]],[[121.78665857223542,24.601931996864206],[121.78637821578207,24.603160850293076],[121.78664861919734,24.60158930737704],[121.78665857223542,24.601931996864206]],[[121.78816450228999,24.601047109836315],[121.78669944808472,24.601293897728457],[121.786704550075,24.60126424574838],[121.78816450228999,24.601047109836315]],[[121.78943412633976,24.601164938811053],[121.78940107100266,24.601188529127338],[121.78816450228999,24.601047109836315],[121.78943412633976,24.601164938811053]],[[121.7933979812011,24.599239520665737],[121.79328422671978,24.599263020946623],[121.79334488505845,24.59922821660893],[121.7933979812011,24.599239520665737]],[[121.79480597956523,24.599907061244675],[121.79404205030038,24.599376641618782],[121.79463105138201,24.599714087934846],[121.79480597956523,24.599907061244675]],[[121.7960987035924,24.60162854761944],[121.79600955023362,24.60147821228669],[121.796248429021,24.60176189272954],[121.7960987035924,24.60162854761944]],[[121.79664062786277,24.60211118408392],[121.79651971240382,24.60200349706417],[121.79675611285758,24.60212947026291],[121.79664062786277,24.60211118408392]],[[121.79782709084759,24.60229905156001],[121.79738208968135,24.602228588977503],[121.79826553349993,24.602270359029355],[121.79782709084759,24.60229905156001]],[[121.82442942472859,24.640284505325862],[121.82448443615853,24.640035304283302],[121.8244629162307,24.640254763146853],[121.82442942472859,24.640284505325862]],[[121.82368902263035,24.64061588141783],[121.8237119680252,24.640612817327945],[121.82343711173338,24.640843114018534],[121.82368902263035,24.64061588141783]],[[121.81371641068034,24.651239788376657],[121.81399923407741,24.6515289404083],[121.81420122044611,24.651798600323968],[121.81371641068034,24.651239788376657]],[[121.81443819122774,24.652228330934083],[121.8144476031888,24.65212753118232],[121.81447185838965,24.65215991284975],[121.81443819122774,24.652228330934083]],[[121.81808587756132,24.655619222549145],[121.81776708318444,24.65545205656718],[121.81810371498385,24.655582536582244],[121.81808587756132,24.655619222549145]],[[121.81841526954905,24.654941766849106],[121.81823046626833,24.65532184906295],[121.81856840970444,24.654150001921092],[121.81841526954905,24.654941766849106]],[[121.62189207311322,24.681542657748118],[121.62281766202045,24.681626299944522],[121.6220178677305,24.681610598250586],[121.62189207311322,24.681542657748118]],[[121.62148632460223,24.68130424518749],[121.6216126530931,24.68139174559483],[121.62151018244901,24.681336402153303],[121.62148632460223,24.68130424518749]],[[121.61525223380364,24.67597621163293],[121.6155408208523,24.6762316649594],[121.61522044769683,24.675964974167584],[121.61525223380364,24.67597621163293]],[[121.61061876924089,24.67324604976545],[121.61158610701331,24.674083714292014],[121.610592493187,24.673241918657492],[121.61061876924089,24.67324604976545]],[[121.58816481115717,24.66112819870744],[121.59073786972382,24.663397301913978],[121.59067524346779,24.663374731258898],[121.58816481115717,24.66112819870744]],[[121.56486413117632,24.643646556555268],[121.56496605455922,24.64385951429989],[121.56489579300649,24.643761794471285],[121.56486413117632,24.643646556555268]],[[121.56455281765852,24.641909814286578],[121.56466644455557,24.64292704684672],[121.56463521444368,24.64281338023335],[121.56455281765852,24.641909814286578]],[[121.56643999575041,24.6405097180035],[121.56569615185595,24.64075672694145],[121.56622667452143,24.640529314476332],[121.56643999575041,24.6405097180035]],[[121.56740927581745,24.640715624326678],[121.56663708929115,24.6404916122658],[121.56669395865936,24.640486388036436],[121.56740927581745,24.640715624326678]],[[121.56851957480798,24.64144110033157],[121.5684161918539,24.641405464590544],[121.56740927581745,24.640715624326678],[121.56851957480798,24.64144110033157]],[[121.65960614600694,24.638216137664692],[121.65958979974889,24.638202049581608],[121.65974895659829,24.63814869729114],[121.65960614600694,24.638216137664692]],[[121.65995787715441,24.63805003737934],[121.65994015923341,24.638058404428307],[121.65998207888401,24.63802163181423],[121.65995787715441,24.63805003737934]],[[121.66918915784255,24.635952661468416],[121.66900120086896,24.636018460861223],[121.66907343688968,24.635973322910555],[121.66918915784255,24.635952661468416]],[[121.67061631469119,24.635952265284857],[121.66935685637095,24.635922719670027],[121.6697172129791,24.635858379660533],[121.67061631469119,24.635952265284857]],[[121.67182436949906,24.635740900322332],[121.67216748154975,24.63576895797942],[121.67061631469119,24.635952265284857],[121.67182436949906,24.635740900322332]],[[121.67704426565723,24.63705568100493],[121.67645598955234,24.637677386202476],[121.67697776271359,24.637074372784124],[121.67704426565723,24.63705568100493]],[[121.67793807352756,24.63683396414549],[121.67745890682129,24.636939139079725],[121.67787942389634,24.636820945630177],[121.67793807352756,24.63683396414549]],[[121.6787448340463,24.637024074646977],[121.67846435508298,24.636950783370896],[121.67870385759706,24.637003945975376],[121.6787448340463,24.637024074646977]],[[121.6796960283491,24.63754557346948],[121.67887841040181,24.637089690742098],[121.67981885934077,24.63755166312339],[121.6796960283491,24.63754557346948]],[[121.68011999617529,24.635944800026387],[121.68015364117764,24.63669063026845],[121.68006224487681,24.636104088832663],[121.68011999617529,24.635944800026387]],[[121.6802197829563,24.635749698896177],[121.68016025476092,24.635833759370815],[121.68018073415364,24.635777273402475],[121.6802197829563,24.635749698896177]],[[121.68363204396738,24.631870077268605],[121.68209309841781,24.63377080767668],[121.68357364151042,24.631892025896324],[121.68363204396738,24.631870077268605]],[[121.72446339217186,24.61821409480467],[121.72440999577466,24.618239542686755],[121.724471442865,24.61816918257981],[121.72446339217186,24.61821409480467]],[[121.72564875888315,24.61938983697143],[121.72482158584762,24.618445207980017],[121.72571027711147,24.619415064340483],[121.72564875888315,24.61938983697143]],[[121.72724467796394,24.62004429079304],[121.72663974385426,24.619796219669222],[121.727215178238,24.62001331176498],[121.72724467796394,24.62004429079304]],[[121.72781698476614,24.6206253849536],[121.72779213433786,24.620597358527284],[121.72799604506203,24.620695725717432],[121.72781698476614,24.6206253849536]],[[121.72839310485801,24.62085170384313],[121.7283001824814,24.6208152008824],[121.73119553354705,24.620892950349454],[121.72839310485801,24.62085170384313]],[[121.73262255258872,24.62144200264634],[121.73281072925771,24.621462621383884],[121.73191656387634,24.62155648519589],[121.73262255258872,24.62144200264634]],[[121.79731319035149,24.600508433917124],[121.79828928103716,24.59954938287951],[121.79825067692731,24.59965951707312],[121.79731319035149,24.600508433917124]],[[121.84958391743447,24.538014925093005],[121.84968635869994,24.5379734433277],[121.84965828849931,24.538036438930593],[121.84958391743447,24.538014925093005]],[[121.8497553747605,24.537818556356918],[121.84972978326907,24.53770153419815],[121.84978532673153,24.537751337654186],[121.8497553747605,24.537818556356918]],[[121.44238749988992,24.402567021799285],[121.44240227326296,24.402600518780144],[121.44238831287043,24.402576868727575],[121.44238749988992,24.402567021799285]],[[121.44287644042876,24.403403796937464],[121.44331082798901,24.40409944354841],[121.44327490051627,24.404078821080756],[121.44287644042876,24.403403796937464]],[[121.45777097144133,24.413928251982615],[121.45789094141388,24.41399525587639],[121.45795072562468,24.414142583901572],[121.45777097144133,24.413928251982615]],[[121.45808319242715,24.41446902581915],[121.45815773788934,24.41465273043923],[121.45810392476196,24.419040715637674],[121.45808319242715,24.41446902581915]],[[121.45810739835125,24.419806677258816],[121.45820057949285,24.421111246602365],[121.45810812768798,24.419967503397626],[121.45810739835125,24.419806677258816]],[[121.4582872867952,24.422183923204067],[121.45829070714866,24.422199673722538],[121.45828815577384,24.422194673545388],[121.4582872867952,24.422183923204067]],[[121.48303818736245,24.452055973204665],[121.4840026207885,24.452909558341062],[121.4838019644891,24.45279157007496],[121.48303818736245,24.452055973204665]],[[121.48436985793369,24.453125498105393],[121.48490954505878,24.453323638098897],[121.48457327523647,24.45324510987399],[121.48436985793369,24.453125498105393]],[[121.48622260777408,24.453630274250546],[121.4868554587125,24.45375656151617],[121.4869214894423,24.453793482285246],[121.48622260777408,24.453630274250546]],[[121.49300612825523,24.456249006277247],[121.49303894529113,24.456261712108354],[121.49328348264669,24.456783840501885],[121.49300612825523,24.456249006277247]],[[121.49384936266199,24.457394149929726],[121.49380525850597,24.45738011260215],[121.49328348264669,24.456783840501885],[121.49384936266199,24.457394149929726]],[[121.49513318754668,24.458024169280062],[121.49567948971674,24.458110332425967],[121.49620705249413,24.458338417858823],[121.49513318754668,24.458024169280062]],[[121.4964567210827,24.458411479186797],[121.49742796118183,24.45813808608954],[121.49649994032008,24.45842412657225],[121.4964567210827,24.458411479186797]],[[121.49868730522284,24.457783594992847],[121.49875345430847,24.457764974773795],[121.49950525246551,24.457955086058405],[121.49868730522284,24.457783594992847]],[[121.50036318501306,24.45781835942978],[121.50094651277867,24.457847757973166],[121.49950525246551,24.457955086058405],[121.50036318501306,24.45781835942978]],[[121.5009631581409,24.45784859686587],[121.5010836885615,24.457854671356067],[121.50222962809492,24.458559646310672],[121.5009631581409,24.45784859686587]],[[121.58780845211653,24.470673051175346],[121.58854896646164,24.470541727618695],[121.58782065499928,24.470681291608344],[121.58780845211653,24.470673051175346]],[[121.61785141124872,24.462831222487136],[121.61789441319674,24.4628550143475],[121.6178932722947,24.462879840819138],[121.61785141124872,24.462831222487136]],[[121.6178555532949,24.463700620918086],[121.61784000601153,24.46403893584823],[121.61761522046608,24.465198796887027],[121.6178555532949,24.463700620918086]],[[121.61870933518775,24.46671897054164],[121.61831097916844,24.46625727825085],[121.61761522046608,24.465198796887027],[121.61870933518775,24.46671897054164]],[[121.61883576456916,24.466865501453444],[121.6197768723049,24.466577309195486],[121.61885336389173,24.46688589896513],[121.61883576456916,24.466865501453444]],[[121.62051661415047,24.466709257726105],[121.62051936481146,24.466712415045194],[121.6197768723049,24.466577309195486],[121.62051661415047,24.466709257726105]],[[121.62076114223133,24.466989936870803],[121.62088597991793,24.46713323057752],[121.62084746933533,24.467105275088436],[121.62076114223133,24.466989936870803]],[[121.62101563692558,24.4672273508119],[121.6214283630286,24.467472327985604],[121.62143275571091,24.467530144456124],[121.62101563692558,24.4672273508119]],[[121.73506413550149,24.591580501538942],[121.73459676602121,24.591785483957285],[121.73471191872011,24.591696680457456],[121.73506413550149,24.591580501538942]],[[121.73435061233452,24.591975312846095],[121.73405645539309,24.592253270056545],[121.73410901591842,24.59216162725732],[121.73435061233452,24.591975312846095]],[[121.72437450048291,24.606881587515318],[121.72387436350692,24.608014662571385],[121.7238703989998,24.607872466840938],[121.72437450048291,24.606881587515318]],[[121.75046212849759,24.684795504770076],[121.75048241764081,24.684419644857403],[121.75050799244991,24.684776330563242],[121.75046212849759,24.684795504770076]],[[121.75046028146501,24.6841109169428],[121.75015901682526,24.68334926115955],[121.75045554398821,24.684044844494053],[121.75046028146501,24.6841109169428]],[[121.74931994755764,24.682091122207567],[121.74930572345028,24.682052751678572],[121.75015901682526,24.68334926115955],[121.74931994755764,24.682091122207567]],[[121.74920485927424,24.681780663477113],[121.74860733466083,24.68016879885101],[121.74860454974822,24.680059433168996],[121.74920485927424,24.681780663477113]],[[121.7485726956416,24.67880849765092],[121.74856445048908,24.678484704105863],[121.74857180857332,24.67847687957284],[121.7485726956416,24.67880849765092]],[[121.8011579926473,24.668394384493293],[121.80120226771663,24.67006377139782],[121.80116042801137,24.670042877776666],[121.8011579926473,24.668394384493293]],[[121.80133968386211,24.670132393317335],[121.80187917946247,24.67026845738346],[121.80155131204344,24.670238074727422],[121.80133968386211,24.670132393317335]],[[121.80704859483829,24.67236408242249],[121.80782944126459,24.672369739156334],[121.80708487566653,24.672386801509727],[121.80704859483829,24.67236408242249]],[[121.80831277941125,24.67237324063262],[121.8089158728693,24.67263430572865],[121.80824841150948,24.672372774328267],[121.80831277941125,24.67237324063262]],[[121.81096471202261,24.672504630789238],[121.80949064937408,24.67269973860209],[121.80937393614902,24.672686451904354],[121.81096471202261,24.672504630789238]],[[121.81191828687564,24.671533233268928],[121.81241187310955,24.670340297067128],[121.81196271031091,24.67146993009322],[121.81191828687564,24.671533233268928]],[[121.81304335391343,24.669221312295146],[121.81304258830765,24.669159840310186],[121.81306089134716,24.669190235940675],[121.81304335391343,24.669221312295146]],[[121.81156092289837,24.663538837747236],[121.81182222811344,24.662831449012227],[121.81190542338504,24.662728682091537],[121.81156092289837,24.663538837747236]],[[121.81263139835404,24.66183192184746],[121.81290778954641,24.661490509755158],[121.81287502845989,24.661545964374795],[121.81263139835404,24.66183192184746]],[[121.81311917939023,24.661132690628268],[121.81343830319202,24.66055000419334],[121.8133800499494,24.660691115602557],[121.81311917939023,24.661132690628268]],[[121.81379016937619,24.659697651073095],[121.81388381590287,24.659418250810667],[121.81386998171435,24.659504315371926],[121.81379016937619,24.659697651073095]],[[121.81395679007416,24.658964267549035],[121.81396089068842,24.6587639440856],[121.81397854697242,24.65882891462274],[121.81395679007416,24.658964267549035]],[[121.81390080154105,24.658542831637167],[121.81262768432022,24.657305087160065],[121.81386045789385,24.658394377498546],[121.81390080154105,24.658542831637167]],[[121.8125260348487,24.653580281404906],[121.81221697828352,24.652452781092084],[121.81225316075484,24.652487911787773],[121.8125260348487,24.653580281404906]],[[121.81162417061545,24.651877205543194],[121.81144362252519,24.651716511108127],[121.81143425968891,24.651692815071073],[121.81162417061545,24.651877205543194]],[[121.81138217787685,24.651561003244826],[121.81131567867568,24.65139270301091],[121.81136433904996,24.651387348345697],[121.81138217787685,24.651561003244826]],[[121.81198332816814,24.65131923379567],[121.8133768078934,24.650892586423765],[121.81340125945222,24.65091758512606],[121.81198332816814,24.65131923379567]],[[121.7452884640744,24.71172202349886],[121.74747163750611,24.712649560129144],[121.74592858073947,24.71206424357001],[121.7452884640744,24.71172202349886]],[[121.75924371992176,24.711106453899784],[121.7604103348872,24.710976852643036],[121.76027857339751,24.711013771568332],[121.75924371992176,24.711106453899784]],[[121.76074959397573,24.710881793904896],[121.76148565174853,24.710610753801543],[121.76140249842662,24.710698853269488],[121.76074959397573,24.710881793904896]],[[121.76154720193514,24.71054554247185],[121.76163239931589,24.710309171631025],[121.76167731955275,24.710407685166608],[121.76154720193514,24.71054554247185]],[[121.75657561037623,24.70580580659276],[121.75531637605002,24.70356254487558],[121.75669936300724,24.705947952086078],[121.75657561037623,24.70580580659276]],[[121.75488316632516,24.702256108732456],[121.75485635249406,24.702077486677513],[121.75531637605002,24.70356254487558],[121.75488316632516,24.702256108732456]],[[121.75474537288501,24.70133818889718],[121.7546932870656,24.700991215871962],[121.75460456984511,24.697759658581443],[121.75474537288501,24.70133818889718]],[[121.75383832019709,24.694312699544785],[121.75370890724163,24.693886198586572],[121.75374465249378,24.69389133721552],[121.75383832019709,24.694312699544785]],[[121.75271039727717,24.693742655824884],[121.75239583147764,24.693708829446933],[121.75243966335982,24.693703735938694],[121.75271039727717,24.693742655824884]],[[121.68225282654544,24.63819564700088],[121.68214331476223,24.638187566203275],[121.68210172331996,24.638157344107388],[121.68225282654544,24.63819564700088]],[[121.70106220789272,24.641481025822642],[121.70095771652541,24.641530070156644],[121.70090221731095,24.641527645972896],[121.70106220789272,24.641481025822642]],[[121.70136060290953,24.64139407557616],[121.70198665965667,24.642473208971467],[121.70132600728931,24.641404156500883],[121.70136060290953,24.64139407557616]],[[121.70316319052894,24.65078725422847],[121.70316344935732,24.650818544955474],[121.70257406893826,24.650342508000392],[121.70316319052894,24.65078725422847]],[[121.70316745511401,24.651302815772393],[121.70311830831145,24.651369110663566],[121.70316549382613,24.65106570838899],[121.70316745511401,24.651302815772393]],[[121.70287016892327,24.651703829767992],[121.70170493263663,24.65264970881708],[121.70302284150175,24.651497887337353],[121.70287016892327,24.651703829767992]],[[121.69589009806447,24.654319051206045],[121.69591507482096,24.654286565772452],[121.69834428126366,24.654232377122582],[121.69589009806447,24.654319051206045]],[[121.69538681779406,24.65502144184878],[121.69542579236646,24.65492293954208],[121.69574773042406,24.654504218344467],[121.69538681779406,24.65502144184878]],[[121.69524363468611,24.658438341756092],[121.69468128813162,24.657912167756084],[121.69527260932438,24.658444568538112],[121.69524363468611,24.658438341756092]],[[121.69563534712857,24.65845757682023],[121.69554216643792,24.658502497592224],[121.69538034100881,24.658467720568847],[121.69563534712857,24.65845757682023]],[[121.69701788107047,24.657754387554967],[121.69705199353508,24.657774636505216],[121.69597767178956,24.65829254812235],[121.69701788107047,24.657754387554967]],[[121.69751094067749,24.658047064720332],[121.69751032559769,24.658072929404646],[121.69732659907162,24.6579376406712],[121.69751094067749,24.658047064720332]],[[121.75110684491861,24.693843558712363],[121.75099271624096,24.693856538848248],[121.75028628798192,24.693420814618943],[121.75110684491861,24.693843558712363]],[[121.76314276567646,24.6926994763025],[121.7631412728515,24.692675758679343],[121.76358140915477,24.692303030160755],[121.76314276567646,24.6926994763025]],[[121.7648276977401,24.697787275862144],[121.76482584467723,24.697828386458276],[121.76444356581796,24.696894992809742],[121.7648276977401,24.697787275862144]],[[121.76481505866809,24.69806767638221],[121.76473052675703,24.69814864252468],[121.76482108303315,24.69793402455286],[121.76481505866809,24.69806767638221]],[[121.76368730612433,24.699147857487674],[121.76407850132183,24.69868049151154],[121.7644817838567,24.698386892823958],[121.76368730612433,24.699147857487674]],[[121.76178551430706,24.70099104847998],[121.76181387980682,24.70095336070909],[121.76181994800335,24.700992155380437],[121.76178551430706,24.70099104847998]],[[121.62821860330598,24.794614972003384],[121.62660695884414,24.793932425241277],[121.62892074416817,24.794794333684894],[121.62821860330598,24.794614972003384]],[[121.6297870883573,24.795305280413075],[121.62915233059798,24.794880601973148],[121.62933439936307,24.794948424430288],[121.6297870883573,24.795305280413075]],[[121.63031669465978,24.795659608304334],[121.63013598333201,24.79553870516667],[121.63046441446174,24.79567594361875],[121.63031669465978,24.795659608304334]],[[121.63065658623248,24.79569719456993],[121.63049995959277,24.795679874309727],[121.6341101843376,24.79513853301694],[121.63065658623248,24.79569719456993]],[[121.64740956469973,24.795361218645386],[121.64658212546475,24.795215236194224],[121.64787407218017,24.795339261266875],[121.64740956469973,24.795361218645386]],[[121.6482170479784,24.79532304871975],[121.64807232691125,24.79532988971884],[121.64902780029286,24.794998719015727],[121.6482170479784,24.79532304871975]],[[121.64884051728417,24.794160837970608],[121.64881610547422,24.79425991057807],[121.64881006633154,24.794238834154893],[121.64884051728417,24.794160837970608]],[[121.64907720448362,24.793788924161536],[121.6489306635577,24.793929939928034],[121.64896010742314,24.79385452326767],[121.64907720448362,24.793788924161536]],[[121.64937429336727,24.793686878736686],[121.64922252351761,24.793707514784618],[121.64927987396707,24.79367538641003],[121.64937429336727,24.793686878736686]],[[121.6556311479592,24.793066742336347],[121.65517100263969,24.79320097964154],[121.655747465633,24.792998330578705],[121.6556311479592,24.793066742336347]],[[121.7165664893521,24.779681672770998],[121.71328162025067,24.780362956885032],[121.71689861926663,24.779570777193893],[121.7165664893521,24.779681672770998]],[[121.71774072875166,24.77928960343252],[121.7176226318739,24.779329035055024],[121.71775353746118,24.77925344343366],[121.71774072875166,24.77928960343252]],[[121.71859786607477,24.77800974750325],[121.7181420471643,24.77825191156322],[121.71815089065116,24.77822751938459],[121.71859786607477,24.77800974750325]],[[121.7222622651656,24.776515081926227],[121.72000569164689,24.77732383770325],[121.72030411494302,24.777178442231392],[121.7222622651656,24.776515081926227]],[[121.72351691597295,24.77626785347871],[121.72244009333988,24.77645483927957],[121.72248985692146,24.776437980928108],[121.72351691597295,24.77626785347871]],[[121.72347541149261,24.775223200718163],[121.72348770823356,24.77553270524062],[121.72343685562647,24.775262629067125],[121.72347541149261,24.775223200718163]],[[121.72397836385417,24.7747681392944],[121.72376214187345,24.774929981899916],[121.72389925284835,24.77478976823329],[121.72397836385417,24.7747681392944]],[[121.73367749395265,24.768528317210173],[121.73296401527718,24.769328580249805],[121.73367749395265,24.768528317210173],[121.73367749395265,24.768528317210173]],[[121.7342930039506,24.769590710834862],[121.73373513469056,24.76859359103989],[121.73394391927651,24.768830023986474],[121.7342930039506,24.769590710834862]],[[121.73469735150161,24.772645051527945],[121.73445695036658,24.769947964795676],[121.73446749917584,24.769970951598165],[121.73469735150161,24.772645051527945]],[[121.7335061732795,24.77568169831796],[121.73386567645991,24.77419581908185],[121.73353160619877,24.77564913160216],[121.7335061732795,24.77568169831796]],[[121.73185517727472,24.777397946957766],[121.73338907562298,24.775831641234927],[121.73297484940986,24.776362055664375],[121.73185517727472,24.777397946957766]],[[121.73044509833834,24.77996996789478],[121.73044728681293,24.779901557910648],[121.73185517727472,24.777397946957766],[121.73044509833834,24.77996996789478]],[[121.73521501476115,24.78298012253469],[121.7341554810919,24.783152829232478],[121.73421845801545,24.783112277010044],[121.73521501476115,24.78298012253469]],[[121.7701319846035,24.77181954043948],[121.76970819078043,24.771572883381904],[121.77035866115381,24.77185105466665],[121.7701319846035,24.77181954043948]],[[121.7705166183473,24.771873015027666],[121.7704558473273,24.77186456619727],[121.77069631256212,24.77183076604049],[121.7705166183473,24.771873015027666]],[[121.77226430865095,24.771625408286013],[121.77200232264909,24.771523702157197],[121.77229412718411,24.77158215585191],[121.77226430865095,24.771625408286013]],[[121.79168511517592,24.79397966572906],[121.79164373374707,24.793891503241042],[121.79174380718615,24.79396022390304],[121.79168511517592,24.79397966572906]],[[121.8097693330883,24.79911644127083],[121.80974059323476,24.798171132595765],[121.80975754927158,24.798191511029465],[121.8097693330883,24.79911644127083]],[[121.81703897047214,24.80833458847053],[121.81656186787006,24.80768293969623],[121.81660662139848,24.807705086420636],[121.81703897047214,24.80833458847053]],[[121.819133425867,24.807643737368608],[121.81901400164992,24.80764006294258],[121.81923913823701,24.80760803660661],[121.819133425867,24.807643737368608]],[[121.72800796929243,24.751440910969333],[121.73150996711139,24.74855818001606],[121.73277232470889,24.74761321585136],[121.72800796929243,24.751440910969333]],[[121.73444252095142,24.746362955544498],[121.73449313165281,24.746325069846137],[121.73452635193476,24.746313515125134],[121.73444252095142,24.746362955544498]],[[121.73733983486598,24.74533492589004],[121.73738908174086,24.745317796778973],[121.73748307487782,24.74530294185532],[121.73733983486598,24.74533492589004]],[[121.73974499462649,24.744945462083393],[121.74211516658171,24.744570873846783],[121.74063544546948,24.744869954185102],[121.73974499462649,24.744945462083393]],[[121.73338109116446,24.728583864154068],[121.73476734034058,24.724370148263798],[121.7347797777406,24.7243691184606],[121.73338109116446,24.728583864154068]],[[121.73492114449859,24.72435741344669],[121.73507150634498,24.72434496364923],[121.73527903347457,24.72443645300856],[121.73492114449859,24.72435741344669]],[[121.73583762660536,24.724682711547242],[121.7359891574737,24.72474951467842],[121.73601125786647,24.724774281037266],[121.73583762660536,24.724682711547242]],[[121.76008535765324,24.719873569509677],[121.76102155874305,24.719175572773636],[121.76100777968531,24.71919904290155],[121.76008535765324,24.719873569509677]],[[121.7612459832224,24.71879330634184],[121.761382102702,24.71853172076237],[121.76141220681968,24.71851017456583],[121.7612459832224,24.71879330634184]],[[121.76197654478376,24.718069084898932],[121.76200450870361,24.71797911882074],[121.76201337371833,24.718042454495727],[121.76197654478376,24.718069084898932]],[[121.76198656940285,24.717850952341944],[121.76167009170149,24.717224889816862],[121.76196521142538,24.717698361290385],[121.76198656940285,24.717850952341944]],[[121.77072207836125,24.76997163508292],[121.77119327005346,24.768835480173323],[121.7707432012097,24.769989126097002],[121.77072207836125,24.76997163508292]],[[121.77237858910063,24.76663497762217],[121.7724045066694,24.76664064305395],[121.77236529566294,24.766659656415328],[121.77237858910063,24.76663497762217]],[[121.77392487982947,24.767699192164056],[121.77286141900703,24.766740521468506],[121.7740066158984,24.767736864439335],[121.77392487982947,24.767699192164056]],[[121.77583483409418,24.768268264256555],[121.77439752482599,24.767917034943252],[121.77404887911784,24.7677563436198],[121.77583483409418,24.768268264256555]],[[121.77642322435237,24.768436918628932],[121.77677684407614,24.768644936314786],[121.77615531222126,24.768360125120378],[121.77642322435237,24.768436918628932]],[[121.78587178640143,24.763614181649555],[121.78572926679227,24.763893009454872],[121.78569684390096,24.763883471526604],[121.78587178640143,24.763614181649555]],[[121.77570506893382,24.73548612758276],[121.77544647697334,24.732557391810246],[121.7757254987539,24.73551410041095],[121.77570506893382,24.73548612758276]],[[121.77470892677559,24.856285095480814],[121.77564595868364,24.856211071719095],[121.77535068298768,24.85630863073879],[121.77470892677559,24.856285095480814]],[[121.77598439271613,24.856184336065848],[121.77673331818264,24.856125172359892],[121.7766922340594,24.856200677019675],[121.77598439271613,24.856184336065848]],[[121.77629800046022,24.854880104563886],[121.77680160960664,24.855999665951856],[121.77677654430943,24.856045731112584],[121.77629800046022,24.854880104563886]],[[121.77875905644929,24.84487133902459],[121.77877704332593,24.844828622942654],[121.77955157454561,24.84459717701816],[121.77875905644929,24.84487133902459]],[[121.81863641823622,24.831906405656127],[121.81941739399758,24.83044917478963],[121.81999695092114,24.829608779293668],[121.81863641823622,24.831906405656127]],[[121.82024841831837,24.829184108774857],[121.82044355282778,24.82850789282503],[121.8203656877264,24.828986067752854],[121.82024841831837,24.829184108774857]],[[121.82028561714102,24.828004191129327],[121.8203306636293,24.828087900436284],[121.82044355282778,24.82850789282503],[121.82028561714102,24.828004191129327]],[[121.81967370437805,24.826867081550628],[121.81839102922267,24.825576800828745],[121.81783491485191,24.824874603645178],[121.81967370437805,24.826867081550628]],[[121.81731285422924,24.82421540561293],[121.81710939907954,24.823958505880398],[121.81673464189012,24.823326863406546],[121.81731285422924,24.82421540561293]],[[121.81520921801065,24.82075580529176],[121.81487551279474,24.82019335473956],[121.81473768421024,24.81987393341501],[121.81520921801065,24.82075580529176]],[[121.8143130534047,24.818889840493796],[121.81420663752635,24.81798947343549],[121.81421555751318,24.817949327420923],[121.8143130534047,24.818889840493796]],[[121.81426907271546,24.81770847257081],[121.8143605034345,24.817296972077653],[121.81445064767713,24.817116337811715],[121.81426907271546,24.81770847257081]],[[121.8147204834116,24.81657563129063],[121.81641124818066,24.813187616215544],[121.81602964964873,24.814128522013732],[121.8147204834116,24.81657563129063]],[[121.81592078820171,24.811159813624236],[121.8158519624982,24.811041951624816],[121.81584089415024,24.810855049650513],[121.81592078820171,24.811159813624236]],[[121.81581686990295,24.810449372192636],[121.81580647209104,24.810273793001212],[121.81590260926119,24.810136729016488],[121.81581686990295,24.810449372192636]],[[121.81598994252694,24.810012216870135],[121.816075939553,24.80988960981767],[121.81689840463775,24.809213391584816],[121.81598994252694,24.810012216870135]],[[121.81706117496533,24.808802566904284],[121.81706435743422,24.808869640121824],[121.81689840463775,24.809213391584816],[121.81706117496533,24.808802566904284]],[[121.75682492493036,24.851376747738747],[121.75748898702716,24.850715150683698],[121.75758944095476,24.850698831620484],[121.75682492493036,24.851376747738747]],[[121.75814955342251,24.850607839550932],[121.75822372054836,24.85059579086311],[121.75824114908097,24.850603239431333],[121.75814955342251,24.850607839550932]],[[121.76938876761622,24.85569847304466],[121.77042981668274,24.855766744239926],[121.76941331657132,24.855724969831552],[121.76938876761622,24.85569847304466]],[[121.77404353405181,24.85655320050724],[121.772856673197,24.856573270639956],[121.7728399457367,24.856553435373733],[121.77404353405181,24.85655320050724]]],[[[121.96494846819736,24.84048581746657],[121.96450943626157,24.83780619749808],[121.9614801329019,24.835279604370264],[121.95706752834383,24.836817378519246],[121.94572854773433,24.835515250128765],[121.9402280512836,24.838564432102878],[121.93441895696935,24.84672873034668],[121.94333685201423,24.84460935563732],[121.94753840637249,24.8512458945824],[121.95306712444835,24.851417593147463],[121.95810208594253,24.849447540971305],[121.96033395324946,24.843002640359597],[121.96494846819736,24.84048581746657]]],[[[123.47161991762516,25.738257357690937],[123.47159351982509,25.738306243938037],[123.47163512156364,25.738315618471063],[123.47161991762516,25.738257357690937]]],[[[123.45812228711395,25.7389599800191],[123.45804548141393,25.738891072165302],[123.45809510420577,25.738962954077117],[123.45812228711395,25.7389599800191]]],[[[123.47485359281917,25.739388550141538],[123.47484767797802,25.739445143578564],[123.47489611816137,25.739444426818924],[123.47485359281917,25.739388550141538]]],[[[123.45789091943051,25.73941721423313],[123.45788191631745,25.739461450985228],[123.45797284766888,25.739497107305677],[123.45789091943051,25.73941721423313]]],[[[123.47573061077914,25.739988442912367],[123.47569743838619,25.7400169046565],[123.47574572568477,25.740034581730637],[123.47573061077914,25.739988442912367]]],[[[123.47543139194522,25.74006795197448],[123.4755027630422,25.74012647175931],[123.47553866577688,25.74006168100181],[123.47543139194522,25.74006795197448]]],[[[123.47629336154942,25.74011839584733],[123.47619805859358,25.740141304277813],[123.47622340148882,25.74019783566166],[123.47629336154942,25.74011839584733]]],[[[123.47631533378569,25.740201441943043],[123.47627405310517,25.740282893540783],[123.4763153005108,25.740295138709712],[123.47631533378569,25.740201441943043]]],[[[123.47637419261491,25.74034243045884],[123.47652514741765,25.74030739287195],[123.4764055825517,25.740210987347208],[123.47637419261491,25.74034243045884]]],[[[123.4827253775742,25.74031765503582],[123.48268489639086,25.740372877006735],[123.48278182442174,25.740376141545767],[123.4827253775742,25.74031765503582]]],[[[123.48117793751193,25.740484142029572],[123.48115258832138,25.74054340195647],[123.48120104019587,25.740548594642004],[123.48117793751193,25.740484142029572]]],[[[123.48108291424514,25.750165036287456],[123.48960269740667,25.748227082713754],[123.49372888767812,25.744277258488754],[123.49392773317845,25.742235274038702],[123.4886321103836,25.74018776954995],[123.47721843658165,25.741266713188335],[123.47450850856092,25.73987268307792],[123.47399697238247,25.738126674506475],[123.47228223323852,25.73893492310828],[123.46445578060981,25.734909878688025],[123.45940590116152,25.7356431822871],[123.4578776328466,25.740666787142573],[123.46030512428217,25.744714725604123],[123.46517978971555,25.74802603027711],[123.47647194442472,25.751919735907162],[123.48108291424514,25.750165036287456]]],[[[123.46637795647757,25.74902319586385],[123.46639869304535,25.749096529281474],[123.46645227375346,25.749090110820024],[123.46637795647757,25.74902319586385]]],[[[123.48441431067192,25.749782081577845],[123.48442383359317,25.749843663554262],[123.48447684592975,25.749843579018034],[123.48441431067192,25.749782081577845]]],[[[123.48756374816855,25.75021607641082],[123.48756357100207,25.75010685644634],[123.48746322374882,25.750203311433722],[123.48756374816855,25.75021607641082]]],[[[123.47982964062543,25.75085123159909],[123.47974746597288,25.75081204813756],[123.47975988111364,25.75087584964081],[123.47982964062543,25.75085123159909]]],[[[123.55576034616307,25.721113685847964],[123.5558254094152,25.721349425135877],[123.55596101908577,25.72114790235383],[123.55576034616307,25.721113685847964]]],[[[123.5563273165525,25.7222052613638],[123.55654559999948,25.722078571169167],[123.55633930271678,25.721976387500316],[123.5563273165525,25.7222052613638]]],[[[123.55630466802609,25.72233356494212],[123.55630270210804,25.722439017646593],[123.5564425520822,25.72241780174022],[123.55630466802609,25.72233356494212]]],[[[123.54333794598949,25.722513071421133],[123.54333945325324,25.72254731670534],[123.54337254470727,25.722558076194336],[123.54333794598949,25.722513071421133]]],[[[123.54335388467406,25.722626895015257],[123.54330334547308,25.722644869764963],[123.54333419851444,25.722682537868874],[123.54335388467406,25.722626895015257]]],[[[123.54290153647675,25.722805286334964],[123.54301851129539,25.72277484608236],[123.5429154247072,25.722768555324595],[123.54290153647675,25.722805286334964]]],[[[123.5433581834335,25.72302384047787],[123.54309867056725,25.722885680329906],[123.54304705757569,25.722996943554165],[123.5433581834335,25.72302384047787]]],[[[123.55253865083809,25.72475192556095],[123.55567225846802,25.720862842446248],[123.55308311749195,25.72026001698623],[123.54462628327646,25.723345502792764],[123.54797072976544,25.725684657421027],[123.55253865083809,25.72475192556095]]],[[[123.5446767658201,25.723154788962407],[123.54475106151234,25.723141047321516],[123.54472815038389,25.72312730298267],[123.5446767658201,25.723154788962407]]],[[[123.54408626017278,25.72430264225318],[123.54431052860811,25.723846522299194],[123.54401728037328,25.723956405963406],[123.54408626017278,25.72430264225318]]],[[[123.54468580400669,25.724070280818864],[123.54479439714372,25.724103162730845],[123.54478805512474,25.72407736028202],[123.54468580400669,25.724070280818864]]],[[[123.54445827912639,25.724339980305896],[123.54448653492568,25.724449765044657],[123.54456497559318,25.72445822226922],[123.54445827912639,25.724339980305896]]],[[[123.544932747948,25.727855434680635],[123.54526341967119,25.728001349682586],[123.54522808171068,25.727864040293294],[123.544932747948,25.727855434680635]]],[[[123.54485315614829,25.729282192019582],[123.54502077898589,25.72939126629393],[123.5449488386181,25.729193787763162],[123.54485315614829,25.729282192019582]]],[[[123.54114240319939,25.734890122381277],[123.54365717204087,25.729519070748548],[123.54562967037306,25.72873112164399],[123.54475259665502,25.727894384318457],[123.54463158567921,25.72614479644522],[123.5424190232194,25.725254991025054],[123.53762041794802,25.73180233880691],[123.54114240319939,25.734890122381277]]],[[[123.50610306890157,25.735606353250656],[123.50615749137523,25.735809547872407],[123.50652930438402,25.735371096898632],[123.50610306890157,25.735606353250656]]],[[[123.50713576220572,25.735806334594717],[123.50710840752708,25.735949114560015],[123.50719540704246,25.735959295784934],[123.50713576220572,25.735806334594717]]],[[[123.49080608023645,25.740456966316003],[123.49057393014276,25.740231849820077],[123.49049009084513,25.740441921557476],[123.49080608023645,25.740456966316003]]],[[[123.49085650972017,25.74058937979612],[123.49095692082528,25.74071256173539],[123.49098358392531,25.74066631319982],[123.49085650972017,25.74058937979612]]],[[[123.49051672246878,25.740714010543233],[123.49035378509916,25.740486373247563],[123.49027128579132,25.74068268985428],[123.49051672246878,25.740714010543233]]],[[[123.49079988120958,25.740631489651605],[123.49046709068377,25.740536198386906],[123.49092306314891,25.740873354221947],[123.49079988120958,25.740631489651605]]],[[[123.49077387551404,25.740848598584023],[123.49077320372044,25.74088380434415],[123.49081586486034,25.740886007683173],[123.49077387551404,25.740848598584023]]],[[[123.4929124219708,25.74178710319234],[123.49290197184861,25.741818973367003],[123.49293186441412,25.741824256884],[123.4929124219708,25.74178710319234]]],[[[123.4877051908419,25.750094541130235],[123.4877107441556,25.749889853633867],[123.48756128312675,25.75005595751645],[123.4877051908419,25.750094541130235]]],[[[123.54192548517301,25.779271062809357],[123.54089399785981,25.77899148516894],[123.54061443460853,25.779246327855788],[123.5408015187751,25.779390574615373],[123.54192548517301,25.779271062809357]]],[[[123.54002883476299,25.779651144184974],[123.54047138934322,25.778869335651386],[123.53957273729203,25.779520062600856],[123.54002883476299,25.779651144184974]]],[[[123.53903368545627,25.77941116549294],[123.53894053367878,25.779381652441373],[123.5389786127728,25.779467739144877],[123.53903368545627,25.77941116549294]]],[[[123.54293704890574,25.7798617941865],[123.54309853656831,25.77999364289235],[123.54313326478838,25.779886631662748],[123.54293704890574,25.7798617941865]]],[[[123.5447377875189,25.780909197701362],[123.54323753488438,25.780330111645412],[123.54352578378793,25.781936826923065],[123.5447377875189,25.780909197701362]]],[[[123.55636385420861,25.721161400278447],[123.55671947222596,25.721469248107383],[123.55642581210157,25.720930379733257],[123.55636385420861,25.721161400278447]]],[[[123.55653596915978,25.721710317677093],[123.55663967448139,25.721879894741388],[123.55673088282401,25.721822735630777],[123.55653596915978,25.721710317677093]]],[[[123.56611359066972,25.75564014847413],[123.56666067974665,25.75547298339153],[123.56768936207446,25.75564576833761],[123.56611359066972,25.75564014847413]]],[[[123.68246872685029,25.9191112972486],[123.68247200577855,25.91920041556676],[123.68256455680887,25.9192089258513],[123.68246872685029,25.9191112972486]]],[[[123.68321190950212,25.919139633087635],[123.68326968015164,25.919181042371232],[123.68328572675499,25.919156211190227],[123.68321190950212,25.919139633087635]]],[[[123.67906691350733,25.91996793117511],[123.67913503265572,25.91993485860689],[123.6790525270526,25.91996277626117],[123.67906691350733,25.91996793117511]]],[[[123.6787430406589,25.920234135896692],[123.67858972963234,25.92032575253148],[123.67862122928638,25.920350613390156],[123.6787430406589,25.920234135896692]]],[[[123.67832706823971,25.920491950842916],[123.6784236203539,25.920537182245194],[123.67845264417429,25.92048458899262],[123.67832706823971,25.920491950842916]]],[[[123.67729707200237,25.92223347899192],[123.67734832976168,25.92231002568718],[123.67735959466961,25.9222327658295],[123.67729707200237,25.92223347899192]]],[[[123.67674196277142,25.92260345558503],[123.67677781334544,25.922605006016283],[123.67676681553621,25.92257443985858],[123.67674196277142,25.92260345558503]]],[[[123.6767708220159,25.92268147896715],[123.67680555832986,25.922726293083997],[123.67681946005007,25.92269855079752],[123.6767708220159,25.92268147896715]]],[[[123.67640134274781,25.922846122350727],[123.67646787908937,25.92285555354101],[123.67646205597919,25.922818676840507],[123.67640134274781,25.922846122350727]]],[[[123.6764891723375,25.92293061905286],[123.67640205501084,25.922891203566223],[123.67641286126457,25.92291677578862],[123.6764891723375,25.92293061905286]]],[[[123.67591800301352,25.923113211105882],[123.67608648560292,25.923099801314834],[123.67608182441676,25.92306299206348],[123.67591800301352,25.923113211105882]]],[[[123.6824480334501,25.928878043486975],[123.6886914202729,25.922221294077534],[123.68830140228795,25.922090349190338],[123.68765884837718,25.920718901955805],[123.68631977313908,25.920111722877774],[123.68601517725871,25.919704423520386],[123.67925847359972,25.919868334855835],[123.6775974059956,25.922235301917688],[123.67637912139935,25.92318170976813],[123.67608772666735,25.923129638122358],[123.67672004089718,25.92504988404494],[123.67950935567228,25.92765433238156],[123.6797830985113,25.92819536452453],[123.67977081736944,25.928610661552845],[123.68110652914312,25.928392609231587],[123.6824480334501,25.928878043486975]]],[[[123.67611297963037,25.924251649394133],[123.6761874668781,25.924351405792777],[123.67644241298706,25.924241067071648],[123.67611297963037,25.924251649394133]]],[[[123.67610162748814,25.92444029118656],[123.67609071781249,25.92447640975854],[123.67617926865842,25.92446696327977],[123.67610162748814,25.92444029118656]]],[[[123.67689768847767,25.92560631887659],[123.67706237592803,25.925631723825067],[123.67703401131062,25.92558314604543],[123.67689768847767,25.92560631887659]]],[[[123.67793132606994,25.927078091780572],[123.67794076175676,25.927142653210918],[123.67800096597183,25.927105445559903],[123.67793132606994,25.927078091780572]]],[[[123.67875174609628,25.92734143755734],[123.67870717389702,25.92733810287121],[123.67871756916055,25.92736216603117],[123.67875174609628,25.92734143755734]]],[[[123.68492293804319,25.9273726575222],[123.68499176136073,25.927382229006696],[123.6849915374296,25.927339275587144],[123.68492293804319,25.9273726575222]]],[[[123.68529231748653,25.927385787624075],[123.6852581702284,25.927409441592484],[123.6853217945652,25.927448820206962],[123.68529231748653,25.927385787624075]]],[[[123.67874303706161,25.927501544760556],[123.67878112065229,25.9275183099221],[123.67879604670033,25.927503213002918],[123.67874303706161,25.927501544760556]]],[[[123.67892989639769,25.927995550454348],[123.67896372079917,25.928191402111562],[123.67913463155811,25.927804564129357],[123.67892989639769,25.927995550454348]]],[[[123.67956725132761,25.928024241525577],[123.67957937418886,25.928067533989573],[123.67964156680489,25.92805163937168],[123.67956725132761,25.928024241525577]]],[[[123.6807113283652,25.92847376495234],[123.68068675528959,25.928553639139174],[123.68076356908352,25.928505439974114],[123.6807113283652,25.92847376495234]]],[[[123.68380949551194,25.92856413872408],[123.68378967805133,25.92847935873544],[123.68375474298703,25.928505311371058],[123.68380949551194,25.92856413872408]]],[[[123.68132886673389,25.928702215235088],[123.6813151601666,25.9287618510786],[123.68132917969795,25.92876428644274],[123.68132886673389,25.928702215235088]]],[[[123.68269408166658,25.9291248831069],[123.68275360689348,25.92912753340897],[123.68274722620356,25.929092109113576],[123.68269408166658,25.9291248831069]]],[[[123.68601079126508,25.919665312004607],[123.68604546462655,25.919679094114937],[123.68605598399654,25.91964899380605],[123.68601079126508,25.919665312004607]]],[[[123.68611102970033,25.919703269690217],[123.68606984614654,25.919768493021593],[123.68618895055967,25.91975775511633],[123.68611102970033,25.919703269690217]]],[[[123.6875763292842,25.91989409143922],[123.6875263449649,25.919975944134585],[123.68761904078623,25.919975217482374],[123.6875763292842,25.91989409143922]]],[[[123.68783032480972,25.920832814582756],[123.68790551262941,25.920800424599967],[123.68787325304821,25.92077776078509],[123.68783032480972,25.920832814582756]]],[[[124.55593223518453,25.921431861990865],[124.55588396946972,25.921397855926386],[124.5558602966155,25.92146964790595],[124.55593223518453,25.921431861990865]]],[[[124.55606241564806,25.921558216738386],[124.556022239335,25.92156928199682],[124.55614663266101,25.921617933520853],[124.55606241564806,25.921558216738386]]],[[[124.55596909209999,25.921669762349726],[124.5560477926715,25.921670967441234],[124.55603422010324,25.921627627313228],[124.55596909209999,25.921669762349726]]],[[[124.55613913591242,25.92171413669809],[124.5564567611707,25.921556550294603],[124.55622560482789,25.92156990432767],[124.55613913591242,25.92171413669809]]],[[[123.68821859631122,25.921755667390183],[123.6882551294707,25.921812411014002],[123.68831050882295,25.92172131778466],[123.68821859631122,25.921755667390183]]],[[[123.68906097778199,25.92190836957565],[123.6892566360849,25.921756048702722],[123.6890395649241,25.92184756641211],[123.68906097778199,25.92190836957565]]],[[[124.55649079781209,25.922331684959317],[124.55633431038018,25.921888071877046],[124.55597494848519,25.922012051515026],[124.55649079781209,25.922331684959317]]],[[[124.5567556922215,25.922110932873295],[124.55667149409419,25.922094494165606],[124.55675287374618,25.922150588478928],[124.5567556922215,25.922110932873295]]],[[[124.55671872379014,25.92231266070075],[124.55672101436336,25.922341529837805],[124.55676018883175,25.922321666511774],[124.55671872379014,25.92231266070075]]],[[[124.56085570322819,25.92231594502488],[124.55759501689657,25.921523532585017],[124.55652024341454,25.921873547826007],[124.55913181528116,25.923365765018104],[124.56085570322819,25.92231594502488]]],[[[124.55928342389097,25.92344774002123],[124.56006250927749,25.923559336893955],[124.55972788863117,25.923324671396532],[124.55928342389097,25.92344774002123]]],[[[124.55922396881112,25.92357336092192],[124.55906568363446,25.923829781918922],[124.55951448130838,25.923695996972757],[124.55922396881112,25.92357336092192]]],[[[124.5600202942013,25.923846328545263],[124.55950157513769,25.923966379944545],[124.56017596864613,25.924137413910557],[124.5600202942013,25.923846328545263]]],[[[123.68762211736693,25.9241974733348],[123.68775470261744,25.924069496210336],[123.68758005427618,25.92411398387332],[123.68762211736693,25.9241974733348]]],[[[124.55905686128517,25.924060545257984],[124.55940146260751,25.92440110772497],[124.55907950621429,25.92405200079924],[124.55905686128517,25.924060545257984]]],[[[123.68726477265125,25.924833304813202],[123.68727412200315,25.92485400900534],[123.68730827735521,25.92483391815085],[123.68726477265125,25.924833304813202]]],[[[123.68738982248237,25.924846527545238],[123.68740568292594,25.924866151651653],[123.68742134551871,25.924860886121053],[123.68738982248237,25.924846527545238]]],[[[123.68721352838168,25.92492912397995],[123.68726152519935,25.9249849727783],[123.68730302801238,25.924946971025918],[123.68721352838168,25.92492912397995]]],[[[123.68810965423722,25.924907304628444],[123.68779776305645,25.924965133733963],[123.68791320992672,25.92505779358237],[123.68810965423722,25.924907304628444]]],[[[123.6880453293286,25.92517687910976],[123.68809483161125,25.925238906250573],[123.68814859128453,25.92518399904236],[123.6880453293286,25.92517687910976]]],[[[123.68653423446744,25.925401072901252],[123.68652512433505,25.92537067671543],[123.6864884176065,25.92538788704138],[123.68653423446744,25.925401072901252]]],[[[123.68598034651586,25.92624699680152],[123.68596053535043,25.92625875453797],[123.68602214160863,25.926297380419836],[123.68598034651586,25.92624699680152]]]]},"properties":{"name":"宜蘭縣","source":"https://data.gov.tw/dataset/7442"}}]}