{"type":"FeatureCollection","features":[{"type":"Feature","geometry":{"type":"Point","coordinates":[121.57853271249375,24.65598150700032]},"properties":{"facility_id":"NLSC-121-10","facility_name":"宜蘭縣大同鄉大同國民小學松羅分校","facility_type":"學校","facility_source":"內政部國土測繪中心（官方衍生快取）","source_record_id":"10","source_date":"202206","admin_area":"宜蘭縣","medical_marktype":null,"address":null,"agency":null,"hotspot_name":null,"osm_amenity":"","osm_office":"","matched_hazard_groups":["土石流影響範圍","地質敏感區"],"matched_hazard_details":[{"group":"地質敏感區","source_id":"G0003","distance_m":0.0,"intersects":true},{"group":"土石流影響範圍","source_id":"176526","distance_m":44.6,"intersects":false}],"hazard_group_count":2,"flood_point_count_300m":0,"screening_priority":"複合災害暴露（優先查核）","analysis_predicate":"public facility point intersects hazard polygon or is within 300 metres of hazard geometry/point","analysis_role":"SCREENING_REFERENCE"}},{"type":"Feature","geometry":{"type":"Point","coordinates":[121.68519836945542,24.697550169030112]},"properties":{"facility_id":"NLSC-121-117","facility_name":"耕莘健康管理專科學校宜蘭校區","facility_type":"學校","facility_source":"內政部國土測繪中心（官方衍生快取）","source_record_id":"117","source_date":"202201","admin_area":"宜蘭縣","medical_marktype":null,"address":null,"agency":null,"hotspot_name":null,"osm_amenity":"","osm_office":"","matched_hazard_groups":["地質敏感區"],"matched_hazard_details":[{"group":"地質敏感區","source_id":"G0003","distance_m":0.0,"intersects":true}],"hazard_group_count":1,"flood_point_count_300m":0,"screening_priority":"單一災害暴露（篩選參考）","analysis_predicate":"public facility point intersects hazard polygon or is within 300 metres of hazard geometry/point","analysis_role":"SCREENING_REFERENCE"}},{"type":"Feature","geometry":{"type":"Point","coordinates":[121.70227406058794,24.66474175933038]},"properties":{"facility_id":"NLSC-121-132","facility_name":"聖母醫護管理專科學校","facility_type":"學校","facility_source":"內政部國土測繪中心（官方衍生快取）","source_record_id":"132","source_date":"202206","admin_area":"宜蘭縣","medical_marktype":null,"address":null,"agency":null,"hotspot_name":null,"osm_amenity":"","osm_office":"","matched_hazard_groups":["地質敏感區"],"matched_hazard_details":[{"group":"地質敏感區","source_id":"G0003","distance_m":0.0,"intersects":true}],"hazard_group_count":1,"flood_point_count_300m":0,"screening_priority":"單一災害暴露（篩選參考）","analysis_predicate":"public facility point intersects hazard polygon or is within 300 metres of hazard geometry/point","analysis_role":"SCREENING_REFERENCE"}},{"type":"Feature","geometry":{"type":"Point","coordinates":[121.6874798540977,24.60945974702583]},"properties":{"facility_id":"NLSC-121-16","facility_name":"宜蘭縣大同鄉寒溪國民小學","facility_type":"學校","facility_source":"內政部國土測繪中心（官方衍生快取）","source_record_id":"16","source_date":"201901","admin_area":"宜蘭縣","medical_marktype":null,"address":null,"agency":null,"hotspot_name":null,"osm_amenity":"","osm_office":"","matched_hazard_groups":["土石流影響範圍","地質敏感區"],"matched_hazard_details":[{"group":"地質敏感區","source_id":"G0003","distance_m":0.0,"intersects":true},{"group":"土石流影響範圍","source_id":"176526","distance_m":216.8,"intersects":false}],"hazard_group_count":2,"flood_point_count_300m":0,"screening_priority":"複合災害暴露（優先查核）","analysis_predicate":"public facility point intersects hazard polygon or is within 300 metres of hazard geometry/point","analysis_role":"SCREENING_REFERENCE"}},{"type":"Feature","geometry":{"type":"Point","coordinates":[121.7160689168856,24.634051902324654]},"properties":{"facility_id":"NLSC-121-22","facility_name":"宜蘭縣冬山鄉大進國民小學","facility_type":"學校","facility_source":"內政部國土測繪中心（官方衍生快取）","source_record_id":"22","source_date":"202206","admin_area":"宜蘭縣","medical_marktype":null,"address":null,"agency":null,"hotspot_name":null,"osm_amenity":"","osm_office":"","matched_hazard_groups":["地質敏感區","近5年歷史淹水災點"],"matched_hazard_details":[{"group":"地質敏感區","source_id":"G0003","distance_m":0.0,"intersects":true},{"group":"近5年歷史淹水災點","source_id":"130016","distance_m":189.5,"match_count":1}],"hazard_group_count":2,"flood_point_count_300m":1,"screening_priority":"複合災害暴露（優先查核）","analysis_predicate":"public facility point intersects hazard polygon or is within 300 metres of hazard geometry/point","analysis_role":"SCREENING_REFERENCE"}},{"type":"Feature","geometry":{"type":"Point","coordinates":[121.6505638304019,24.666767153317856]},"properties":{"facility_id":"NLSC-121-3","facility_name":"宜蘭縣三星鄉三星國民小學","facility_type":"學校","facility_source":"內政部國土測繪中心（官方衍生快取）","source_record_id":"3","source_date":"202206","admin_area":"宜蘭縣","medical_marktype":null,"address":null,"agency":null,"hotspot_name":null,"osm_amenity":"","osm_office":"","matched_hazard_groups":["地質敏感區"],"matched_hazard_details":[{"group":"地質敏感區","source_id":"G0003","distance_m":0.0,"intersects":true}],"hazard_group_count":1,"flood_point_count_300m":0,"screening_priority":"單一災害暴露（篩選參考）","analysis_predicate":"public facility point intersects hazard polygon or is within 300 metres of hazard geometry/point","analysis_role":"SCREENING_REFERENCE"}},{"type":"Feature","geometry":{"type":"Point","coordinates":[121.65370549762024,24.668073499182864]},"properties":{"facility_id":"NLSC-121-32","facility_name":"宜蘭縣立三星國民中學","facility_type":"學校","facility_source":"內政部國土測繪中心（官方衍生快取）","source_record_id":"32","source_date":"202206","admin_area":"宜蘭縣","medical_marktype":null,"address":null,"agency":null,"hotspot_name":null,"osm_amenity":"","osm_office":"","matched_hazard_groups":["地質敏感區"],"matched_hazard_details":[{"group":"地質敏感區","source_id":"G0003","distance_m":0.0,"intersects":true}],"hazard_group_count":1,"flood_point_count_300m":0,"screening_priority":"單一災害暴露（篩選參考）","analysis_predicate":"public facility point intersects hazard polygon or is within 300 metres of hazard geometry/point","analysis_role":"SCREENING_REFERENCE"}},{"type":"Feature","geometry":{"type":"Point","coordinates":[121.71300299587374,24.667232151593378]},"properties":{"facility_id":"NLSC-121-5","facility_name":"宜蘭縣三星鄉大隱國民小學","facility_type":"學校","facility_source":"內政部國土測繪中心（官方衍生快取）","source_record_id":"5","source_date":"202206","admin_area":"宜蘭縣","medical_marktype":null,"address":null,"agency":null,"hotspot_name":null,"osm_amenity":"","osm_office":"","matched_hazard_groups":["地質敏感區"],"matched_hazard_details":[{"group":"地質敏感區","source_id":"G0003","distance_m":0.0,"intersects":true}],"hazard_group_count":1,"flood_point_count_300m":0,"screening_priority":"單一災害暴露（篩選參考）","analysis_predicate":"public facility point intersects hazard polygon or is within 300 metres of hazard geometry/point","analysis_role":"SCREENING_REFERENCE"}},{"type":"Feature","geometry":{"type":"Point","coordinates":[121.6882587837758,24.679499994730968]},"properties":{"facility_id":"NLSC-121-6","facility_name":"宜蘭縣三星鄉萬富國民小學","facility_type":"學校","facility_source":"內政部國土測繪中心（官方衍生快取）","source_record_id":"6","source_date":"202406","admin_area":"宜蘭縣","medical_marktype":null,"address":null,"agency":null,"hotspot_name":null,"osm_amenity":"","osm_office":"","matched_hazard_groups":["地質敏感區"],"matched_hazard_details":[{"group":"地質敏感區","source_id":"G0003","distance_m":0.0,"intersects":true}],"hazard_group_count":1,"flood_point_count_300m":0,"screening_priority":"單一災害暴露（篩選參考）","analysis_predicate":"public facility point intersects hazard polygon or is within 300 metres of hazard geometry/point","analysis_role":"SCREENING_REFERENCE"}},{"type":"Feature","geometry":{"type":"Point","coordinates":[121.61859343459794,24.660826190286606]},"properties":{"facility_id":"NLSC-121-7","facility_name":"宜蘭縣三星鄉憲明國民小學","facility_type":"學校","facility_source":"內政部國土測繪中心（官方衍生快取）","source_record_id":"7","source_date":"201901","admin_area":"宜蘭縣","medical_marktype":null,"address":null,"agency":null,"hotspot_name":null,"osm_amenity":"","osm_office":"","matched_hazard_groups":["地質敏感區"],"matched_hazard_details":[{"group":"地質敏感區","source_id":"G0003","distance_m":0.0,"intersects":true},{"group":"地質敏感區","source_id":"L0016","distance_m":182.5,"intersects":false}],"hazard_group_count":1,"flood_point_count_300m":0,"screening_priority":"單一災害暴露（篩選參考）","analysis_predicate":"public facility point intersects hazard polygon or is within 300 metres of hazard geometry/point","analysis_role":"SCREENING_REFERENCE"}},{"type":"Feature","geometry":{"type":"Point","coordinates":[121.61929054654324,24.660376261682465]},"properties":{"facility_id":"NLSC-121-8","facility_name":"宜蘭縣三星鄉憲明國民小學1","facility_type":"學校","facility_source":"內政部國土測繪中心（官方衍生快取）","source_record_id":"8","source_date":"201711","admin_area":"宜蘭縣","medical_marktype":null,"address":null,"agency":null,"hotspot_name":null,"osm_amenity":"","osm_office":"","matched_hazard_groups":["地質敏感區"],"matched_hazard_details":[{"group":"地質敏感區","source_id":"G0003","distance_m":0.0,"intersects":true},{"group":"地質敏感區","source_id":"L0016","distance_m":99.3,"intersects":false}],"hazard_group_count":1,"flood_point_count_300m":0,"screening_priority":"單一災害暴露（篩選參考）","analysis_predicate":"public facility point intersects hazard polygon or is within 300 metres of hazard geometry/point","analysis_role":"SCREENING_REFERENCE"}}]}