{
  "type": "FeatureCollection",
  "features": [
    {
      "type": "Feature",
      "geometry": {
        "type": "LineString",
        "coordinates": [
          [
            121.76369896002618,
            24.673757062652403
          ],
          [
            121.7637195,
            24.6734876
          ],
          [
            121.76377478283511,
            24.6727347536443
          ]
        ]
      },
      "properties": {
        "道路名稱": "純精路一段",
        "道路編號": "9",
        "道路類型": "primary",
        "OSM_way_id": "50921135",
        "分析路段長度_m": 113.5,
        "最近淹水點距離_m": 82.3,
        "100m內淹水點數": 1,
        "淹水年份": "2024",
        "淹水年份數": 1,
        "最近淹水資料年份": 2024,
        "最近淹水FID": "6752",
        "淹水資料來源": "EMIC",
        "最近雨水下水道距離_m": 0.0,
        "DEM高程_m": 12.09,
        "局部高程百分位_pct": 4.2,
        "周邊500m高程中位數_m": 15.07,
        "相對低窪深度_m": 2.98,
        "低窪判定": "局部高程百分位≤20%",
        "風險分數": 73.8,
        "風險等級": "高",
        "分析條件": "淹水點≤100m；雨水下水道≤30m；局部高程百分位≤20%或高程≤5m"
      }
    },
    {
      "type": "Feature",
      "geometry": {
        "type": "LineString",
        "coordinates": [
          [
            121.76383706553749,
            24.67284542967725
          ],
          [
            121.76378250000002,
            24.673485099999994
          ],
          [
            121.76377079924045,
            24.673661551593682
          ]
        ]
      },
      "properties": {
        "道路名稱": "純精路一段",
        "道路編號": "9",
        "道路類型": "primary",
        "OSM_way_id": "50921136",
        "分析路段長度_m": 90.6,
        "最近淹水點距離_m": 88.9,
        "100m內淹水點數": 1,
        "淹水年份": "2024",
        "淹水年份數": 1,
        "最近淹水資料年份": 2024,
        "最近淹水FID": "6752",
        "淹水資料來源": "EMIC",
        "最近雨水下水道距離_m": 5.4,
        "DEM高程_m": 11.88,
        "局部高程百分位_pct": 4.2,
        "周邊500m高程中位數_m": 15.05,
        "相對低窪深度_m": 3.17,
        "低窪判定": "局部高程百分位≤20%",
        "風險分數": 68.3,
        "風險等級": "中",
        "分析條件": "淹水點≤100m；雨水下水道≤30m；局部高程百分位≤20%或高程≤5m"
      }
    },
    {
      "type": "Feature",
      "geometry": {
        "type": "LineString",
        "coordinates": [
          [
            121.76359746433117,
            24.673856108162653
          ],
          [
            121.7636837,
            24.6726377
          ]
        ]
      },
      "properties": {
        "道路名稱": "純精路一段",
        "道路編號": "9",
        "道路類型": "primary",
        "OSM_way_id": "50921134",
        "分析路段長度_m": 135.2,
        "最近淹水點距離_m": 72.5,
        "100m內淹水點數": 1,
        "淹水年份": "2024",
        "淹水年份數": 1,
        "最近淹水資料年份": 2024,
        "最近淹水FID": "6752",
        "淹水資料來源": "EMIC",
        "最近雨水下水道距離_m": 0.0,
        "DEM高程_m": 12.48,
        "局部高程百分位_pct": 12.5,
        "周邊500m高程中位數_m": 15.11,
        "相對低窪深度_m": 2.62,
        "低窪判定": "局部高程百分位≤20%",
        "風險分數": 61.2,
        "風險等級": "中",
        "分析條件": "淹水點≤100m；雨水下水道≤30m；局部高程百分位≤20%或高程≤5m"
      }
    },
    {
      "type": "Feature",
      "geometry": {
        "type": "LineString",
        "coordinates": [
          [
            121.76262449129331,
            24.672335861115272
          ],
          [
            121.7625883,
            24.672589900000002
          ],
          [
            121.7625884,
            24.6727547
          ],
          [
            121.76263560000001,
            24.672964499999996
          ],
          [
            121.76269580000002,
            24.673129300000003
          ],
          [
            121.7627884,
            24.673317899999997
          ],
          [
            121.76292240000001,
            24.673552699999988
          ],
          [
            121.7630609,
            24.673709399999996
          ],
          [
            121.76313689999999,
            24.67381749999999
          ],
          [
            121.76315030000002,
            24.6738955
          ],
          [
            121.7631175,
            24.6740353
          ],
          [
            121.76310420971753,
            24.674082420122698
          ]
        ]
      },
      "properties": {
        "道路名稱": "維揚路26巷",
        "道路編號": "",
        "道路類型": "unclassified",
        "OSM_way_id": "196824636",
        "分析路段長度_m": 208.3,
        "最近淹水點距離_m": 18.3,
        "100m內淹水點數": 1,
        "淹水年份": "2024",
        "淹水年份數": 1,
        "最近淹水資料年份": 2024,
        "最近淹水FID": "6752",
        "淹水資料來源": "EMIC",
        "最近雨水下水道距離_m": 0.0,
        "DEM高程_m": 11.11,
        "局部高程百分位_pct": 0.0,
        "周邊500m高程中位數_m": 16.08,
        "相對低窪深度_m": 4.97,
        "低窪判定": "局部高程百分位≤20%",
        "風險分數": 80.0,
        "風險等級": "高",
        "分析條件": "淹水點≤100m；雨水下水道≤30m；局部高程百分位≤20%或高程≤5m"
      }
    },
    {
      "type": "Feature",
      "geometry": {
        "type": "LineString",
        "coordinates": [
          [
            121.76390175611132,
            24.6730592142857
          ],
          [
            121.76387109476457,
            24.673457995553697
          ]
        ]
      },
      "properties": {
        "道路名稱": "純精路一段",
        "道路編號": "9",
        "道路類型": "primary",
        "OSM_way_id": "1312567058",
        "分析路段長度_m": 44.3,
        "最近淹水點距離_m": 97.4,
        "100m內淹水點數": 1,
        "淹水年份": "2024",
        "淹水年份數": 1,
        "最近淹水資料年份": 2024,
        "最近淹水FID": "6752",
        "淹水資料來源": "EMIC",
        "最近雨水下水道距離_m": 25.7,
        "DEM高程_m": 11.81,
        "局部高程百分位_pct": 8.3,
        "周邊500m高程中位數_m": 15.06,
        "相對低窪深度_m": 3.25,
        "低窪判定": "局部高程百分位≤20%",
        "風險分數": 41.8,
        "風險等級": "注意",
        "分析條件": "淹水點≤100m；雨水下水道≤30m；局部高程百分位≤20%或高程≤5m"
      }
    },
    {
      "type": "Feature",
      "geometry": {
        "type": "LineString",
        "coordinates": [
          [
            121.76262460688879,
            24.672335822657843
          ],
          [
            121.76295519999998,
            24.6724059
          ],
          [
            121.7633963,
            24.67253399999999
          ],
          [
            121.7636837,
            24.6726377
          ]
        ]
      },
      "properties": {
        "道路名稱": "維揚路",
        "道路編號": "",
        "道路類型": "residential",
        "OSM_way_id": "1312744977",
        "分析路段長度_m": 112.5,
        "最近淹水點距離_m": 84.2,
        "100m內淹水點數": 1,
        "淹水年份": "2024",
        "淹水年份數": 1,
        "最近淹水資料年份": 2024,
        "最近淹水FID": "6752",
        "淹水資料來源": "EMIC",
        "最近雨水下水道距離_m": 9.4,
        "DEM高程_m": 11.09,
        "局部高程百分位_pct": 8.3,
        "周邊500m高程中位數_m": 15.84,
        "相對低窪深度_m": 4.75,
        "低窪判定": "局部高程百分位≤20%",
        "風險分數": 58.1,
        "風險等級": "中",
        "分析條件": "淹水點≤100m；雨水下水道≤30m；局部高程百分位≤20%或高程≤5m"
      }
    },
    {
      "type": "Feature",
      "geometry": {
        "type": "LineString",
        "coordinates": [
          [
            121.7710838,
            24.679193499999997
          ],
          [
            121.770634,
            24.679312
          ],
          [
            121.7705867,
            24.679323199999995
          ],
          [
            121.7703058,
            24.6793993
          ],
          [
            121.7699638,
            24.679482599999996
          ],
          [
            121.7698699,
            24.679465999999998
          ],
          [
            121.76955485035771,
            24.679548651568428
          ]
        ]
      },
      "properties": {
        "道路名稱": "林森路",
        "道路編號": "",
        "道路類型": "residential",
        "OSM_way_id": "196820285",
        "分析路段長度_m": 160.7,
        "最近淹水點距離_m": 62.2,
        "100m內淹水點數": 1,
        "淹水年份": "2024",
        "淹水年份數": 1,
        "最近淹水資料年份": 2024,
        "最近淹水FID": "5783",
        "淹水資料來源": "EMIC",
        "最近雨水下水道距離_m": 0.0,
        "DEM高程_m": 10.94,
        "局部高程百分位_pct": 18.8,
        "周邊500m高程中位數_m": 13.84,
        "相對低窪深度_m": 2.9,
        "低窪判定": "局部高程百分位≤20%",
        "風險分數": 60.0,
        "風險等級": "中",
        "分析條件": "淹水點≤100m；雨水下水道≤30m；局部高程百分位≤20%或高程≤5m"
      }
    },
    {
      "type": "Feature",
      "geometry": {
        "type": "LineString",
        "coordinates": [
          [
            121.77290170000002,
            24.666981500000002
          ],
          [
            121.77314700000001,
            24.666531699999997
          ]
        ]
      },
      "properties": {
        "道路名稱": "冬山路三段",
        "道路編號": "9",
        "道路類型": "primary",
        "OSM_way_id": "50921098",
        "分析路段長度_m": 55.7,
        "最近淹水點距離_m": 16.4,
        "100m內淹水點數": 1,
        "淹水年份": "2022",
        "淹水年份數": 1,
        "最近淹水資料年份": 2022,
        "最近淹水FID": "2014",
        "淹水資料來源": "新聞媒體",
        "最近雨水下水道距離_m": 0.0,
        "DEM高程_m": 6.07,
        "局部高程百分位_pct": 8.3,
        "周邊500m高程中位數_m": 8.56,
        "相對低窪深度_m": 2.5,
        "低窪判定": "局部高程百分位≤20%",
        "風險分數": 67.5,
        "風險等級": "中",
        "分析條件": "淹水點≤100m；雨水下水道≤30m；局部高程百分位≤20%或高程≤5m"
      }
    },
    {
      "type": "Feature",
      "geometry": {
        "type": "LineString",
        "coordinates": [
          [
            121.7733364,
            24.666432100000005
          ],
          [
            121.7730427,
            24.667038199999997
          ],
          [
            121.7730101,
            24.6671092
          ]
        ]
      },
      "properties": {
        "道路名稱": "冬山路三段",
        "道路編號": "9",
        "道路類型": "primary",
        "OSM_way_id": "246666482",
        "分析路段長度_m": 82.0,
        "最近淹水點距離_m": 3.3,
        "100m內淹水點數": 1,
        "淹水年份": "2022",
        "淹水年份數": 1,
        "最近淹水資料年份": 2022,
        "最近淹水FID": "2014",
        "淹水資料來源": "新聞媒體",
        "最近雨水下水道距離_m": 0.0,
        "DEM高程_m": 6.11,
        "局部高程百分位_pct": 12.5,
        "周邊500m高程中位數_m": 8.99,
        "相對低窪深度_m": 2.88,
        "低窪判定": "局部高程百分位≤20%",
        "風險分數": 61.2,
        "風險等級": "中",
        "分析條件": "淹水點≤100m；雨水下水道≤30m；局部高程百分位≤20%或高程≤5m"
      }
    },
    {
      "type": "Feature",
      "geometry": {
        "type": "LineString",
        "coordinates": [
          [
            121.7742167,
            24.6803265
          ],
          [
            121.77418281423532,
            24.679842471144678
          ]
        ]
      },
      "properties": {
        "道路名稱": "站前北路",
        "道路編號": "",
        "道路類型": "unclassified",
        "OSM_way_id": "85646247",
        "分析路段長度_m": 53.7,
        "最近淹水點距離_m": 55.7,
        "100m內淹水點數": 1,
        "淹水年份": "2024",
        "淹水年份數": 1,
        "最近淹水資料年份": 2024,
        "最近淹水FID": "6726",
        "淹水資料來源": "新聞媒體",
        "最近雨水下水道距離_m": 0.0,
        "DEM高程_m": 7.45,
        "局部高程百分位_pct": 16.7,
        "周邊500m高程中位數_m": 11.97,
        "相對低窪深度_m": 4.53,
        "低窪判定": "局部高程百分位≤20%",
        "風險分數": 60.0,
        "風險等級": "中",
        "分析條件": "淹水點≤100m；雨水下水道≤30m；局部高程百分位≤20%或高程≤5m"
      }
    },
    {
      "type": "Feature",
      "geometry": {
        "type": "LineString",
        "coordinates": [
          [
            121.77380778997802,
            24.68016638588846
          ],
          [
            121.77381510000001,
            24.680164799999993
          ],
          [
            121.7742167,
            24.6803265
          ],
          [
            121.7744498,
            24.6804185
          ],
          [
            121.77447060000001,
            24.680440399999995
          ],
          [
            121.77449560000001,
            24.680462600000002
          ]
        ]
      },
      "properties": {
        "道路名稱": "OSM道路 404337298",
        "道路編號": "",
        "道路類型": "unclassified",
        "OSM_way_id": "404337298",
        "分析路段長度_m": 77.6,
        "最近淹水點距離_m": 24.9,
        "100m內淹水點數": 1,
        "淹水年份": "2024",
        "淹水年份數": 1,
        "最近淹水資料年份": 2024,
        "最近淹水FID": "6726",
        "淹水資料來源": "新聞媒體",
        "最近雨水下水道距離_m": 0.0,
        "DEM高程_m": 7.34,
        "局部高程百分位_pct": 12.5,
        "周邊500m高程中位數_m": 11.43,
        "相對低窪深度_m": 4.09,
        "低窪判定": "局部高程百分位≤20%",
        "風險分數": 61.2,
        "風險等級": "中",
        "分析條件": "淹水點≤100m；雨水下水道≤30m；局部高程百分位≤20%或高程≤5m"
      }
    },
    {
      "type": "Feature",
      "geometry": {
        "type": "LineString",
        "coordinates": [
          [
            121.84815480000002,
            24.594851799999997
          ],
          [
            121.8483518,
            24.5952126
          ],
          [
            121.8484151,
            24.595345
          ],
          [
            121.8485057,
            24.59544869999999
          ],
          [
            121.84863547175254,
            24.595551873411573
          ]
        ]
      },
      "properties": {
        "道路名稱": "新興巷",
        "道路編號": "",
        "道路類型": "residential",
        "OSM_way_id": "145583266",
        "分析路段長度_m": 92.8,
        "最近淹水點距離_m": 8.5,
        "100m內淹水點數": 1,
        "淹水年份": "2024",
        "淹水年份數": 1,
        "最近淹水資料年份": 2024,
        "最近淹水FID": "7232",
        "淹水資料來源": "淹水感測",
        "最近雨水下水道距離_m": 2.5,
        "DEM高程_m": 6.0,
        "局部高程百分位_pct": 0.0,
        "周邊500m高程中位數_m": 12.04,
        "相對低窪深度_m": 6.04,
        "低窪判定": "局部高程百分位≤20%",
        "風險分數": 77.5,
        "風險等級": "高",
        "分析條件": "淹水點≤100m；雨水下水道≤30m；局部高程百分位≤20%或高程≤5m"
      }
    },
    {
      "type": "Feature",
      "geometry": {
        "type": "LineString",
        "coordinates": [
          [
            121.84806040000001,
            24.594690199999995
          ],
          [
            121.84815480000002,
            24.594851799999997
          ]
        ]
      },
      "properties": {
        "道路名稱": "OSM道路 145583270",
        "道路編號": "",
        "道路類型": "residential",
        "OSM_way_id": "145583270",
        "分析路段長度_m": 20.3,
        "最近淹水點距離_m": 1.9,
        "100m內淹水點數": 1,
        "淹水年份": "2024",
        "淹水年份數": 1,
        "最近淹水資料年份": 2024,
        "最近淹水FID": "7232",
        "淹水資料來源": "淹水感測",
        "最近雨水下水道距離_m": 9.1,
        "DEM高程_m": 5.0,
        "局部高程百分位_pct": 0.0,
        "周邊500m高程中位數_m": 13.74,
        "相對低窪深度_m": 8.74,
        "低窪判定": "高程≤5m",
        "風險分數": 70.9,
        "風險等級": "高",
        "分析條件": "淹水點≤100m；雨水下水道≤30m；局部高程百分位≤20%或高程≤5m"
      }
    },
    {
      "type": "Feature",
      "geometry": {
        "type": "LineString",
        "coordinates": [
          [
            121.84728034211035,
            24.595297520188442
          ],
          [
            121.8475976,
            24.595312200000002
          ],
          [
            121.8484151,
            24.595345
          ],
          [
            121.84886490168144,
            24.59536486886861
          ]
        ]
      },
      "properties": {
        "道路名稱": "蘇南路",
        "道路編號": "",
        "道路類型": "residential",
        "OSM_way_id": "145583299",
        "分析路段長度_m": 160.7,
        "最近淹水點距離_m": 59.5,
        "100m內淹水點數": 1,
        "淹水年份": "2024",
        "淹水年份數": 1,
        "最近淹水資料年份": 2024,
        "最近淹水FID": "7232",
        "淹水資料來源": "淹水感測",
        "最近雨水下水道距離_m": 0.0,
        "DEM高程_m": 7.0,
        "局部高程百分位_pct": 4.2,
        "周邊500m高程中位數_m": 13.16,
        "相對低窪深度_m": 6.16,
        "低窪判定": "局部高程百分位≤20%",
        "風險分數": 73.8,
        "風險等級": "高",
        "分析條件": "淹水點≤100m；雨水下水道≤30m；局部高程百分位≤20%或高程≤5m"
      }
    },
    {
      "type": "Feature",
      "geometry": {
        "type": "LineString",
        "coordinates": [
          [
            121.84750242893011,
            24.594076878125218
          ],
          [
            121.8475426,
            24.594189299999993
          ],
          [
            121.8477407,
            24.594264699999997
          ],
          [
            121.8480562,
            24.594354100000004
          ],
          [
            121.84805049999999,
            24.594510599999996
          ],
          [
            121.84803870000002,
            24.594640499999993
          ],
          [
            121.84806040000001,
            24.594690199999995
          ]
        ]
      },
      "properties": {
        "道路名稱": "OSM道路 145583301",
        "道路編號": "",
        "道路類型": "residential",
        "OSM_way_id": "145583301",
        "分析路段長度_m": 106.0,
        "最近淹水點距離_m": 12.2,
        "100m內淹水點數": 1,
        "淹水年份": "2024",
        "淹水年份數": 1,
        "最近淹水資料年份": 2024,
        "最近淹水FID": "7232",
        "淹水資料來源": "淹水感測",
        "最近雨水下水道距離_m": 0.0,
        "DEM高程_m": 5.06,
        "局部高程百分位_pct": 0.0,
        "周邊500m高程中位數_m": 13.31,
        "相對低窪深度_m": 8.25,
        "低窪判定": "局部高程百分位≤20%",
        "風險分數": 80.0,
        "風險等級": "高",
        "分析條件": "淹水點≤100m；雨水下水道≤30m；局部高程百分位≤20%或高程≤5m"
      }
    },
    {
      "type": "Feature",
      "geometry": {
        "type": "LineString",
        "coordinates": [
          [
            121.8475115354673,
            24.59407062292959
          ],
          [
            121.848251,
            24.594032299999995
          ],
          [
            121.84857489999999,
            24.5940234
          ],
          [
            121.84861248556517,
            24.594023866936965
          ]
        ]
      },
      "properties": {
        "道路名稱": "蘇港路",
        "道路編號": "2",
        "道路類型": "primary",
        "OSM_way_id": "395300468",
        "分析路段長度_m": 111.6,
        "最近淹水點距離_m": 83.4,
        "100m內淹水點數": 1,
        "淹水年份": "2024",
        "淹水年份數": 1,
        "最近淹水資料年份": 2024,
        "最近淹水FID": "7232",
        "淹水資料來源": "淹水感測",
        "最近雨水下水道距離_m": 4.3,
        "DEM高程_m": 7.76,
        "局部高程百分位_pct": 4.2,
        "周邊500m高程中位數_m": 13.12,
        "相對低窪深度_m": 5.35,
        "低窪判定": "局部高程百分位≤20%",
        "風險分數": 69.4,
        "風險等級": "中",
        "分析條件": "淹水點≤100m；雨水下水道≤30m；局部高程百分位≤20%或高程≤5m"
      }
    },
    {
      "type": "Feature",
      "geometry": {
        "type": "LineString",
        "coordinates": [
          [
            121.84876855652256,
            24.594131362164894
          ],
          [
            121.848306,
            24.594142299999998
          ],
          [
            121.8475426,
            24.594189299999993
          ],
          [
            121.84735278314137,
            24.59420546387525
          ]
        ]
      },
      "properties": {
        "道路名稱": "蘇港路",
        "道路編號": "2",
        "道路類型": "primary",
        "OSM_way_id": "395300469",
        "分析路段長度_m": 143.7,
        "最近淹水點距離_m": 70.7,
        "100m內淹水點數": 1,
        "淹水年份": "2024",
        "淹水年份數": 1,
        "最近淹水資料年份": 2024,
        "最近淹水FID": "7232",
        "淹水資料來源": "淹水感測",
        "最近雨水下水道距離_m": 0.0,
        "DEM高程_m": 6.38,
        "局部高程百分位_pct": 0.0,
        "周邊500m高程中位數_m": 13.3,
        "相對低窪深度_m": 6.92,
        "低窪判定": "局部高程百分位≤20%",
        "風險分數": 80.0,
        "風險等級": "高",
        "分析條件": "淹水點≤100m；雨水下水道≤30m；局部高程百分位≤20%或高程≤5m"
      }
    },
    {
      "type": "Feature",
      "geometry": {
        "type": "LineString",
        "coordinates": [
          [
            121.82527433967077,
            24.861380838127385
          ],
          [
            121.8245602,
            24.861931799999997
          ],
          [
            121.82375090794022,
            24.862499333044482
          ]
        ]
      },
      "properties": {
        "道路名稱": "開蘭橋",
        "道路編號": "宜3-2",
        "道路類型": "tertiary",
        "OSM_way_id": "194075777",
        "分析路段長度_m": 197.7,
        "最近淹水點距離_m": 12.5,
        "100m內淹水點數": 1,
        "淹水年份": "2022",
        "淹水年份數": 1,
        "最近淹水資料年份": 2022,
        "最近淹水FID": "2215",
        "淹水資料來源": "EMIC",
        "最近雨水下水道距離_m": 0.0,
        "DEM高程_m": 7.36,
        "局部高程百分位_pct": 16.7,
        "周邊500m高程中位數_m": 11.38,
        "相對低窪深度_m": 4.02,
        "低窪判定": "局部高程百分位≤20%",
        "風險分數": 60.0,
        "風險等級": "中",
        "分析條件": "淹水點≤100m；雨水下水道≤30m；局部高程百分位≤20%或高程≤5m"
      }
    },
    {
      "type": "Feature",
      "geometry": {
        "type": "LineString",
        "coordinates": [
          [
            121.82371628057726,
            24.8624403879265
          ],
          [
            121.8238068,
            24.862376999999995
          ]
        ]
      },
      "properties": {
        "道路名稱": "OSM道路 536613646",
        "道路編號": "",
        "道路類型": "unclassified",
        "OSM_way_id": "536613646",
        "分析路段長度_m": 11.5,
        "最近淹水點距離_m": 88.6,
        "100m內淹水點數": 1,
        "淹水年份": "2022",
        "淹水年份數": 1,
        "最近淹水資料年份": 2022,
        "最近淹水FID": "2215",
        "淹水資料來源": "EMIC",
        "最近雨水下水道距離_m": 19.7,
        "DEM高程_m": 5.62,
        "局部高程百分位_pct": 8.3,
        "周邊500m高程中位數_m": 11.33,
        "相對低窪深度_m": 5.71,
        "低窪判定": "局部高程百分位≤20%",
        "風險分數": 47.8,
        "風險等級": "注意",
        "分析條件": "淹水點≤100m；雨水下水道≤30m；局部高程百分位≤20%或高程≤5m"
      }
    },
    {
      "type": "Feature",
      "geometry": {
        "type": "LineString",
        "coordinates": [
          [
            121.82404300000002,
            24.862219299999996
          ],
          [
            121.8243715,
            24.861998399999994
          ],
          [
            121.8244958,
            24.861910299999998
          ]
        ]
      },
      "properties": {
        "道路名稱": "OSM道路 1111915800",
        "道路編號": "",
        "道路類型": "unclassified",
        "OSM_way_id": "1111915800",
        "分析路段長度_m": 57.1,
        "最近淹水點距離_m": 18.3,
        "100m內淹水點數": 1,
        "淹水年份": "2022",
        "淹水年份數": 1,
        "最近淹水資料年份": 2022,
        "最近淹水FID": "2215",
        "淹水資料來源": "EMIC",
        "最近雨水下水道距離_m": 4.6,
        "DEM高程_m": 7.33,
        "局部高程百分位_pct": 16.7,
        "周邊500m高程中位數_m": 11.52,
        "相對低窪深度_m": 4.19,
        "低窪判定": "局部高程百分位≤20%",
        "風險分數": 55.4,
        "風險等級": "中",
        "分析條件": "淹水點≤100m；雨水下水道≤30m；局部高程百分位≤20%或高程≤5m"
      }
    }
  ],
  "metadata": {
    "generatedAt": "2026-09-24T07:22:52+00:00",
    "analysisPeriod": "2021-2025",
    "floodDistanceMeters": 100.0,
    "sewerDistanceMeters": 30.0,
    "lowLyingRule": "DEM local percentile <= 20.0% OR elevation <= 5.0 m",
    "floodSource": "國科會/國家災害防救科技中心「近5年淹水災點資料」",
    "floodSourceUrl": "https://data.gov.tw/dataset/130016",
    "sewerSource": "內政部國土管理署雨水下水道圖資（公開 ArcGIS Feature Layer 鏡像）",
    "sewerSourceUrl": "https://gis.liquid.net.tw/arcgis/rest/services/Hosted/%E9%9B%A8%E6%B0%B4%E4%B8%8B%E6%B0%B4%E9%81%93%E6%B8%85%E6%B7%A4%E7%B4%80%E9%8C%84/FeatureServer/13",
    "roadSource": "OpenStreetMap via Overpass API",
    "demSource": "AWS Open Data Terrain Tiles (Terrarium)",
    "note": "官方近5年淹水災點目前資料內容更新至2025年；2026年當年度尚未完整納入。本成果為篩選用空間分析，不取代主管機關認定、現勘或工程設計。"
  }
}