{
  "type": "FeatureCollection",
  "features": [
    {
      "type": "Feature",
      "geometry": {
        "type": "LineString",
        "coordinates": [
          [
            121.77373635380572,
            24.665833278831087
          ],
          [
            121.77408472765941,
            24.665922083037604
          ]
        ]
      },
      "properties": {
        "管線類別": "主幹管",
        "管線編號": "E08~E08C",
        "管型": "1",
        "管寬": 1.49,
        "管高": 1.49,
        "管長": 36.61,
        "材質": "RCP",
        "坡度": 0.574,
        "設計流量": 0,
        "CITY_ID": "10002",
        "TOWN_ID": "1000208"
      }
    },
    {
      "type": "Feature",
      "geometry": {
        "type": "LineString",
        "coordinates": [
          [
            121.77304515139859,
            24.66563656351683
          ],
          [
            121.77342585382269,
            24.665732353380246
          ]
        ]
      },
      "properties": {
        "管線類別": "主幹管",
        "管線編號": "E08A~E08B",
        "管型": "1",
        "管寬": 1.5,
        "管高": 1.49,
        "管長": 39.97,
        "材質": "RCP",
        "坡度": 0.518,
        "設計流量": 0,
        "CITY_ID": "10002",
        "TOWN_ID": "1000208"
      }
    },
    {
      "type": "Feature",
      "geometry": {
        "type": "LineString",
        "coordinates": [
          [
            121.77342585382269,
            24.665732353380246
          ],
          [
            121.77373635380572,
            24.665833278831087
          ]
        ]
      },
      "properties": {
        "管線類別": "主幹管",
        "管線編號": "E08B~E08",
        "管型": "1",
        "管寬": 1.51,
        "管高": 1.51,
        "管長": 33.36,
        "材質": "RCP",
        "坡度": 1.775,
        "設計流量": 0,
        "CITY_ID": "10002",
        "TOWN_ID": "1000208"
      }
    },
    {
      "type": "Feature",
      "geometry": {
        "type": "LineString",
        "coordinates": [
          [
            121.77408472765941,
            24.665922083037604
          ],
          [
            121.77443262576426,
            24.66602178932506
          ]
        ]
      },
      "properties": {
        "管線類別": "主幹管",
        "管線編號": "E08C~E08D",
        "管型": "1",
        "管寬": 1.5,
        "管高": 1.5,
        "管長": 43.65,
        "材質": "RCP",
        "坡度": 0.394,
        "設計流量": 0,
        "CITY_ID": "10002",
        "TOWN_ID": "1000208"
      }
    },
    {
      "type": "Feature",
      "geometry": {
        "type": "LineString",
        "coordinates": [
          [
            121.77277251001492,
            24.665580384624512
          ],
          [
            121.77304515139859,
            24.66563656351683
          ]
        ]
      },
      "properties": {
        "管線類別": "主幹管",
        "管線編號": "E09~E08A",
        "管型": "1",
        "管寬": 1.52,
        "管高": 1.52,
        "管長": 28.29,
        "材質": "RCP",
        "坡度": 0.177,
        "設計流量": 0,
        "CITY_ID": "10002",
        "TOWN_ID": "1000208"
      }
    },
    {
      "type": "Feature",
      "geometry": {
        "type": "LineString",
        "coordinates": [
          [
            121.77269222480982,
            24.665523166019252
          ],
          [
            121.7727430856978,
            24.66552210523189
          ]
        ]
      },
      "properties": {
        "管線類別": "主幹管",
        "管線編號": "E09B~E09R1",
        "管型": "1",
        "管寬": 2.53,
        "管高": 1.3,
        "管長": 51.77,
        "材質": "RCP",
        "坡度": 0.085,
        "設計流量": 0,
        "CITY_ID": "10002",
        "TOWN_ID": "1000208"
      }
    },
    {
      "type": "Feature",
      "geometry": {
        "type": "LineString",
        "coordinates": [
          [
            121.7727430856978,
            24.66552210523189
          ],
          [
            121.77273082459247,
            24.665571796599725
          ]
        ]
      },
      "properties": {
        "管線類別": "主幹管",
        "管線編號": "E09R1~E09R1-F1",
        "管型": "1",
        "管寬": 2.53,
        "管高": 1.3,
        "管長": 5.64,
        "材質": "RCP",
        "坡度": 1.241,
        "設計流量": 0,
        "CITY_ID": "10002",
        "TOWN_ID": "1000208"
      }
    },
    {
      "type": "Feature",
      "geometry": {
        "type": "LineString",
        "coordinates": [
          [
            121.77273082459247,
            24.665571796599725
          ],
          [
            121.77277251001492,
            24.665580384624512
          ]
        ]
      },
      "properties": {
        "管線類別": "主幹管",
        "管線編號": "E09R1-F1~E09",
        "管型": "1",
        "管寬": 1.52,
        "管高": 1.52,
        "管長": 4.33,
        "材質": "RCP",
        "坡度": 1.016,
        "設計流量": 0,
        "CITY_ID": "10002",
        "TOWN_ID": "1000208"
      }
    },
    {
      "type": "Feature",
      "geometry": {
        "type": "LineString",
        "coordinates": [
          [
            121.82521054275989,
            24.86030032252411
          ],
          [
            121.82523251821635,
            24.86032532214845
          ]
        ]
      },
      "properties": {
        "管線類別": "主幹管",
        "管線編號": "B10-1~B10R2",
        "管型": "5",
        "管寬": 1.2,
        "管高": 1.2,
        "管長": 50.92,
        "材質": "RCP",
        "坡度": -3.05949,
        "設計流量": 0,
        "CITY_ID": "10002",
        "TOWN_ID": "1000204"
      }
    },
    {
      "type": "Feature",
      "geometry": {
        "type": "LineString",
        "coordinates": [
          [
            121.82635617193658,
            24.86182423697379
          ],
          [
            121.8262233348219,
            24.861649867702525
          ]
        ]
      },
      "properties": {
        "管線類別": "主幹管",
        "管線編號": "B10-3A~B10-3B",
        "管型": "5",
        "管寬": 1.35,
        "管高": 1.35,
        "管長": 55.75,
        "材質": "RCP",
        "坡度": 0.60809,
        "設計流量": 0,
        "CITY_ID": "10002",
        "TOWN_ID": "1000204"
      }
    },
    {
      "type": "Feature",
      "geometry": {
        "type": "LineString",
        "coordinates": [
          [
            121.8262233348219,
            24.861649867702525
          ],
          [
            121.82589543177694,
            24.86121828623339
          ]
        ]
      },
      "properties": {
        "管線類別": "主幹管",
        "管線編號": "B10-3B~B10-3",
        "管型": "5",
        "管寬": 1.35,
        "管高": 1.35,
        "管長": 58.17,
        "材質": "RCP",
        "坡度": 0.28194,
        "設計流量": 0,
        "CITY_ID": "10002",
        "TOWN_ID": "1000204"
      }
    },
    {
      "type": "Feature",
      "geometry": {
        "type": "LineString",
        "coordinates": [
          [
            121.82589543177694,
            24.86121828623339
          ],
          [
            121.82562092998229,
            24.860863543158953
          ]
        ]
      },
      "properties": {
        "管線類別": "主幹管",
        "管線編號": "B10-3~B10-3C",
        "管型": "5",
        "管寬": 1.5,
        "管高": 1.5,
        "管長": 48.1,
        "材質": "RCP",
        "坡度": 0.58419,
        "設計流量": 0,
        "CITY_ID": "10002",
        "TOWN_ID": "1000204"
      }
    },
    {
      "type": "Feature",
      "geometry": {
        "type": "LineString",
        "coordinates": [
          [
            121.82562092998229,
            24.860863543158953
          ],
          [
            121.82534192762809,
            24.860510205065985
          ]
        ]
      },
      "properties": {
        "管線類別": "主幹管",
        "管線編號": "B10-3C~B10-3D",
        "管型": "5",
        "管寬": 1.5,
        "管高": 1.5,
        "管長": 48.24,
        "材質": "RCP",
        "坡度": -0.21352,
        "設計流量": 0,
        "CITY_ID": "10002",
        "TOWN_ID": "1000204"
      }
    },
    {
      "type": "Feature",
      "geometry": {
        "type": "LineString",
        "coordinates": [
          [
            121.82534192762809,
            24.860510205065985
          ],
          [
            121.82532225093007,
            24.86033497342992
          ]
        ]
      },
      "properties": {
        "管線類別": "主幹管",
        "管線編號": "B10-3D~B10-R1",
        "管型": "5",
        "管寬": 1.5,
        "管高": 1.5,
        "管長": 19.51,
        "材質": "RCP",
        "坡度": -0.49201,
        "設計流量": 0,
        "CITY_ID": "10002",
        "TOWN_ID": "1000204"
      }
    },
    {
      "type": "Feature",
      "geometry": {
        "type": "LineString",
        "coordinates": [
          [
            121.82289245714139,
            24.863247177668367
          ],
          [
            121.82314614862969,
            24.86307119097536
          ]
        ]
      },
      "properties": {
        "管線類別": "主幹管",
        "管線編號": "B18-F10~B18-09B",
        "管型": "1",
        "管寬": 2,
        "管高": 1.82,
        "管長": 56.67,
        "材質": "RCP",
        "坡度": 1.56688,
        "設計流量": 0,
        "CITY_ID": "10002",
        "TOWN_ID": "1000204"
      }
    },
    {
      "type": "Feature",
      "geometry": {
        "type": "LineString",
        "coordinates": [
          [
            121.82314614862969,
            24.86307119097536
          ],
          [
            121.82337750613782,
            24.862910689404288
          ]
        ]
      },
      "properties": {
        "管線類別": "主幹管",
        "管線編號": "B18-09B~B18-08",
        "管型": "1",
        "管寬": 2.02,
        "管高": 1.8,
        "管長": 29.37,
        "材質": "RCP",
        "坡度": 2.14823,
        "設計流量": 0,
        "CITY_ID": "10002",
        "TOWN_ID": "1000204"
      }
    },
    {
      "type": "Feature",
      "geometry": {
        "type": "LineString",
        "coordinates": [
          [
            121.82337750613782,
            24.862910689404288
          ],
          [
            121.8235150795303,
            24.862813558307774
          ]
        ]
      },
      "properties": {
        "管線類別": "主幹管",
        "管線編號": "B18-08~B18-08A",
        "管型": "1",
        "管寬": 2.01,
        "管高": 1.77,
        "管長": 17.58,
        "材質": "RCP",
        "坡度": 0.87261,
        "設計流量": 0,
        "CITY_ID": "10002",
        "TOWN_ID": "1000204"
      }
    },
    {
      "type": "Feature",
      "geometry": {
        "type": "LineString",
        "coordinates": [
          [
            121.8235150795303,
            24.862813558307774
          ],
          [
            121.82369568402154,
            24.8626860442348
          ]
        ]
      },
      "properties": {
        "管線類別": "主幹管",
        "管線編號": "B18-08A~B18-07",
        "管型": "1",
        "管寬": 2.03,
        "管高": 1.85,
        "管長": 23.08,
        "材質": "RCP",
        "坡度": 1.87438,
        "設計流量": 0,
        "CITY_ID": "10002",
        "TOWN_ID": "1000204"
      }
    },
    {
      "type": "Feature",
      "geometry": {
        "type": "LineString",
        "coordinates": [
          [
            121.82369568402154,
            24.8626860442348
          ],
          [
            121.82375723478819,
            24.862640050523247
          ]
        ]
      },
      "properties": {
        "管線類別": "主幹管",
        "管線編號": "B18-07~B18-07A",
        "管型": "1",
        "管寬": 2.02,
        "管高": 1.83,
        "管長": 8.04,
        "材質": "RCP",
        "坡度": -0.17661,
        "設計流量": 0,
        "CITY_ID": "10002",
        "TOWN_ID": "1000204"
      }
    },
    {
      "type": "Feature",
      "geometry": {
        "type": "LineString",
        "coordinates": [
          [
            121.82375723478819,
            24.862640050523247
          ],
          [
            121.82413566177974,
            24.862364515800945
          ]
        ]
      },
      "properties": {
        "管線類別": "主幹管",
        "管線編號": "B18-07A~B18-06",
        "管型": "1",
        "管寬": 2.02,
        "管高": 1.83,
        "管長": 48.93,
        "材質": "RCP",
        "坡度": -0.80789,
        "設計流量": 0,
        "CITY_ID": "10002",
        "TOWN_ID": "1000204"
      }
    },
    {
      "type": "Feature",
      "geometry": {
        "type": "LineString",
        "coordinates": [
          [
            121.82413566177974,
            24.862364515800945
          ],
          [
            121.82423671146944,
            24.86215850927342
          ]
        ]
      },
      "properties": {
        "管線類別": "主幹管",
        "管線編號": "B18-06~B18-R1",
        "管型": "1",
        "管寬": 2.04,
        "管高": 1.8,
        "管長": 25,
        "材質": "RCP",
        "坡度": -0.8084,
        "設計流量": 0,
        "CITY_ID": "10002",
        "TOWN_ID": "1000204"
      }
    },
    {
      "type": "Feature",
      "geometry": {
        "type": "LineString",
        "coordinates": [
          [
            121.82422561188577,
            24.86204546839441
          ],
          [
            121.82412963138921,
            24.861669685993686
          ]
        ]
      },
      "properties": {
        "管線類別": "主幹管",
        "管線編號": "BW070~BW071",
        "管型": "7",
        "管寬": 5.09,
        "管高": 1.38,
        "管長": 42.74,
        "材質": "RCP",
        "坡度": 0.35095,
        "設計流量": 0,
        "CITY_ID": "10002",
        "TOWN_ID": "1000204"
      }
    },
    {
      "type": "Feature",
      "geometry": {
        "type": "LineString",
        "coordinates": [
          [
            121.82412963138921,
            24.861669685993686
          ],
          [
            121.82430087094366,
            24.861543442242745
          ]
        ]
      },
      "properties": {
        "管線類別": "主幹管",
        "管線編號": "BW071~BW072",
        "管型": "7",
        "管寬": 5.13,
        "管高": 1.39,
        "管長": 22.25,
        "材質": "RCP",
        "坡度": -0.4045,
        "設計流量": 0,
        "CITY_ID": "10002",
        "TOWN_ID": "1000204"
      }
    },
    {
      "type": "Feature",
      "geometry": {
        "type": "LineString",
        "coordinates": [
          [
            121.82430087094366,
            24.861543442242745
          ],
          [
            121.82425229184967,
            24.86149354231232
          ]
        ]
      },
      "properties": {
        "管線類別": "主幹管",
        "管線編號": "BW072~BW067",
        "管型": "7",
        "管寬": 5.72,
        "管高": 0.83,
        "管長": 7.39,
        "材質": "RCP",
        "坡度": 12.58055,
        "設計流量": 0,
        "CITY_ID": "10002",
        "TOWN_ID": "1000204"
      }
    },
    {
      "type": "Feature",
      "geometry": {
        "type": "LineString",
        "coordinates": [
          [
            121.82412432504083,
            24.861169197164045
          ],
          [
            121.82425229184967,
            24.86149354231232
          ]
        ]
      },
      "properties": {
        "管線類別": "主幹管",
        "管線編號": "BW066~BW067",
        "管型": "7",
        "管寬": 6.19,
        "管高": 1.71,
        "管長": 38.18,
        "材質": "RCP",
        "坡度": 0.02619,
        "設計流量": 0,
        "CITY_ID": "10002",
        "TOWN_ID": "1000204"
      }
    },
    {
      "type": "Feature",
      "geometry": {
        "type": "LineString",
        "coordinates": [
          [
            121.82448632723575,
            24.861504817928026
          ],
          [
            121.82478702480238,
            24.86159347256342
          ]
        ]
      },
      "properties": {
        "管線類別": "主幹管",
        "管線編號": "BW068~B16-R1",
        "管型": "7",
        "管寬": 6.2,
        "管高": 1.27,
        "管長": 31.94,
        "材質": "RCP",
        "坡度": -1.05209,
        "設計流量": 0,
        "CITY_ID": "10002",
        "TOWN_ID": "1000204"
      }
    },
    {
      "type": "Feature",
      "geometry": {
        "type": "LineString",
        "coordinates": [
          [
            121.82521847305692,
            24.860707904694305
          ],
          [
            121.82518958054241,
            24.860421806401796
          ]
        ]
      },
      "properties": {
        "管線類別": "主幹管",
        "管線編號": "BW075~BW076",
        "管型": "7",
        "管寬": 6.21,
        "管高": 2.92,
        "管長": 31.83,
        "材質": "RCP",
        "坡度": 0.72269,
        "設計流量": 0,
        "CITY_ID": "10002",
        "TOWN_ID": "1000204"
      }
    },
    {
      "type": "Feature",
      "geometry": {
        "type": "LineString",
        "coordinates": [
          [
            121.82533520553483,
            24.861038864518562
          ],
          [
            121.82521847305692,
            24.860707904694305
          ]
        ]
      },
      "properties": {
        "管線類別": "主幹管",
        "管線編號": "BW074~BW075",
        "管型": "7",
        "管寬": 6.81,
        "管高": 1.37,
        "管長": 38.51,
        "材質": "RCP",
        "坡度": 0.25966,
        "設計流量": 0,
        "CITY_ID": "10002",
        "TOWN_ID": "1000204"
      }
    },
    {
      "type": "Feature",
      "geometry": {
        "type": "LineString",
        "coordinates": [
          [
            121.82401050395406,
            24.860922983341762
          ],
          [
            121.82412432504083,
            24.861169197164045
          ]
        ]
      },
      "properties": {
        "管線類別": "主幹管",
        "管線編號": "BW065~BW066",
        "管型": "7",
        "管寬": 7.25,
        "管高": 1.44,
        "管長": 44.42,
        "材質": "RCP",
        "坡度": 0.24766,
        "設計流量": 0,
        "CITY_ID": "10002",
        "TOWN_ID": "1000204"
      }
    },
    {
      "type": "Feature",
      "geometry": {
        "type": "LineString",
        "coordinates": [
          [
            121.82425229184967,
            24.86149354231232
          ],
          [
            121.82448632723575,
            24.861504817928026
          ]
        ]
      },
      "properties": {
        "管線類別": "主幹管",
        "管線編號": "BW067~BW068",
        "管型": "7",
        "管寬": 7.63,
        "管高": 1.42,
        "管長": 23.69,
        "材質": "RCP",
        "坡度": 0.71775,
        "設計流量": 0,
        "CITY_ID": "10002",
        "TOWN_ID": "1000204"
      }
    },
    {
      "type": "Feature",
      "geometry": {
        "type": "LineString",
        "coordinates": [
          [
            121.82518958054241,
            24.860421806401796
          ],
          [
            121.82530738291385,
            24.86029977449116
          ]
        ]
      },
      "properties": {
        "管線類別": "主幹管",
        "管線編號": "BW076~BW077",
        "管型": "7",
        "管寬": 9.44,
        "管高": 3.16,
        "管長": 18.01,
        "材質": "RCP",
        "坡度": 3.99732,
        "設計流量": 0,
        "CITY_ID": "10002",
        "TOWN_ID": "1000204"
      }
    },
    {
      "type": "Feature",
      "geometry": {
        "type": "LineString",
        "coordinates": [
          [
            121.82478702480238,
            24.86159347256342
          ],
          [
            121.82511215923965,
            24.86134891618902
          ]
        ]
      },
      "properties": {
        "管線類別": "主幹管",
        "管線編號": "B16-R1~B14-R1",
        "管型": "1",
        "管寬": 6.1,
        "管高": 2.48,
        "管長": 42.59,
        "材質": "RCP",
        "坡度": -0.15029,
        "設計流量": 0,
        "CITY_ID": "10002",
        "TOWN_ID": "1000204"
      }
    },
    {
      "type": "Feature",
      "geometry": {
        "type": "LineString",
        "coordinates": [
          [
            121.82511215923965,
            24.86134891618902
          ],
          [
            121.82533520553483,
            24.861038864518562
          ]
        ]
      },
      "properties": {
        "管線類別": "主幹管",
        "管線編號": "B14-R1~BW074",
        "管型": "1",
        "管寬": 6.1,
        "管高": 2.46,
        "管長": 41.08,
        "材質": "RCP",
        "坡度": 1.8987,
        "設計流量": 0,
        "CITY_ID": "10002",
        "TOWN_ID": "1000204"
      }
    },
    {
      "type": "Feature",
      "geometry": {
        "type": "LineString",
        "coordinates": [
          [
            121.84617128803526,
            24.594269507690814
          ],
          [
            121.84629462408203,
            24.594247072899
          ]
        ]
      },
      "properties": {
        "管線類別": "主幹管",
        "管線編號": "R16~R16-F1",
        "管型": "1",
        "管寬": 3.48,
        "管高": 3,
        "管長": 35.77,
        "材質": "RCP",
        "坡度": 0.28894,
        "設計流量": 0,
        "CITY_ID": "10002",
        "TOWN_ID": "1000203"
      }
    },
    {
      "type": "Feature",
      "geometry": {
        "type": "LineString",
        "coordinates": [
          [
            121.84629462408203,
            24.594247072899
          ],
          [
            121.84655474744223,
            24.594215230052825
          ]
        ]
      },
      "properties": {
        "管線類別": "主幹管",
        "管線編號": "R16-F1~R15",
        "管型": "1",
        "管寬": 3.6,
        "管高": 3,
        "管長": 26.58,
        "材質": "RCP",
        "坡度": 0.29497,
        "設計流量": 0,
        "CITY_ID": "10002",
        "TOWN_ID": "1000203"
      }
    },
    {
      "type": "Feature",
      "geometry": {
        "type": "LineString",
        "coordinates": [
          [
            121.84655474744223,
            24.594215230052825
          ],
          [
            121.84715341978183,
            24.594155572069845
          ]
        ]
      },
      "properties": {
        "管線類別": "主幹管",
        "管線編號": "R15~R14",
        "管型": "1",
        "管寬": 3.58,
        "管高": 3,
        "管長": 60.99,
        "材質": "RCP",
        "坡度": 0.09232,
        "設計流量": 0,
        "CITY_ID": "10002",
        "TOWN_ID": "1000203"
      }
    },
    {
      "type": "Feature",
      "geometry": {
        "type": "LineString",
        "coordinates": [
          [
            121.84715341978183,
            24.594155572069845
          ],
          [
            121.84770197062022,
            24.594117725580254
          ]
        ]
      },
      "properties": {
        "管線類別": "主幹管",
        "管線編號": "R14~R13",
        "管型": "1",
        "管寬": 3.55,
        "管高": 3.05,
        "管長": 55.71,
        "材質": "RCP",
        "坡度": -0.39353,
        "設計流量": 0,
        "CITY_ID": "10002",
        "TOWN_ID": "1000203"
      }
    },
    {
      "type": "Feature",
      "geometry": {
        "type": "LineString",
        "coordinates": [
          [
            121.84770197062022,
            24.594117725580254
          ],
          [
            121.84779400391939,
            24.594113036221838
          ]
        ]
      },
      "properties": {
        "管線類別": "主幹管",
        "管線編號": "R13~R13-F1",
        "管型": "1",
        "管寬": 3.59,
        "管高": 3.1,
        "管長": 9.34,
        "材質": "RCP",
        "坡度": -0.4027,
        "設計流量": 0,
        "CITY_ID": "10002",
        "TOWN_ID": "1000203"
      }
    },
    {
      "type": "Feature",
      "geometry": {
        "type": "LineString",
        "coordinates": [
          [
            121.84669733612895,
            24.594499729227476
          ],
          [
            121.84703643218243,
            24.5942684147241
          ]
        ]
      },
      "properties": {
        "管線類別": "主幹管",
        "管線編號": "R14A-F1~R14A",
        "管型": "1",
        "管寬": 3.56,
        "管高": 3.05,
        "管長": 42.85,
        "材質": "RCP",
        "坡度": 0.01748,
        "設計流量": 0,
        "CITY_ID": "10002",
        "TOWN_ID": "1000203"
      }
    },
    {
      "type": "Feature",
      "geometry": {
        "type": "LineString",
        "coordinates": [
          [
            121.84703643218243,
            24.5942684147241
          ],
          [
            121.84755228973432,
            24.594230409805867
          ]
        ]
      },
      "properties": {
        "管線類別": "主幹管",
        "管線編號": "R14A~R13A",
        "管型": "1",
        "管寬": 3.5,
        "管高": 3.02,
        "管長": 52.41,
        "材質": "RCP",
        "坡度": 0.32843,
        "設計流量": 0,
        "CITY_ID": "10002",
        "TOWN_ID": "1000203"
      }
    },
    {
      "type": "Feature",
      "geometry": {
        "type": "LineString",
        "coordinates": [
          [
            121.84755228973432,
            24.594230409805867
          ],
          [
            121.84766220579583,
            24.594186338364263
          ]
        ]
      },
      "properties": {
        "管線類別": "主幹管",
        "管線編號": "R13A~R13AF1",
        "管型": "1",
        "管寬": 3.52,
        "管高": 3.02,
        "管長": 12.16,
        "材質": "RCP",
        "坡度": -1.60441,
        "設計流量": 0,
        "CITY_ID": "10002",
        "TOWN_ID": "1000203"
      }
    },
    {
      "type": "Feature",
      "geometry": {
        "type": "LineString",
        "coordinates": [
          [
            121.84766220579583,
            24.594186338364263
          ],
          [
            121.84785260551696,
            24.594109988669675
          ]
        ]
      },
      "properties": {
        "管線類別": "主幹管",
        "管線編號": "R13AF1~R12",
        "管型": "1",
        "管寬": 3.6,
        "管高": 3.1,
        "管長": 21.06,
        "材質": "RCP",
        "坡度": -1.60838,
        "設計流量": 0,
        "CITY_ID": "10002",
        "TOWN_ID": "1000203"
      }
    },
    {
      "type": "Feature",
      "geometry": {
        "type": "LineString",
        "coordinates": [
          [
            121.84785260551696,
            24.594109988669675
          ],
          [
            121.84850025490421,
            24.594088879611085
          ]
        ]
      },
      "properties": {
        "管線類別": "主幹管",
        "管線編號": "R12~R11",
        "管型": "2",
        "管寬": 5,
        "管高": 3.01,
        "管長": 65.63,
        "材質": "RCP",
        "坡度": 0.17388,
        "設計流量": 0,
        "CITY_ID": "10002",
        "TOWN_ID": "1000203"
      }
    },
    {
      "type": "Feature",
      "geometry": {
        "type": "LineString",
        "coordinates": [
          [
            121.84850025490421,
            24.594088879611085
          ],
          [
            121.84914850616265,
            24.59408971194992
          ]
        ]
      },
      "properties": {
        "管線類別": "主幹管",
        "管線編號": "R11~R10",
        "管型": "2",
        "管寬": 5.01,
        "管高": 3.01,
        "管長": 65.65,
        "材質": "RCP",
        "坡度": 0.10324,
        "設計流量": 0,
        "CITY_ID": "10002",
        "TOWN_ID": "1000203"
      }
    },
    {
      "type": "Feature",
      "geometry": {
        "type": "LineString",
        "coordinates": [
          [
            121.84914850616265,
            24.59408971194992
          ],
          [
            121.84978746614617,
            24.594099323461833
          ]
        ]
      },
      "properties": {
        "管線類別": "主幹管",
        "管線編號": "R10~R09",
        "管型": "2",
        "管寬": 5.01,
        "管高": 2.85,
        "管長": 64.72,
        "材質": "RCP",
        "坡度": 0.61593,
        "設計流量": 0,
        "CITY_ID": "10002",
        "TOWN_ID": "1000203"
      }
    },
    {
      "type": "Feature",
      "geometry": {
        "type": "LineString",
        "coordinates": [
          [
            121.84978746614617,
            24.594099323461833
          ],
          [
            121.84995295958115,
            24.59410549420289
          ]
        ]
      },
      "properties": {
        "管線類別": "主幹管",
        "管線編號": "R09~R08",
        "管型": "2",
        "管寬": 5,
        "管高": 2.86,
        "管長": 128.43,
        "材質": "RCP",
        "坡度": 0.20615,
        "設計流量": 0,
        "CITY_ID": "10002",
        "TOWN_ID": "1000203"
      }
    },
    {
      "type": "Feature",
      "geometry": {
        "type": "LineString",
        "coordinates": [
          [
            121.84627748153149,
            24.594487762047084
          ],
          [
            121.84629462408203,
            24.594247072899
          ]
        ]
      },
      "properties": {
        "管線類別": "主幹管",
        "管線編號": "R16-F2~R16-F1",
        "管型": "1",
        "管寬": 2,
        "管高": 2.6,
        "管長": 26.72,
        "材質": "RCP",
        "坡度": -4.06565,
        "設計流量": 0,
        "CITY_ID": "10002",
        "TOWN_ID": "1000203"
      }
    },
    {
      "type": "Feature",
      "geometry": {
        "type": "LineString",
        "coordinates": [
          [
            121.8461685503653,
            24.59421235214241
          ],
          [
            121.84619588665592,
            24.594209257476194
          ]
        ]
      },
      "properties": {
        "管線類別": "主幹管",
        "管線編號": "R12-04~R12-F4",
        "管型": "1",
        "管寬": 3.53,
        "管高": 3.02,
        "管長": 13,
        "材質": "RCP",
        "坡度": 0.6577,
        "設計流量": 0,
        "CITY_ID": "10002",
        "TOWN_ID": "1000203"
      }
    },
    {
      "type": "Feature",
      "geometry": {
        "type": "LineString",
        "coordinates": [
          [
            121.84619588665592,
            24.594209257476194
          ],
          [
            121.84648894944095,
            24.594205335113763
          ]
        ]
      },
      "properties": {
        "管線類別": "主幹管",
        "管線編號": "R12-F4~R12-03",
        "管型": "1",
        "管寬": 3.53,
        "管高": 1.3,
        "管長": 29.68,
        "材質": "RCP",
        "坡度": 0.65871,
        "設計流量": 0,
        "CITY_ID": "10002",
        "TOWN_ID": "1000203"
      }
    },
    {
      "type": "Feature",
      "geometry": {
        "type": "LineString",
        "coordinates": [
          [
            121.84648894944095,
            24.594205335113763
          ],
          [
            121.8472120609053,
            24.59413642665171
          ]
        ]
      },
      "properties": {
        "管線類別": "主幹管",
        "管線編號": "R12-03~R12-02",
        "管型": "1",
        "管寬": 3.51,
        "管高": 2.95,
        "管長": 73.63,
        "材質": "RCP",
        "坡度": 0.27355,
        "設計流量": 0,
        "CITY_ID": "10002",
        "TOWN_ID": "1000203"
      }
    },
    {
      "type": "Feature",
      "geometry": {
        "type": "LineString",
        "coordinates": [
          [
            121.8472120609053,
            24.59413642665171
          ],
          [
            121.84771180986755,
            24.594099325095467
          ]
        ]
      },
      "properties": {
        "管線類別": "主幹管",
        "管線編號": "R12-02~R12-01",
        "管型": "1",
        "管寬": 3.49,
        "管高": 2.9,
        "管長": 50.78,
        "材質": "RCP",
        "坡度": -0.70618,
        "設計流量": 0,
        "CITY_ID": "10002",
        "TOWN_ID": "1000203"
      }
    },
    {
      "type": "Feature",
      "geometry": {
        "type": "LineString",
        "coordinates": [
          [
            121.84771180986755,
            24.594099325095467
          ],
          [
            121.84785260551696,
            24.594109988669675
          ]
        ]
      },
      "properties": {
        "管線類別": "主幹管",
        "管線編號": "R12-01~R12",
        "管型": "1",
        "管寬": 3.52,
        "管高": 3.04,
        "管長": 14.31,
        "材質": "RCP",
        "坡度": 0.46397,
        "設計流量": 0,
        "CITY_ID": "10002",
        "TOWN_ID": "1000203"
      }
    },
    {
      "type": "Feature",
      "geometry": {
        "type": "LineString",
        "coordinates": [
          [
            121.84769461701131,
            24.594244225470597
          ],
          [
            121.84785489352596,
            24.594155081161738
          ]
        ]
      },
      "properties": {
        "管線類別": "主幹管",
        "管線編號": "R12-F6~R12-L",
        "管型": "2",
        "管寬": 5,
        "管高": 3.04,
        "管長": 19,
        "材質": "RCP",
        "坡度": 0.17392,
        "設計流量": 0,
        "CITY_ID": "10002",
        "TOWN_ID": "1000203"
      }
    },
    {
      "type": "Feature",
      "geometry": {
        "type": "LineString",
        "coordinates": [
          [
            121.84785489352596,
            24.594155081161738
          ],
          [
            121.84850111189698,
            24.594134015402147
          ]
        ]
      },
      "properties": {
        "管線類別": "主幹管",
        "管線編號": "R12-L~R11-L",
        "管型": "2",
        "管寬": 5,
        "管高": 3.04,
        "管長": 65.49,
        "材質": "RCP",
        "坡度": 0.17427,
        "設計流量": 0,
        "CITY_ID": "10002",
        "TOWN_ID": "1000203"
      }
    },
    {
      "type": "Feature",
      "geometry": {
        "type": "LineString",
        "coordinates": [
          [
            121.84850111189698,
            24.594134015402147
          ],
          [
            121.84914783332455,
            24.594134847740673
          ]
        ]
      },
      "properties": {
        "管線類別": "主幹管",
        "管線編號": "R11-L~R10-L",
        "管型": "2",
        "管寬": 5.01,
        "管高": 3.01,
        "管長": 65.5,
        "材質": "RCP",
        "坡度": 0.10349,
        "設計流量": 0,
        "CITY_ID": "10002",
        "TOWN_ID": "1000203"
      }
    },
    {
      "type": "Feature",
      "geometry": {
        "type": "LineString",
        "coordinates": [
          [
            121.84914783332455,
            24.594134847740673
          ],
          [
            121.84978593362032,
            24.594144446179996
          ]
        ]
      },
      "properties": {
        "管線類別": "主幹管",
        "管線編號": "R10-L~R09-L",
        "管型": "2",
        "管寬": 5.01,
        "管高": 2.85,
        "管長": 64.63,
        "材質": "RCP",
        "坡度": 0.61677,
        "設計流量": 0,
        "CITY_ID": "10002",
        "TOWN_ID": "1000203"
      }
    },
    {
      "type": "Feature",
      "geometry": {
        "type": "LineString",
        "coordinates": [
          [
            121.84978593362032,
            24.594144446179996
          ],
          [
            121.84995181307205,
            24.594150630380923
          ]
        ]
      },
      "properties": {
        "管線類別": "主幹管",
        "管線編號": "R09-L~R08-L",
        "管型": "2",
        "管寬": 5,
        "管高": 2.86,
        "管長": 128.45,
        "材質": "RCP",
        "坡度": 0.20612,
        "設計流量": 0,
        "CITY_ID": "10002",
        "TOWN_ID": "1000203"
      }
    },
    {
      "type": "Feature",
      "geometry": {
        "type": "LineString",
        "coordinates": [
          [
            121.8462156688849,
            24.595771600319395
          ],
          [
            121.84685162357565,
            24.595809642151334
          ]
        ]
      },
      "properties": {
        "管線類別": "主幹管",
        "管線編號": "L31A~L31B",
        "管型": "1",
        "管寬": 1.21,
        "管高": 1.21,
        "管長": 65.61,
        "材質": "RCP",
        "坡度": 0.34021,
        "設計流量": 0,
        "CITY_ID": "10002",
        "TOWN_ID": "1000203"
      }
    },
    {
      "type": "Feature",
      "geometry": {
        "type": "LineString",
        "coordinates": [
          [
            121.84685162357565,
            24.595809642151334
          ],
          [
            121.84759148951841,
            24.595853625622965
          ]
        ]
      },
      "properties": {
        "管線類別": "主幹管",
        "管線編號": "L31B~L31",
        "管型": "1",
        "管寬": 1.4,
        "管高": 1.24,
        "管長": 75.09,
        "材質": "RCP",
        "坡度": 0.41126,
        "設計流量": 0,
        "CITY_ID": "10002",
        "TOWN_ID": "1000203"
      }
    },
    {
      "type": "Feature",
      "geometry": {
        "type": "LineString",
        "coordinates": [
          [
            121.84759148951841,
            24.595853625622965
          ],
          [
            121.84871827692196,
            24.595924442018365
          ]
        ]
      },
      "properties": {
        "管線類別": "主幹管",
        "管線編號": "L31~L30",
        "管型": "1",
        "管寬": 1.41,
        "管高": 1.24,
        "管長": 114.39,
        "材質": "RCP",
        "坡度": 0.20268,
        "設計流量": 0,
        "CITY_ID": "10002",
        "TOWN_ID": "1000203"
      }
    },
    {
      "type": "Feature",
      "geometry": {
        "type": "LineString",
        "coordinates": [
          [
            121.84871827692196,
            24.595924442018365
          ],
          [
            121.84876964977643,
            24.595927005159645
          ]
        ]
      },
      "properties": {
        "管線類別": "主幹管",
        "管線編號": "L30~L30-F10",
        "管型": "1",
        "管寬": 1.48,
        "管高": 1.23,
        "管長": 5.21,
        "材質": "RCP",
        "坡度": 0.22091,
        "設計流量": 0,
        "CITY_ID": "10002",
        "TOWN_ID": "1000203"
      }
    },
    {
      "type": "Feature",
      "geometry": {
        "type": "LineString",
        "coordinates": [
          [
            121.84808600489576,
            24.594948027590657
          ],
          [
            121.8482193957323,
            24.59511838785
          ]
        ]
      },
      "properties": {
        "管線類別": "主幹管",
        "管線編號": "L30F1~L30F1-1",
        "管型": "2",
        "管寬": 2.9,
        "管高": 2.01,
        "管長": 23.21,
        "材質": "RCP",
        "坡度": -0.16288,
        "設計流量": 0,
        "CITY_ID": "10002",
        "TOWN_ID": "1000203"
      }
    },
    {
      "type": "Feature",
      "geometry": {
        "type": "LineString",
        "coordinates": [
          [
            121.8482193957323,
            24.59511838785
          ],
          [
            121.84833362550381,
            24.59539480262987
          ]
        ]
      },
      "properties": {
        "管線類別": "主幹管",
        "管線編號": "L30F1-1~L30-F2",
        "管型": "2",
        "管寬": 2.9,
        "管高": 2.01,
        "管長": 32.73,
        "材質": "RCP",
        "坡度": -0.16698,
        "設計流量": 0,
        "CITY_ID": "10002",
        "TOWN_ID": "1000203"
      }
    },
    {
      "type": "Feature",
      "geometry": {
        "type": "LineString",
        "coordinates": [
          [
            121.84833362550381,
            24.59539480262987
          ],
          [
            121.8487268324767,
            24.595689289512748
          ]
        ]
      },
      "properties": {
        "管線類別": "主幹管",
        "管線編號": "L30-F2~L30-1-1",
        "管型": "2",
        "管寬": 2.78,
        "管高": 2.4,
        "管長": 51.48,
        "材質": "RCP",
        "坡度": -0.16036,
        "設計流量": 0,
        "CITY_ID": "10002",
        "TOWN_ID": "1000203"
      }
    },
    {
      "type": "Feature",
      "geometry": {
        "type": "LineString",
        "coordinates": [
          [
            121.8487268324767,
            24.595689289512748
          ],
          [
            121.84883118976325,
            24.595816351412413
          ]
        ]
      },
      "properties": {
        "管線類別": "主幹管",
        "管線編號": "L30-1-1~L30-1",
        "管型": "2",
        "管寬": 2.78,
        "管高": 2.4,
        "管長": 17.6,
        "材質": "RCP",
        "坡度": -0.16728,
        "設計流量": 0,
        "CITY_ID": "10002",
        "TOWN_ID": "1000203"
      }
    },
    {
      "type": "Feature",
      "geometry": {
        "type": "LineString",
        "coordinates": [
          [
            121.84883118976325,
            24.595816351412413
          ],
          [
            121.84876964977643,
            24.595927005159645
          ]
        ]
      },
      "properties": {
        "管線類別": "主幹管",
        "管線編號": "L30-1~L30-F10",
        "管型": "2",
        "管寬": 3.6,
        "管高": 2.5,
        "管長": 13.75,
        "材質": "RCP",
        "坡度": 3.5322,
        "設計流量": 0,
        "CITY_ID": "10002",
        "TOWN_ID": "1000203"
      }
    },
    {
      "type": "Feature",
      "geometry": {
        "type": "LineString",
        "coordinates": [
          [
            121.84883734771456,
            24.596022313463372
          ],
          [
            121.84868417507715,
            24.596531149484704
          ]
        ]
      },
      "properties": {
        "管線類別": "主幹管",
        "管線編號": "L30-F3~L28-L",
        "管型": "2",
        "管寬": 3.51,
        "管高": 2.26,
        "管長": 58.46,
        "材質": "RCP",
        "坡度": -0.31103,
        "設計流量": 0,
        "CITY_ID": "10002",
        "TOWN_ID": "1000203"
      }
    },
    {
      "type": "Feature",
      "geometry": {
        "type": "LineString",
        "coordinates": [
          [
            121.84873239664161,
            24.59654082697021
          ],
          [
            121.84862194979289,
            24.596634418076583
          ]
        ]
      },
      "properties": {
        "管線類別": "主幹管",
        "管線編號": "L28~L27",
        "管型": "2",
        "管寬": 3.56,
        "管高": 2.26,
        "管長": 17.88,
        "材質": "RCP",
        "坡度": -0.31108,
        "設計流量": 0,
        "CITY_ID": "10002",
        "TOWN_ID": "1000203"
      }
    },
    {
      "type": "Feature",
      "geometry": {
        "type": "LineString",
        "coordinates": [
          [
            121.84811719889396,
            24.59492630197895
          ],
          [
            121.84837310556223,
            24.595367468055212
          ]
        ]
      },
      "properties": {
        "管線類別": "主幹管",
        "管線編號": "L30F4~L30-F5",
        "管型": "2",
        "管寬": 3.4,
        "管高": 2,
        "管長": 55.31,
        "材質": "RCP",
        "坡度": -0.02734,
        "設計流量": 0,
        "CITY_ID": "10002",
        "TOWN_ID": "1000203"
      }
    },
    {
      "type": "Feature",
      "geometry": {
        "type": "LineString",
        "coordinates": [
          [
            121.84837310556223,
            24.595367468055212
          ],
          [
            121.84845937077898,
            24.595457589222676
          ]
        ]
      },
      "properties": {
        "管線類別": "主幹管",
        "管線編號": "L30-F5~L30-F5-1",
        "管型": "2",
        "管寬": 3.07,
        "管高": 2.57,
        "管長": 13.27,
        "材質": "RCP",
        "坡度": -0.02544,
        "設計流量": 0,
        "CITY_ID": "10002",
        "TOWN_ID": "1000203"
      }
    },
    {
      "type": "Feature",
      "geometry": {
        "type": "LineString",
        "coordinates": [
          [
            121.84845937077898,
            24.595457589222676
          ],
          [
            121.84876080586247,
            24.59566830650906
          ]
        ]
      },
      "properties": {
        "管線類別": "主幹管",
        "管線編號": "L30-F5-1~L30-1A",
        "管型": "2",
        "管寬": 3.07,
        "管高": 2.57,
        "管長": 38.43,
        "材質": "RCP",
        "坡度": -0.02732,
        "設計流量": 0,
        "CITY_ID": "10002",
        "TOWN_ID": "1000203"
      }
    },
    {
      "type": "Feature",
      "geometry": {
        "type": "LineString",
        "coordinates": [
          [
            121.84876080586247,
            24.59566830650906
          ],
          [
            121.84891051369782,
            24.59587132829616
          ]
        ]
      },
      "properties": {
        "管線類別": "主幹管",
        "管線編號": "L30-1A~L30-F6",
        "管型": "2",
        "管寬": 3,
        "管高": 2.65,
        "管長": 27.12,
        "材質": "RCP",
        "坡度": -0.02571,
        "設計流量": 0,
        "CITY_ID": "10002",
        "TOWN_ID": "1000203"
      }
    },
    {
      "type": "Feature",
      "geometry": {
        "type": "LineString",
        "coordinates": [
          [
            121.84887624656302,
            24.596025940084875
          ],
          [
            121.84884997263757,
            24.596154975045593
          ]
        ]
      },
      "properties": {
        "管線類別": "主幹管",
        "管線編號": "L30-F7~L29",
        "管型": "2",
        "管寬": 3.52,
        "管高": 2.25,
        "管長": 14.54,
        "材質": "RCP",
        "坡度": 1.55839,
        "設計流量": 0,
        "CITY_ID": "10002",
        "TOWN_ID": "1000203"
      }
    },
    {
      "type": "Feature",
      "geometry": {
        "type": "LineString",
        "coordinates": [
          [
            121.84884997263757,
            24.596154975045593
          ],
          [
            121.84873239664161,
            24.59654082697021
          ]
        ]
      },
      "properties": {
        "管線類別": "主幹管",
        "管線編號": "L29~L28",
        "管型": "2",
        "管寬": 3.25,
        "管高": 2.38,
        "管長": 44.37,
        "材質": "RCP",
        "坡度": 1.56415,
        "設計流量": 0,
        "CITY_ID": "10002",
        "TOWN_ID": "1000203"
      }
    },
    {
      "type": "Feature",
      "geometry": {
        "type": "LineString",
        "coordinates": [
          [
            121.84873239664161,
            24.59654082697021
          ],
          [
            121.84864517519544,
            24.59663398075829
          ]
        ]
      },
      "properties": {
        "管線類別": "主幹管",
        "管線編號": "L28~L28-1",
        "管型": "2",
        "管寬": 3.52,
        "管高": 2.27,
        "管長": 51.48,
        "材質": "RCP",
        "坡度": 0.02289,
        "設計流量": 0,
        "CITY_ID": "10002",
        "TOWN_ID": "1000203"
      }
    },
    {
      "type": "Feature",
      "geometry": {
        "type": "LineString",
        "coordinates": [
          [
            121.76146915231395,
            24.672092953202885
          ],
          [
            121.76260830434042,
            24.672420290845157
          ]
        ]
      },
      "properties": {
        "管線類別": "1",
        "管線編號": "4084549A-O03~4084549-O02-1",
        "管型": "5",
        "管寬": 0,
        "管高": 0.9,
        "管長": 129.75,
        "材質": "1",
        "坡度": 0.65046,
        "設計流量": 0,
        "CITY_ID": "10002",
        "TOWN_ID": "1000202"
      }
    },
    {
      "type": "Feature",
      "geometry": {
        "type": "LineString",
        "coordinates": [
          [
            121.7625618416773,
            24.67266942679147
          ],
          [
            121.76260830434042,
            24.672420290845157
          ]
        ]
      },
      "properties": {
        "管線類別": "1",
        "管線編號": "4084549-O02~4084549-O02-1",
        "管型": "1",
        "管寬": 0,
        "管高": 1.95,
        "管長": 27.99,
        "材質": "1",
        "坡度": -1.4932,
        "設計流量": 0,
        "CITY_ID": "10002",
        "TOWN_ID": "1000202"
      }
    },
    {
      "type": "Feature",
      "geometry": {
        "type": "LineString",
        "coordinates": [
          [
            121.76260830434042,
            24.672420290845157
          ],
          [
            121.76307256086578,
            24.672553690909034
          ]
        ]
      },
      "properties": {
        "管線類別": "1",
        "管線編號": "4084549-O02-1~4094549A-P15",
        "管型": "1",
        "管寬": 0,
        "管高": 2.07,
        "管長": 49.26,
        "材質": "1",
        "坡度": 0.58468,
        "設計流量": 0,
        "CITY_ID": "10002",
        "TOWN_ID": "1000202"
      }
    },
    {
      "type": "Feature",
      "geometry": {
        "type": "LineString",
        "coordinates": [
          [
            121.76307256086578,
            24.672553690909034
          ],
          [
            121.76409989039436,
            24.672876230334147
          ]
        ]
      },
      "properties": {
        "管線類別": "1",
        "管線編號": "4094549A-P15~4094549-P19",
        "管型": "1",
        "管寬": 0,
        "管高": 2.07,
        "管長": 109.95,
        "材質": "1",
        "坡度": 0.36291,
        "設計流量": 0,
        "CITY_ID": "10002",
        "TOWN_ID": "1000202"
      }
    },
    {
      "type": "Feature",
      "geometry": {
        "type": "LineString",
        "coordinates": [
          [
            121.76455856209361,
            24.672953723718706
          ],
          [
            121.76483335134914,
            24.672914505208656
          ]
        ]
      },
      "properties": {
        "管線類別": "1",
        "管線編號": "4094549-P01A~4094549-P02A",
        "管型": "2",
        "管寬": 0,
        "管高": 1.7,
        "管長": 27,
        "材質": "1",
        "坡度": 0.48889,
        "設計流量": 0,
        "CITY_ID": "10002",
        "TOWN_ID": "1000202"
      }
    },
    {
      "type": "Feature",
      "geometry": {
        "type": "LineString",
        "coordinates": [
          [
            121.76456090220492,
            24.67297777202885
          ],
          [
            121.7650802012743,
            24.672949531828152
          ]
        ]
      },
      "properties": {
        "管線類別": "1",
        "管線編號": "4094549-P01B~4094549-P02B",
        "管型": "2",
        "管寬": 0,
        "管高": 1.76,
        "管長": 56.7,
        "材質": "1",
        "坡度": 0.39506,
        "設計流量": 0,
        "CITY_ID": "10002",
        "TOWN_ID": "1000202"
      }
    },
    {
      "type": "Feature",
      "geometry": {
        "type": "LineString",
        "coordinates": [
          [
            121.76483335134914,
            24.672914505208656
          ],
          [
            121.76507625585461,
            24.672914133204383
          ]
        ]
      },
      "properties": {
        "管線類別": "1",
        "管線編號": "4094549-P02A~4094549-P03A",
        "管型": "2",
        "管寬": 0,
        "管高": 1.7,
        "管長": 59,
        "材質": "1",
        "坡度": 0.48983,
        "設計流量": 0,
        "CITY_ID": "10002",
        "TOWN_ID": "1000202"
      }
    },
    {
      "type": "Feature",
      "geometry": {
        "type": "LineString",
        "coordinates": [
          [
            121.76409989039436,
            24.672876230334147
          ],
          [
            121.76425458567618,
            24.672890745858023
          ]
        ]
      },
      "properties": {
        "管線類別": "1",
        "管線編號": "4094549-P19~4094549-P18",
        "管型": "1",
        "管寬": 0,
        "管高": 1.75,
        "管長": 15.74,
        "材質": "1",
        "坡度": 0.22237,
        "設計流量": 0,
        "CITY_ID": "10002",
        "TOWN_ID": "1000202"
      }
    },
    {
      "type": "Feature",
      "geometry": {
        "type": "LineString",
        "coordinates": [
          [
            121.76963452494586,
            24.678769666763664
          ],
          [
            121.76983208244314,
            24.679394266088817
          ]
        ]
      },
      "properties": {
        "管線類別": "1",
        "管線編號": "4094550-K10~4094550-K11",
        "管型": "5",
        "管寬": 0,
        "管高": 1.1,
        "管長": 72.6,
        "材質": "1",
        "坡度": 0.57989,
        "設計流量": 0,
        "CITY_ID": "10002",
        "TOWN_ID": "1000202"
      }
    },
    {
      "type": "Feature",
      "geometry": {
        "type": "LineString",
        "coordinates": [
          [
            121.76983208244314,
            24.679394266088817
          ],
          [
            121.77001920241514,
            24.679990741390018
          ]
        ]
      },
      "properties": {
        "管線類別": "1",
        "管線編號": "4094550-K11~4094550-K12",
        "管型": "5",
        "管寬": 0,
        "管高": 1.2,
        "管長": 60,
        "材質": "1",
        "坡度": 0.105,
        "設計流量": 0,
        "CITY_ID": "10002",
        "TOWN_ID": "1000202"
      }
    },
    {
      "type": "Feature",
      "geometry": {
        "type": "LineString",
        "coordinates": [
          [
            121.77001920241514,
            24.679990741390018
          ],
          [
            121.77019261714389,
            24.680544723042512
          ]
        ]
      },
      "properties": {
        "管線類別": "1",
        "管線編號": "4094550-K12~4094550-K13",
        "管型": "5",
        "管寬": 0,
        "管高": 1.2,
        "管長": 70.2,
        "材質": "1",
        "坡度": 0.651,
        "設計流量": 0,
        "CITY_ID": "10002",
        "TOWN_ID": "1000202"
      }
    },
    {
      "type": "Feature",
      "geometry": {
        "type": "LineString",
        "coordinates": [
          [
            121.7635575259042,
            24.675082095761926
          ],
          [
            121.76364116299962,
            24.67367528773719
          ]
        ]
      },
      "properties": {
        "管線類別": "1",
        "管線編號": "4094550-K24-1~4084549-O01",
        "管型": "1",
        "管寬": 0,
        "管高": 1,
        "管長": 220.61,
        "材質": "1",
        "坡度": -0.02674,
        "設計流量": 0,
        "CITY_ID": "10002",
        "TOWN_ID": "1000202"
      }
    },
    {
      "type": "Feature",
      "geometry": {
        "type": "LineString",
        "coordinates": [
          [
            121.77262388491262,
            24.680133700450824
          ],
          [
            121.77302090137748,
            24.680023719834278
          ]
        ]
      },
      "properties": {
        "管線類別": "1",
        "管線編號": "4094551-F10A~4094551-F11A",
        "管型": "2",
        "管寬": 0,
        "管高": 1.96,
        "管長": 96,
        "材質": "1",
        "坡度": 0.13958,
        "設計流量": 0,
        "CITY_ID": "10002",
        "TOWN_ID": "1000202"
      }
    },
    {
      "type": "Feature",
      "geometry": {
        "type": "LineString",
        "coordinates": [
          [
            121.77262375714605,
            24.68014317065034
          ],
          [
            121.77302376790155,
            24.680032363185774
          ]
        ]
      },
      "properties": {
        "管線類別": "1",
        "管線編號": "4094551-F10B~4094551-F11B",
        "管型": "2",
        "管寬": 0,
        "管高": 1.95,
        "管長": 100.7,
        "材質": "1",
        "坡度": 0.15293,
        "設計流量": 0,
        "CITY_ID": "10002",
        "TOWN_ID": "1000202"
      }
    },
    {
      "type": "Feature",
      "geometry": {
        "type": "LineString",
        "coordinates": [
          [
            121.77302090137748,
            24.680023719834278
          ],
          [
            121.77389343411463,
            24.680182853234616
          ]
        ]
      },
      "properties": {
        "管線類別": "1",
        "管線編號": "4094551-F11A~4094551-F12A",
        "管型": "2",
        "管寬": 0,
        "管高": 2.02,
        "管長": 90.5,
        "材質": "1",
        "坡度": 0.14254,
        "設計流量": 0,
        "CITY_ID": "10002",
        "TOWN_ID": "1000202"
      }
    },
    {
      "type": "Feature",
      "geometry": {
        "type": "LineString",
        "coordinates": [
          [
            121.77302376790155,
            24.680032363185774
          ],
          [
            121.77389149914347,
            24.68019171125056
          ]
        ]
      },
      "properties": {
        "管線類別": "1",
        "管線編號": "4094551-F11B~4094551-F12B",
        "管型": "2",
        "管寬": 0,
        "管高": 1.97,
        "管長": 90.2,
        "材質": "1",
        "坡度": 0.08204,
        "設計流量": 0,
        "CITY_ID": "10002",
        "TOWN_ID": "1000202"
      }
    },
    {
      "type": "Feature",
      "geometry": {
        "type": "LineString",
        "coordinates": [
          [
            121.77389343411463,
            24.680182853234616
          ],
          [
            121.77483078209616,
            24.680461100094835
          ]
        ]
      },
      "properties": {
        "管線類別": "1",
        "管線編號": "4094551-F12A~4094551-F13A",
        "管型": "2",
        "管寬": 0,
        "管高": 1.95,
        "管長": 99,
        "材質": "1",
        "坡度": 0.14242,
        "設計流量": 0,
        "CITY_ID": "10002",
        "TOWN_ID": "1000202"
      }
    },
    {
      "type": "Feature",
      "geometry": {
        "type": "LineString",
        "coordinates": [
          [
            121.77389149914347,
            24.68019171125056
          ],
          [
            121.77482772962084,
            24.680469683013175
          ]
        ]
      },
      "properties": {
        "管線類別": "1",
        "管線編號": "4094551-F12B~4094551-F13B",
        "管型": "2",
        "管寬": 0,
        "管高": 1.9,
        "管長": 97.2,
        "材質": "1",
        "坡度": 0.0823,
        "設計流量": 0,
        "CITY_ID": "10002",
        "TOWN_ID": "1000202"
      }
    },
    {
      "type": "Feature",
      "geometry": {
        "type": "LineString",
        "coordinates": [
          [
            121.77483078209616,
            24.680461100094835
          ],
          [
            121.77559120149257,
            24.68055490487102
          ]
        ]
      },
      "properties": {
        "管線類別": "1",
        "管線編號": "4094551-F13A~4094551-F14A",
        "管型": "2",
        "管寬": 0,
        "管高": 1.94,
        "管長": 83,
        "材質": "1",
        "坡度": 0.14217,
        "設計流量": 0,
        "CITY_ID": "10002",
        "TOWN_ID": "1000202"
      }
    },
    {
      "type": "Feature",
      "geometry": {
        "type": "LineString",
        "coordinates": [
          [
            121.77482772962084,
            24.680469683013175
          ],
          [
            121.77558988007077,
            24.68056384938346
          ]
        ]
      },
      "properties": {
        "管線類別": "1",
        "管線編號": "4094551-F13B~4094551-F14B",
        "管型": "2",
        "管寬": 0,
        "管高": 2,
        "管長": 83.2,
        "材質": "1",
        "坡度": 0.08173,
        "設計流量": 0,
        "CITY_ID": "10002",
        "TOWN_ID": "1000202"
      }
    },
    {
      "type": "Feature",
      "geometry": {
        "type": "LineString",
        "coordinates": [
          [
            121.77559120149257,
            24.68055490487102
          ],
          [
            121.77567332328313,
            24.680579297096035
          ]
        ]
      },
      "properties": {
        "管線類別": "1",
        "管線編號": "4094551-F14A~4094551-F15A",
        "管型": "1",
        "管寬": 0,
        "管高": 2.05,
        "管長": 142,
        "材質": "1",
        "坡度": 0.14225,
        "設計流量": 0,
        "CITY_ID": "10002",
        "TOWN_ID": "1000202"
      }
    },
    {
      "type": "Feature",
      "geometry": {
        "type": "LineString",
        "coordinates": [
          [
            121.77558988007077,
            24.68056384938346
          ],
          [
            121.77567234729479,
            24.680585963214565
          ]
        ]
      },
      "properties": {
        "管線類別": "1",
        "管線編號": "4094551-F14B~4094551-F15B",
        "管型": "1",
        "管寬": 0,
        "管高": 2.1,
        "管長": 84.2,
        "材質": "1",
        "坡度": 0.08195,
        "設計流量": 0,
        "CITY_ID": "10002",
        "TOWN_ID": "1000202"
      }
    },
    {
      "type": "Feature",
      "geometry": {
        "type": "LineString",
        "coordinates": [
          [
            121.77172885782575,
            24.66683070858536
          ],
          [
            121.77187226065799,
            24.666831208608404
          ]
        ]
      },
      "properties": {
        "管線類別": "1",
        "管線編號": "4104548-T07A~4104548-T08A",
        "管型": "2",
        "管寬": 0,
        "管高": 1.35,
        "管長": 87.6,
        "材質": "1",
        "坡度": 0.1895,
        "設計流量": 0,
        "CITY_ID": "10002",
        "TOWN_ID": "1000208"
      }
    },
    {
      "type": "Feature",
      "geometry": {
        "type": "LineString",
        "coordinates": [
          [
            121.77172768748609,
            24.666839674272463
          ],
          [
            121.77187222382703,
            24.666840237372156
          ]
        ]
      },
      "properties": {
        "管線類別": "1",
        "管線編號": "4104548-T07B~4104548-T08B",
        "管型": "2",
        "管寬": 0,
        "管高": 1.35,
        "管長": 86.67,
        "材質": "1",
        "坡度": 0.18921,
        "設計流量": 0,
        "CITY_ID": "10002",
        "TOWN_ID": "1000208"
      }
    },
    {
      "type": "Feature",
      "geometry": {
        "type": "LineString",
        "coordinates": [
          [
            121.77187226065799,
            24.666831208608404
          ],
          [
            121.77265736396177,
            24.66688962126986
          ]
        ]
      },
      "properties": {
        "管線類別": "1",
        "管線編號": "4104548-T08A~4104548-T09A",
        "管型": "2",
        "管寬": 0,
        "管高": 1.4,
        "管長": 80.1,
        "材質": "1",
        "坡度": 0.18851,
        "設計流量": 0,
        "CITY_ID": "10002",
        "TOWN_ID": "1000208"
      }
    },
    {
      "type": "Feature",
      "geometry": {
        "type": "LineString",
        "coordinates": [
          [
            121.77187222382703,
            24.666840237372156
          ],
          [
            121.77265461152372,
            24.66689829328731
          ]
        ]
      },
      "properties": {
        "管線類別": "1",
        "管線編號": "4104548-T08B~4104548-T09B",
        "管型": "2",
        "管寬": 0,
        "管高": 1.4,
        "管長": 79.73,
        "材質": "1",
        "坡度": 0.18939,
        "設計流量": 0,
        "CITY_ID": "10002",
        "TOWN_ID": "1000208"
      }
    },
    {
      "type": "Feature",
      "geometry": {
        "type": "LineString",
        "coordinates": [
          [
            121.77265736396177,
            24.66688962126986
          ],
          [
            121.7742116392962,
            24.66730163378108
          ]
        ]
      },
      "properties": {
        "管線類別": "1",
        "管線編號": "4104548-T09A~4104548-T10",
        "管型": "2",
        "管寬": 0,
        "管高": 1.25,
        "管長": 166.8,
        "材質": "1",
        "坡度": 0.18885,
        "設計流量": 0,
        "CITY_ID": "10002",
        "TOWN_ID": "1000208"
      }
    },
    {
      "type": "Feature",
      "geometry": {
        "type": "LineString",
        "coordinates": [
          [
            121.77265461152372,
            24.66689829328731
          ],
          [
            121.7742114641006,
            24.667301995332714
          ]
        ]
      },
      "properties": {
        "管線類別": "1",
        "管線編號": "4104548-T09B~4104548-T10",
        "管型": "2",
        "管寬": 0,
        "管高": 1.25,
        "管長": 166.8,
        "材質": "1",
        "坡度": 0.18885,
        "設計流量": 0,
        "CITY_ID": "10002",
        "TOWN_ID": "1000208"
      }
    },
    {
      "type": "Feature",
      "geometry": {
        "type": "LineString",
        "coordinates": [
          [
            121.77408510405353,
            24.665922171203395
          ],
          [
            121.77443254246795,
            24.666021617790157
          ]
        ]
      },
      "properties": {
        "管線類別": "1",
        "管線編號": "4104548-U31~4104548-U30",
        "管型": "1",
        "管寬": 0,
        "管高": 1.47,
        "管長": 43.63,
        "材質": "1",
        "坡度": 0.46065,
        "設計流量": 0,
        "CITY_ID": "10002",
        "TOWN_ID": "1000208"
      }
    },
    {
      "type": "Feature",
      "geometry": {
        "type": "LineString",
        "coordinates": [
          [
            121.7737365810795,
            24.6658332690349
          ],
          [
            121.77408510405353,
            24.665922171203395
          ]
        ]
      },
      "properties": {
        "管線類別": "1",
        "管線編號": "4104548-U32~4104548-U31",
        "管型": "1",
        "管寬": 0,
        "管高": 0.43,
        "管長": 36.63,
        "材質": "1",
        "坡度": 0.46142,
        "設計流量": 0,
        "CITY_ID": "10002",
        "TOWN_ID": "1000208"
      }
    },
    {
      "type": "Feature",
      "geometry": {
        "type": "LineString",
        "coordinates": [
          [
            121.77237878201916,
            24.667877850227683
          ],
          [
            121.77256937757299,
            24.667962150882865
          ]
        ]
      },
      "properties": {
        "管線類別": "1",
        "管線編號": "4104548-U34~4104548-U34-2",
        "管型": "1",
        "管寬": 0,
        "管高": 1.34,
        "管長": 21.43,
        "材質": "1",
        "坡度": 0.16797,
        "設計流量": 0,
        "CITY_ID": "10002",
        "TOWN_ID": "1000208"
      }
    },
    {
      "type": "Feature",
      "geometry": {
        "type": "LineString",
        "coordinates": [
          [
            121.77277145988431,
            24.668162748286086
          ],
          [
            121.77302827814434,
            24.66819160034826
          ]
        ]
      },
      "properties": {
        "管線類別": "1",
        "管線編號": "4104548-U34-1~4104548-U34-3",
        "管型": "1",
        "管寬": 0,
        "管高": 1.33,
        "管長": 84.87,
        "材質": "1",
        "坡度": 0.16968,
        "設計流量": 0,
        "CITY_ID": "10002",
        "TOWN_ID": "1000208"
      }
    },
    {
      "type": "Feature",
      "geometry": {
        "type": "LineString",
        "coordinates": [
          [
            121.77256937757299,
            24.667962150882865
          ],
          [
            121.77277145988431,
            24.668162748286086
          ]
        ]
      },
      "properties": {
        "管線類別": "1",
        "管線編號": "4104548-U34-2~4104548-U34-1",
        "管型": "1",
        "管寬": 0,
        "管高": 1.33,
        "管長": 30.2,
        "材質": "1",
        "坡度": 0.16887,
        "設計流量": 0,
        "CITY_ID": "10002",
        "TOWN_ID": "1000208"
      }
    }
  ],
  "metadata": {
    "generatedAt": "2026-09-24T07:22:52+00:00",
    "analysisPeriod": "2021-2025",
    "floodDistanceMeters": 100.0,
    "sewerDistanceMeters": 30.0,
    "lowLyingRule": "DEM local percentile <= 20.0% OR elevation <= 5.0 m",
    "floodSource": "國科會/國家災害防救科技中心「近5年淹水災點資料」",
    "floodSourceUrl": "https://data.gov.tw/dataset/130016",
    "sewerSource": "內政部國土管理署雨水下水道圖資（公開 ArcGIS Feature Layer 鏡像）",
    "sewerSourceUrl": "https://gis.liquid.net.tw/arcgis/rest/services/Hosted/%E9%9B%A8%E6%B0%B4%E4%B8%8B%E6%B0%B4%E9%81%93%E6%B8%85%E6%B7%A4%E7%B4%80%E9%8C%84/FeatureServer/13",
    "roadSource": "OpenStreetMap via Overpass API",
    "demSource": "AWS Open Data Terrain Tiles (Terrarium)",
    "note": "官方近5年淹水災點目前資料內容更新至2025年；2026年當年度尚未完整納入。本成果為篩選用空間分析，不取代主管機關認定、現勘或工程設計。"
  }
}