{
  "type": "FeatureCollection",
  "features": [
    {
      "type": "Feature",
      "geometry": {
        "type": "Point",
        "coordinates": [
          121.7732866737831,
          24.6666073748227
        ]
      },
      "properties": {
        "FID": "2014",
        "年份": 2022,
        "資料來源": "新聞媒體"
      }
    },
    {
      "type": "Feature",
      "geometry": {
        "type": "Point",
        "coordinates": [
          121.82460358622934,
          24.862043211313004
        ]
      },
      "properties": {
        "FID": "2215",
        "年份": 2022,
        "資料來源": "EMIC"
      }
    },
    {
      "type": "Feature",
      "geometry": {
        "type": "Point",
        "coordinates": [
          121.77017820016604,
          24.678848243022557
        ]
      },
      "properties": {
        "FID": "5783",
        "年份": 2024,
        "資料來源": "EMIC"
      }
    },
    {
      "type": "Feature",
      "geometry": {
        "type": "Point",
        "coordinates": [
          121.7746488995105,
          24.680638278895305
        ]
      },
      "properties": {
        "FID": "6726",
        "年份": 2024,
        "資料來源": "新聞媒體"
      }
    },
    {
      "type": "Feature",
      "geometry": {
        "type": "Point",
        "coordinates": [
          121.76292620039658,
          24.67319511620202
        ]
      },
      "properties": {
        "FID": "6752",
        "年份": 2024,
        "資料來源": "EMIC"
      }
    },
    {
      "type": "Feature",
      "geometry": {
        "type": "Point",
        "coordinates": [
          121.77012349956787,
          24.68059115339777
        ]
      },
      "properties": {
        "FID": "6755",
        "年份": 2024,
        "資料來源": "EMIC"
      }
    },
    {
      "type": "Feature",
      "geometry": {
        "type": "Point",
        "coordinates": [
          121.84809989961244,
          24.594794298985715
        ]
      },
      "properties": {
        "FID": "7232",
        "年份": 2024,
        "資料來源": "淹水感測"
      }
    }
  ],
  "metadata": {
    "generatedAt": "2026-09-24T07:22:52+00:00",
    "analysisPeriod": "2021-2025",
    "floodDistanceMeters": 100.0,
    "sewerDistanceMeters": 30.0,
    "lowLyingRule": "DEM local percentile <= 20.0% OR elevation <= 5.0 m",
    "floodSource": "國科會/國家災害防救科技中心「近5年淹水災點資料」",
    "floodSourceUrl": "https://data.gov.tw/dataset/130016",
    "sewerSource": "內政部國土管理署雨水下水道圖資（公開 ArcGIS Feature Layer 鏡像）",
    "sewerSourceUrl": "https://gis.liquid.net.tw/arcgis/rest/services/Hosted/%E9%9B%A8%E6%B0%B4%E4%B8%8B%E6%B0%B4%E9%81%93%E6%B8%85%E6%B7%A4%E7%B4%80%E9%8C%84/FeatureServer/13",
    "roadSource": "OpenStreetMap via Overpass API",
    "demSource": "AWS Open Data Terrain Tiles (Terrarium)",
    "note": "官方近5年淹水災點目前資料內容更新至2025年；2026年當年度尚未完整納入。本成果為篩選用空間分析，不取代主管機關認定、現勘或工程設計。"
  }
}