{"type":"FeatureCollection","features":[{"type":"Feature","geometry":{"type":"Polygon","coordinates":[[[121.73905683311878,24.332078701922185],[121.74891026949463,24.33203039604806],[121.74885721340483,24.32300198016873],[121.74389281861279,24.32302638929374],[121.74298000000002,24.323150000000002],[121.74152,24.323369999999993],[121.74088,24.323389999999996],[121.73995,24.32356],[121.73900709166776,24.32350159033684],[121.73905683311878,24.332078701922185]]]},"properties":{"grid_id":"G002_043","綠地類型":"公園／都市綠地","中心經度":121.743959,"中心緯度":24.327798,"分析面積_km2":1.023,"2020面積_ha":0.54,"2024面積_ha":0.54,"面積減少率_pct":0.0,"2020斑塊數":1,"2024斑塊數":1,"斑塊數增加率_pct":0.0,"2020平均斑塊面積_ha":0.54,"2024平均斑塊面積_ha":0.54,"平均斑塊面積下降率_pct":0.0,"道路切割密度_km_per_km2":8.267,"建成區邊界切割密度_km_per_km2":0.147,"孤立小斑塊比例_pct":100.0,"距大型連續綠地平均距離_m":13704.0,"score_面積減少":29.87551867219917,"score_斑塊增加":42.531120331950206,"score_平均斑塊縮小":26.970954356846473,"score_道路建成區切割":63.07053941908714,"score_孤立比例":80.29045643153528,"score_距大型綠地":99.5850622406639,"綜合破碎化分數":57.1,"破碎化等級":"高","判定原因":"面積減少0.0%；斑塊增加0.0%；平均斑塊縮小0.0%；道路密度8.27 km/km²；孤立比例100.0%；距大型綠地13704m","2021面積_ha":0.63,"2022面積_ha":0.45,"2023面積_ha":0.72}},{"type":"Feature","geometry":{"type":"Polygon","coordinates":[[[121.78916475651795,24.467254457679676],[121.78922104329122,24.47628261599078],[121.79908555858896,24.476230767021057],[121.79902856846566,24.46720263029189],[121.78916475651795,24.467254457679676]]]},"properties":{"grid_id":"G018_048","綠地類型":"公園／都市綠地","中心經度":121.794125,"中心緯度":24.471743,"分析面積_km2":1.04,"2020面積_ha":0.36,"2024面積_ha":0.18,"面積減少率_pct":50.0,"2020斑塊數":1,"2024斑塊數":1,"斑塊數增加率_pct":0.0,"2020平均斑塊面積_ha":0.36,"2024平均斑塊面積_ha":0.18,"平均斑塊面積下降率_pct":50.0,"道路切割密度_km_per_km2":6.863,"建成區邊界切割密度_km_per_km2":0.058,"孤立小斑塊比例_pct":100.0,"距大型連續綠地平均距離_m":1766.8,"score_面積減少":84.43983402489627,"score_斑塊增加":42.531120331950206,"score_平均斑塊縮小":78.63070539419087,"score_道路建成區切割":49.5850622406639,"score_孤立比例":80.29045643153528,"score_距大型綠地":47.71784232365145,"綜合破碎化分數":63.9,"破碎化等級":"高","判定原因":"面積減少50.0%；斑塊增加0.0%；平均斑塊縮小50.0%；道路密度6.86 km/km²；孤立比例100.0%；距大型綠地1767m","2021面積_ha":0.36,"2022面積_ha":0.36,"2023面積_ha":0.36}},{"type":"Feature","geometry":{"type":"Polygon","coordinates":[[[121.8289748701362,24.52121154482003],[121.82903414376385,24.530239549633826],[121.83890277265435,24.53018498915406],[121.83884279364773,24.52115700701304],[121.8289748701362,24.52121154482003]]]},"properties":{"grid_id":"G024_052","綠地類型":"公園／都市綠地","中心經度":121.833939,"中心緯度":24.525698,"分析面積_km2":1.04,"2020面積_ha":0.0,"2024面積_ha":0.27,"面積減少率_pct":0.0,"2020斑塊數":0,"2024斑塊數":1,"斑塊數增加率_pct":100.0,"2020平均斑塊面積_ha":0.0,"2024平均斑塊面積_ha":0.27,"平均斑塊面積下降率_pct":0.0,"道路切割密度_km_per_km2":8.506,"建成區邊界切割密度_km_per_km2":0.087,"孤立小斑塊比例_pct":100.0,"距大型連續綠地平均距離_m":8305.9,"score_面積減少":29.87551867219917,"score_斑塊增加":95.0207468879668,"score_平均斑塊縮小":26.970954356846473,"score_道路建成區切割":59.5435684647303,"score_孤立比例":80.29045643153528,"score_距大型綠地":95.850622406639,"綜合破碎化分數":64.6,"破碎化等級":"高","判定原因":"面積減少0.0%；斑塊增加100.0%；平均斑塊縮小0.0%；道路密度8.51 km/km²；孤立比例100.0%；距大型綠地8306m","2021面積_ha":0.18,"2022面積_ha":0.0,"2023面積_ha":0.0}},{"type":"Feature","geometry":{"type":"Polygon","coordinates":[[[121.47388256471159,24.567888247751313],[121.47391652225546,24.576916835855805],[121.48378950964111,24.576885451525776],[121.48375484473455,24.567856876445447],[121.47388256471159,24.567888247751313]]]},"properties":{"grid_id":"G029_016","綠地類型":"公園／都市綠地","中心經度":121.478836,"中心緯度":24.572387,"分析面積_km2":1.04,"2020面積_ha":0.54,"2024面積_ha":0.09,"面積減少率_pct":83.33,"2020斑塊數":1,"2024斑塊數":1,"斑塊數增加率_pct":0.0,"2020平均斑塊面積_ha":0.54,"2024平均斑塊面積_ha":0.09,"平均斑塊面積下降率_pct":83.33,"道路切割密度_km_per_km2":3.806,"建成區邊界切割密度_km_per_km2":0.029,"孤立小斑塊比例_pct":100.0,"距大型連續綠地平均距離_m":4236.3,"score_面積減少":92.5311203319502,"score_斑塊增加":42.531120331950206,"score_平均斑塊縮小":92.73858921161826,"score_道路建成區切割":30.601659751037346,"score_孤立比例":80.29045643153528,"score_距大型綠地":81.95020746887967,"綜合破碎化分數":70.1,"破碎化等級":"高","判定原因":"面積減少83.3%；斑塊增加0.0%；平均斑塊縮小83.3%；道路密度3.81 km/km²；孤立比例100.0%；距大型綠地4236m","2021面積_ha":0.54,"2022面積_ha":0.36,"2023面積_ha":0.09}},{"type":"Feature","geometry":{"type":"Polygon","coordinates":[[[121.47391652225546,24.576916835855805],[121.47395049637082,24.58594541309661],[121.48382419146431,24.5859140157406],[121.48378950964111,24.576885451525776],[121.47391652225546,24.576916835855805]]]},"properties":{"grid_id":"G030_016","綠地類型":"公園／都市綠地","中心經度":121.47887,"中心緯度":24.581416,"分析面積_km2":1.04,"2020面積_ha":0.09,"2024面積_ha":0.09,"面積減少率_pct":0.0,"2020斑塊數":1,"2024斑塊數":1,"斑塊數增加率_pct":0.0,"2020平均斑塊面積_ha":0.54,"2024平均斑塊面積_ha":0.09,"平均斑塊面積下降率_pct":83.33,"道路切割密度_km_per_km2":0.779,"建成區邊界切割密度_km_per_km2":0.029,"孤立小斑塊比例_pct":100.0,"距大型連續綠地平均距離_m":4236.3,"score_面積減少":29.87551867219917,"score_斑塊增加":42.531120331950206,"score_平均斑塊縮小":92.73858921161826,"score_道路建成區切割":20.53941908713693,"score_孤立比例":80.29045643153528,"score_距大型綠地":81.95020746887967,"綜合破碎化分數":58.0,"破碎化等級":"高","判定原因":"面積減少0.0%；斑塊增加0.0%；平均斑塊縮小83.3%；道路密度0.78 km/km²；孤立比例100.0%；距大型綠地4236m","2021面積_ha":0.09,"2022面積_ha":0.09,"2023面積_ha":0.09}},{"type":"Feature","geometry":{"type":"Polygon","coordinates":[[[121.84913610124629,24.584297308478696],[121.84919699328898,24.593325191008788],[121.85907051042052,24.593269177041385],[121.85900891060392,24.58424131774309],[121.84913610124629,24.584297308478696]]]},"properties":{"grid_id":"G031_054","綠地類型":"公園／都市綠地","中心經度":121.854103,"中心緯度":24.588783,"分析面積_km2":1.04,"2020面積_ha":0.0,"2024面積_ha":0.09,"面積減少率_pct":0.0,"2020斑塊數":0,"2024斑塊數":1,"斑塊數增加率_pct":100.0,"2020平均斑塊面積_ha":0.0,"2024平均斑塊面積_ha":0.09,"平均斑塊面積下降率_pct":0.0,"道路切割密度_km_per_km2":10.236,"建成區邊界切割密度_km_per_km2":0.029,"孤立小斑塊比例_pct":100.0,"距大型連續綠地平均距離_m":4290.8,"score_面積減少":29.87551867219917,"score_斑塊增加":95.0207468879668,"score_平均斑塊縮小":26.970954356846473,"score_道路建成區切割":55.497925311203325,"score_孤立比例":80.29045643153528,"score_距大型綠地":82.98755186721992,"綜合破碎化分數":61.8,"破碎化等級":"高","判定原因":"面積減少0.0%；斑塊增加100.0%；平均斑塊縮小0.0%；道路密度10.24 km/km²；孤立比例100.0%；距大型綠地4291m","2021面積_ha":0.09,"2022面積_ha":0.09,"2023面積_ha":0.0}},{"type":"Feature","geometry":{"type":"Polygon","coordinates":[[[121.84919699328898,24.593325191008788],[121.84925791503572,24.602353062573993],[121.85913214028636,24.602297025371566],[121.85907051042052,24.593269177041385],[121.84919699328898,24.593325191008788]]]},"properties":{"grid_id":"G032_054","綠地類型":"公園／都市綠地","中心經度":121.854164,"中心緯度":24.597811,"分析面積_km2":1.04,"2020面積_ha":0.09,"2024面積_ha":0.09,"面積減少率_pct":0.0,"2020斑塊數":1,"2024斑塊數":1,"斑塊數增加率_pct":0.0,"2020平均斑塊面積_ha":0.09,"2024平均斑塊面積_ha":0.09,"平均斑塊面積下降率_pct":0.0,"道路切割密度_km_per_km2":15.802,"建成區邊界切割密度_km_per_km2":0.029,"孤立小斑塊比例_pct":100.0,"距大型連續綠地平均距離_m":3632.0,"score_面積減少":29.87551867219917,"score_斑塊增加":42.531120331950206,"score_平均斑塊縮小":26.970954356846473,"score_道路建成區切割":66.28630705394191,"score_孤立比例":80.29045643153528,"score_距大型綠地":77.59336099585063,"綜合破碎化分數":53.9,"破碎化等級":"高","判定原因":"面積減少0.0%；斑塊增加0.0%；平均斑塊縮小0.0%；道路密度15.80 km/km²；孤立比例100.0%；距大型綠地3632m","2021面積_ha":0.09,"2022面積_ha":0.09,"2023面積_ha":0.18}},{"type":"Feature","geometry":{"type":"Polygon","coordinates":[[[121.50364377782896,24.603906321240284],[121.50367992790598,24.612934825972072],[121.51355569634453,24.612901445235405],[121.51351883753975,24.603872954341],[121.50364377782896,24.603906321240284]]]},"properties":{"grid_id":"G033_019","綠地類型":"公園／都市綠地","中心經度":121.5086,"中心緯度":24.608404,"分析面積_km2":1.04,"2020面積_ha":0.54,"2024面積_ha":0.36,"面積減少率_pct":33.33,"2020斑塊數":1,"2024斑塊數":2,"斑塊數增加率_pct":100.0,"2020平均斑塊面積_ha":0.9,"2024平均斑塊面積_ha":0.225,"平均斑塊面積下降率_pct":75.0,"道路切割密度_km_per_km2":3.345,"建成區邊界切割密度_km_per_km2":0.058,"孤立小斑塊比例_pct":100.0,"距大型連續綠地平均距離_m":1474.6,"score_面積減少":78.42323651452283,"score_斑塊增加":95.0207468879668,"score_平均斑塊縮小":89.83402489626556,"score_道路建成區切割":33.19502074688796,"score_孤立比例":80.29045643153528,"score_距大型綠地":42.738589211618255,"綜合破碎化分數":69.9,"破碎化等級":"高","判定原因":"面積減少33.3%；斑塊增加100.0%；平均斑塊縮小75.0%；道路密度3.35 km/km²；孤立比例100.0%；距大型綠地1475m","2021面積_ha":0.54,"2022面積_ha":0.36,"2023面積_ha":0.36}},{"type":"Feature","geometry":{"type":"Polygon","coordinates":[[[121.51351883753975,24.603872954341],[121.51355569634453,24.612901445235405],[121.52343144680825,24.612867416410573],[121.52339387928144,24.603838939622182],[121.51351883753975,24.603872954341]]]},"properties":{"grid_id":"G033_020","綠地類型":"公園／都市綠地","中心經度":121.518475,"中心緯度":24.60837,"分析面積_km2":1.04,"2020面積_ha":1.08,"2024面積_ha":0.63,"面積減少率_pct":41.67,"2020斑塊數":2,"2024斑塊數":2,"斑塊數增加率_pct":0.0,"2020平均斑塊面積_ha":3.195,"2024平均斑塊面積_ha":2.88,"平均斑塊面積下降率_pct":9.86,"道路切割密度_km_per_km2":5.363,"建成區邊界切割密度_km_per_km2":0.058,"孤立小斑塊比例_pct":42.86,"距大型連續綠地平均距離_m":1093.4,"score_面積減少":82.15767634854771,"score_斑塊增加":42.531120331950206,"score_平均斑塊縮小":64.31535269709543,"score_道路建成區切割":41.90871369294606,"score_孤立比例":57.676348547717836,"score_距大型綠地":40.24896265560166,"綜合破碎化分數":54.8,"破碎化等級":"高","判定原因":"面積減少41.7%；斑塊增加0.0%；平均斑塊縮小9.9%；道路密度5.36 km/km²；孤立比例42.9%；距大型綠地1093m","2021面積_ha":1.08,"2022面積_ha":0.63,"2023面積_ha":0.72}},{"type":"Feature","geometry":{"type":"Polygon","coordinates":[[[121.52339387928144,24.603838939622182],[121.52343144680825,24.612867416410573],[121.53330717895153,24.612832739502252],[121.53326890270851,24.603804277088535],[121.52339387928144,24.603838939622182]]]},"properties":{"grid_id":"G033_021","綠地類型":"公園／都市綠地","中心經度":121.52835,"中心緯度":24.608336,"分析面積_km2":1.04,"2020面積_ha":2.79,"2024面積_ha":2.34,"面積減少率_pct":16.13,"2020斑塊數":4,"2024斑塊數":3,"斑塊數增加率_pct":0.0,"2020平均斑塊面積_ha":1.395,"2024平均斑塊面積_ha":0.87,"平均斑塊面積下降率_pct":37.63,"道路切割密度_km_per_km2":5.046,"建成區邊界切割密度_km_per_km2":0.115,"孤立小斑塊比例_pct":100.0,"距大型連續綠地平均距離_m":1064.9,"score_面積減少":73.44398340248964,"score_斑塊增加":42.531120331950206,"score_平均斑塊縮小":74.68879668049793,"score_道路建成區切割":47.614107883817425,"score_孤立比例":80.29045643153528,"score_距大型綠地":39.83402489626556,"綜合破碎化分數":59.7,"破碎化等級":"高","判定原因":"面積減少16.1%；斑塊增加0.0%；平均斑塊縮小37.6%；道路密度5.05 km/km²；孤立比例100.0%；距大型綠地1065m","2021面積_ha":3.06,"2022面積_ha":2.88,"2023面積_ha":2.88}},{"type":"Feature","geometry":{"type":"Polygon","coordinates":[[[121.53326890270851,24.603804277088535],[121.53330717895153,24.612832739502252],[121.54318289242885,24.612797414515267],[121.54314390747544,24.60376896674485],[121.53326890270851,24.603804277088535]]]},"properties":{"grid_id":"G033_022","綠地類型":"公園／都市綠地","中心經度":121.538226,"中心緯度":24.608301,"分析面積_km2":1.04,"2020面積_ha":4.14,"2024面積_ha":1.98,"面積減少率_pct":52.17,"2020斑塊數":3,"2024斑塊數":3,"斑塊數增加率_pct":0.0,"2020平均斑塊面積_ha":1.44,"2024平均斑塊面積_ha":0.66,"平均斑塊面積下降率_pct":54.17,"道路切割密度_km_per_km2":5.738,"建成區邊界切割密度_km_per_km2":0.144,"孤立小斑塊比例_pct":100.0,"距大型連續綠地平均距離_m":1171.9,"score_面積減少":85.89211618257261,"score_斑塊增加":42.531120331950206,"score_平均斑塊縮小":81.32780082987551,"score_道路建成區切割":52.28215767634855,"score_孤立比例":80.29045643153528,"score_距大型綠地":41.49377593360996,"綜合破碎化分數":64.0,"破碎化等級":"高","判定原因":"面積減少52.2%；斑塊增加0.0%；平均斑塊縮小54.2%；道路密度5.74 km/km²；孤立比例100.0%；距大型綠地1172m","2021面積_ha":3.87,"2022面積_ha":2.52,"2023面積_ha":1.71}},{"type":"Feature","geometry":{"type":"Polygon","coordinates":[[[121.80976072035266,24.602570735211224],[121.80981883786235,24.61159868607617],[121.8196938883958,24.61154521719377],[121.8196350623848,24.60251728849291],[121.80976072035266,24.602570735211224]]]},"properties":{"grid_id":"G033_050","綠地類型":"公園／都市綠地","中心經度":121.814727,"中心緯度":24.607058,"分析面積_km2":1.04,"2020面積_ha":11.43,"2024面積_ha":5.67,"面積減少率_pct":50.39,"2020斑塊數":5,"2024斑塊數":5,"斑塊數增加率_pct":0.0,"2020平均斑塊面積_ha":4.896,"2024平均斑塊面積_ha":3.744,"平均斑塊面積下降率_pct":23.53,"道路切割密度_km_per_km2":9.602,"建成區邊界切割密度_km_per_km2":0.894,"孤立小斑塊比例_pct":6.35,"距大型連續綠地平均距離_m":385.9,"score_面積減少":85.47717842323651,"score_斑塊增加":42.531120331950206,"score_平均斑塊縮小":68.87966804979253,"score_道路建成區切割":82.98755186721992,"score_孤立比例":46.88796680497925,"score_距大型綠地":29.460580912863072,"綜合破碎化分數":59.4,"破碎化等級":"高","判定原因":"面積減少50.4%；斑塊增加0.0%；平均斑塊縮小23.5%；道路密度9.60 km/km²；孤立比例6.3%；距大型綠地386m","2021面積_ha":7.92,"2022面積_ha":11.52,"2023面積_ha":11.07}},{"type":"Feature","geometry":{"type":"Polygon","coordinates":[[[121.79006865211802,24.611703680108917],[121.79012538024851,24.62073166354413],[121.80000119598294,24.620679468855542],[121.79994375898794,24.611651507050315],[121.79006865211802,24.611703680108917]]]},"properties":{"grid_id":"G034_048","綠地類型":"公園／都市綠地","中心經度":121.795035,"中心緯度":24.616192,"分析面積_km2":1.04,"2020面積_ha":0.99,"2024面積_ha":0.54,"面積減少率_pct":45.45,"2020斑塊數":1,"2024斑塊數":1,"斑塊數增加率_pct":0.0,"2020平均斑塊面積_ha":0.99,"2024平均斑塊面積_ha":0.54,"平均斑塊面積下降率_pct":45.45,"道路切割密度_km_per_km2":8.679,"建成區邊界切割密度_km_per_km2":0.087,"孤立小斑塊比例_pct":100.0,"距大型連續綠地平均距離_m":2383.5,"score_面積減少":82.98755186721992,"score_斑塊增加":42.531120331950206,"score_平均斑塊縮小":77.17842323651453,"score_道路建成區切割":60.47717842323651,"score_孤立比例":80.29045643153528,"score_距大型綠地":54.356846473029044,"綜合破碎化分數":66.3,"破碎化等級":"高","判定原因":"面積減少45.5%；斑塊增加0.0%；平均斑塊縮小45.5%；道路密度8.68 km/km²；孤立比例100.0%；距大型綠地2384m","2021面積_ha":0.36,"2022面積_ha":0.27,"2023面積_ha":0.45}},{"type":"Feature","geometry":{"type":"Polygon","coordinates":[[[121.79012538024851,24.62073166354413],[121.79018213603773,24.629759636024104],[121.80005866098227,24.629707419702505],[121.80000119598294,24.620679468855542],[121.79012538024851,24.62073166354413]]]},"properties":{"grid_id":"G035_048","綠地類型":"公園／都市綠地","中心經度":121.795092,"中心緯度":24.62522,"分析面積_km2":1.04,"2020面積_ha":0.54,"2024面積_ha":0.18,"面積減少率_pct":66.67,"2020斑塊數":2,"2024斑塊數":2,"斑塊數增加率_pct":0.0,"2020平均斑塊面積_ha":0.27,"2024平均斑塊面積_ha":0.09,"平均斑塊面積下降率_pct":66.67,"道路切割密度_km_per_km2":15.225,"建成區邊界切割密度_km_per_km2":0.058,"孤立小斑塊比例_pct":100.0,"距大型連續綠地平均距離_m":2736.5,"score_面積減少":89.21161825726142,"score_斑塊增加":42.531120331950206,"score_平均斑塊縮小":86.92946058091286,"score_道路建成區切割":70.53941908713692,"score_孤立比例":80.29045643153528,"score_距大型綠地":60.58091286307054,"綜合破碎化分數":71.7,"破碎化等級":"高","判定原因":"面積減少66.7%；斑塊增加0.0%；平均斑塊縮小66.7%；道路密度15.22 km/km²；孤立比例100.0%；距大型綠地2736m","2021面積_ha":0.0,"2022面積_ha":0.0,"2023面積_ha":0.09}},{"type":"Feature","geometry":{"type":"Polygon","coordinates":[[[121.8493798476787,24.620408772797706],[121.84944085859371,24.629436611450217],[121.85121401097153,24.629426586052876],[121.8512536,24.629354699999997],[121.8512827,24.629301899999998],[121.8515378,24.628908499999994],[121.8522386,24.6275597],[121.85268789999999,24.626848599999995],[121.8530577,24.626123300000003],[121.8535378,24.6250486],[121.8538279,24.624278599999997],[121.85468789999999,24.6227486],[121.8555378,24.6214685],[121.8558279,24.620948599999995],[121.8559971,24.6205867],[121.85612879521351,24.620370515724034],[121.8493798476787,24.620408772797706]]]},"properties":{"grid_id":"G035_054","綠地類型":"公園／都市綠地","中心經度":121.851546,"中心緯度":24.624676,"分析面積_km2":0.431,"2020面積_ha":0.63,"2024面積_ha":0.9,"面積減少率_pct":0.0,"2020斑塊數":1,"2024斑塊數":2,"斑塊數增加率_pct":100.0,"2020平均斑塊面積_ha":1.44,"2024平均斑塊面積_ha":0.945,"平均斑塊面積下降率_pct":34.38,"道路切割密度_km_per_km2":5.637,"建成區邊界切割密度_km_per_km2":0.07,"孤立小斑塊比例_pct":100.0,"距大型連續綠地平均距離_m":1042.6,"score_面積減少":29.87551867219917,"score_斑塊增加":95.0207468879668,"score_平均斑塊縮小":71.36929460580913,"score_道路建成區切割":46.2655601659751,"score_孤立比例":80.29045643153528,"score_距大型綠地":39.004149377593365,"綜合破碎化分數":60.3,"破碎化等級":"高","判定原因":"面積減少0.0%；斑塊增加100.0%；平均斑塊縮小34.4%；道路密度5.64 km/km²；孤立比例100.0%；距大型綠地1043m","2021面積_ha":0.36,"2022面積_ha":0.81,"2023面積_ha":0.72}},{"type":"Feature","geometry":{"type":"Polygon","coordinates":[[[121.57289219965645,24.63074432289971],[121.57293337086864,24.63977269243341],[121.58281113435713,24.639734728014666],[121.58276925342214,24.630706374205396],[121.57289219965645,24.63074432289971]]]},"properties":{"grid_id":"G036_026","綠地類型":"公園／都市綠地","中心經度":121.577851,"中心緯度":24.63524,"分析面積_km2":1.04,"2020面積_ha":7.2,"2024面積_ha":3.87,"面積減少率_pct":46.25,"2020斑塊數":7,"2024斑塊數":9,"斑塊數增加率_pct":28.57,"2020平均斑塊面積_ha":1.26,"2024平均斑塊面積_ha":0.61,"平均斑塊面積下降率_pct":51.59,"道路切割密度_km_per_km2":6.027,"建成區邊界切割密度_km_per_km2":0.865,"孤立小斑塊比例_pct":72.09,"距大型連續綠地平均距離_m":2665.8,"score_面積減少":83.40248962655602,"score_斑塊增加":85.47717842323651,"score_平均斑塊縮小":79.66804979253112,"score_道路建成區切割":70.12448132780082,"score_孤立比例":59.33609958506224,"score_距大型綠地":58.921161825726145,"綜合破碎化分數":72.8,"破碎化等級":"高","判定原因":"面積減少46.2%；斑塊增加28.6%；平均斑塊縮小51.6%；道路密度6.03 km/km²；孤立比例72.1%；距大型綠地2666m","2021面積_ha":7.29,"2022面積_ha":2.34,"2023面積_ha":6.12}},{"type":"Feature","geometry":{"type":"Polygon","coordinates":[[[121.60252329938726,24.630628531049794],[121.60256659974839,24.639656852604],[121.61244430095937,24.639616941622833],[121.6124002908951,24.630588636599263],[121.60252329938726,24.630628531049794]]]},"properties":{"grid_id":"G036_029","綠地類型":"公園／都市綠地","中心經度":121.607484,"中心緯度":24.635123,"分析面積_km2":1.04,"2020面積_ha":12.33,"2024面積_ha":12.06,"面積減少率_pct":2.19,"2020斑塊數":4,"2024斑塊數":6,"斑塊數增加率_pct":50.0,"2020平均斑塊面積_ha":5.513,"2024平均斑塊面積_ha":3.555,"平均斑塊面積下降率_pct":35.51,"道路切割密度_km_per_km2":6.113,"建成區邊界切割密度_km_per_km2":0.375,"孤立小斑塊比例_pct":8.96,"距大型連續綠地平均距離_m":107.0,"score_面積減少":62.24066390041494,"score_斑塊增加":89.00414937759335,"score_平均斑塊縮小":72.61410788381743,"score_道路建成區切割":64.52282157676349,"score_孤立比例":48.54771784232365,"score_距大型綠地":24.481327800829874,"綜合破碎化分數":60.2,"破碎化等級":"高","判定原因":"面積減少2.2%；斑塊增加50.0%；平均斑塊縮小35.5%；道路密度6.11 km/km²；孤立比例9.0%；距大型綠地107m","2021面積_ha":12.6,"2022面積_ha":11.52,"2023面積_ha":11.79}},{"type":"Feature","geometry":{"type":"Polygon","coordinates":[[[121.76055239658204,24.629912394200527],[121.76060705131944,24.638940419018283],[121.77048436781098,24.638890127267953],[121.77042900349194,24.629862123280184],[121.76055239658204,24.629912394200527]]]},"properties":{"grid_id":"G036_045","綠地類型":"公園／都市綠地","中心經度":121.765518,"中心緯度":24.634401,"分析面積_km2":1.04,"2020面積_ha":0.63,"2024面積_ha":0.27,"面積減少率_pct":57.14,"2020斑塊數":1,"2024斑塊數":1,"斑塊數增加率_pct":0.0,"2020平均斑塊面積_ha":0.63,"2024平均斑塊面積_ha":0.27,"平均斑塊面積下降率_pct":57.14,"道路切割密度_km_per_km2":12.514,"建成區邊界切割密度_km_per_km2":0.087,"孤立小斑塊比例_pct":100.0,"距大型連續綠地平均距離_m":939.6,"score_面積減少":86.30705394190872,"score_斑塊增加":42.531120331950206,"score_平均斑塊縮小":82.57261410788381,"score_道路建成區切割":71.47302904564316,"score_孤立比例":80.29045643153528,"score_距大型綠地":36.09958506224066,"綜合破碎化分數":66.5,"破碎化等級":"高","判定原因":"面積減少57.1%；斑塊增加0.0%；平均斑塊縮小57.1%；道路密度12.51 km/km²；孤立比例100.0%；距大型綠地940m","2021面積_ha":0.54,"2022面積_ha":0.09,"2023面積_ha":0.36}},{"type":"Feature","geometry":{"type":"Polygon","coordinates":[[[121.79018213603773,24.629759636024104],[121.79023891949447,24.638787597545846],[121.80011615399475,24.638735359588225],[121.80005866098227,24.629707419702505],[121.79018213603773,24.629759636024104]]]},"properties":{"grid_id":"G036_048","綠地類型":"公園／都市綠地","中心經度":121.795149,"中心緯度":24.634248,"分析面積_km2":1.04,"2020面積_ha":0.27,"2024面積_ha":0.54,"面積減少率_pct":0.0,"2020斑塊數":1,"2024斑塊數":2,"斑塊數增加率_pct":100.0,"2020平均斑塊面積_ha":3.06,"2024平均斑塊面積_ha":2.115,"平均斑塊面積下降率_pct":30.88,"道路切割密度_km_per_km2":13.091,"建成區邊界切割密度_km_per_km2":0.029,"孤立小斑塊比例_pct":16.67,"距大型連續綠地平均距離_m":3212.0,"score_面積減少":29.87551867219917,"score_斑塊增加":95.0207468879668,"score_平均斑塊縮小":69.70954356846472,"score_道路建成區切割":64.21161825726142,"score_孤立比例":50.4149377593361,"score_距大型綠地":73.02904564315352,"綜合破碎化分數":63.7,"破碎化等級":"高","判定原因":"面積減少0.0%；斑塊增加100.0%；平均斑塊縮小30.9%；道路密度13.09 km/km²；孤立比例16.7%；距大型綠地3212m","2021面積_ha":0.45,"2022面積_ha":0.45,"2023面積_ha":0.45}},{"type":"Feature","geometry":{"type":"Polygon","coordinates":[[[121.60256659974839,24.639656852604],[121.60260992121457,24.648685163247258],[121.61248833247456,24.64864523573315],[121.61244430095937,24.639616941622833],[121.60256659974839,24.639656852604]]]},"properties":{"grid_id":"G037_029","綠地類型":"公園／都市綠地","中心經度":121.607527,"中心緯度":24.644151,"分析面積_km2":1.04,"2020面積_ha":6.75,"2024面積_ha":5.67,"面積減少率_pct":16.0,"2020斑塊數":3,"2024斑塊數":6,"斑塊數增加率_pct":100.0,"2020平均斑塊面積_ha":5.25,"2024平均斑塊面積_ha":2.37,"平均斑塊面積下降率_pct":54.86,"道路切割密度_km_per_km2":6.315,"建成區邊界切割密度_km_per_km2":0.461,"孤立小斑塊比例_pct":25.4,"距大型連續綠地平均距離_m":696.0,"score_面積減少":73.02904564315352,"score_斑塊增加":95.0207468879668,"score_平均斑塊縮小":81.74273858921161,"score_道路建成區切割":67.9460580912863,"score_孤立比例":53.941908713692946,"score_距大型綠地":33.19502074688796,"綜合破碎化分數":67.5,"破碎化等級":"高","判定原因":"面積減少16.0%；斑塊增加100.0%；平均斑塊縮小54.9%；道路密度6.32 km/km²；孤立比例25.4%；距大型綠地696m","2021面積_ha":7.11,"2022面積_ha":5.94,"2023面積_ha":5.85}},{"type":"Feature","geometry":{"type":"Polygon","coordinates":[[[121.61244430095937,24.639616941622833],[121.61248833247456,24.64864523573315],[121.62236672227682,24.648604659107033],[121.62232198071939,24.639576381798438],[121.61244430095937,24.639616941622833]]]},"properties":{"grid_id":"G037_030","綠地類型":"公園／都市綠地","中心經度":121.617405,"中心緯度":24.644111,"分析面積_km2":1.04,"2020面積_ha":2.79,"2024面積_ha":2.61,"面積減少率_pct":6.45,"2020斑塊數":3,"2024斑塊數":4,"斑塊數增加率_pct":33.33,"2020平均斑塊面積_ha":5.25,"2024平均斑塊面積_ha":3.465,"平均斑塊面積下降率_pct":34.0,"道路切割密度_km_per_km2":3.922,"建成區邊界切割密度_km_per_km2":0.0,"孤立小斑塊比例_pct":24.14,"距大型連續綠地平均距離_m":1060.9,"score_面積減少":66.80497925311202,"score_斑塊增加":86.51452282157676,"score_平均斑塊縮小":70.95435684647303,"score_道路建成區切割":21.265560165975103,"score_孤立比例":52.282157676348554,"score_距大型綠地":39.41908713692946,"綜合破碎化分數":56.2,"破碎化等級":"高","判定原因":"面積減少6.5%；斑塊增加33.3%；平均斑塊縮小34.0%；道路密度3.92 km/km²；孤立比例24.1%；距大型綠地1061m","2021面積_ha":2.79,"2022面積_ha":2.52,"2023面積_ha":2.7}},{"type":"Feature","geometry":{"type":"Polygon","coordinates":[[[121.78036165731791,24.638839186774796],[121.78041775854054,24.647867158705655],[121.7902957306274,24.647815548106365],[121.79023891949447,24.638787597545846],[121.78036165731791,24.638839186774796]]]},"properties":{"grid_id":"G037_047","綠地類型":"公園／都市綠地","中心經度":121.785329,"中心緯度":24.643327,"分析面積_km2":1.04,"2020面積_ha":4.95,"2024面積_ha":7.56,"面積減少率_pct":0.0,"2020斑塊數":3,"2024斑塊數":4,"斑塊數增加率_pct":33.33,"2020平均斑塊面積_ha":2.13,"2024平均斑塊面積_ha":2.453,"平均斑塊面積下降率_pct":0.0,"道路切割密度_km_per_km2":8.506,"建成區邊界切割密度_km_per_km2":0.692,"孤立小斑塊比例_pct":3.57,"距大型連續綠地平均距離_m":3162.1,"score_面積減少":29.87551867219917,"score_斑塊增加":86.51452282157676,"score_平均斑塊縮小":26.970954356846473,"score_道路建成區切割":78.63070539419087,"score_孤立比例":43.983402489626556,"score_距大型綠地":71.78423236514523,"綜合破碎化分數":56.3,"破碎化等級":"高","判定原因":"面積減少0.0%；斑塊增加33.3%；平均斑塊縮小0.0%；道路密度8.51 km/km²；孤立比例3.6%；距大型綠地3162m","2021面積_ha":6.93,"2022面積_ha":4.59,"2023面積_ha":8.28}},{"type":"Feature","geometry":{"type":"Polygon","coordinates":[[[121.58289495747333,24.657791402910934],[121.58293689966744,24.66681972399201],[121.59281677396756,24.666781062720858],[121.59277412101903,24.657752757639653],[121.58289495747333,24.657791402910934]]]},"properties":{"grid_id":"G039_027","綠地類型":"公園／都市綠地","中心經度":121.587856,"中心緯度":24.662286,"分析面積_km2":1.04,"2020面積_ha":0.0,"2024面積_ha":0.09,"面積減少率_pct":0.0,"2020斑塊數":0,"2024斑塊數":1,"斑塊數增加率_pct":100.0,"2020平均斑塊面積_ha":0.0,"2024平均斑塊面積_ha":0.09,"平均斑塊面積下降率_pct":0.0,"道路切割密度_km_per_km2":5.854,"建成區邊界切割密度_km_per_km2":0.029,"孤立小斑塊比例_pct":100.0,"距大型連續綠地平均距離_m":2662.6,"score_面積減少":29.87551867219917,"score_斑塊增加":95.0207468879668,"score_平均斑塊縮小":26.970954356846473,"score_道路建成區切割":40.04149377593361,"score_孤立比例":80.29045643153528,"score_距大型綠地":58.50622406639005,"綜合破碎化分數":55.1,"破碎化等級":"高","判定原因":"面積減少0.0%；斑塊增加100.0%；平均斑塊縮小0.0%；道路密度5.85 km/km²；孤立比例100.0%；距大型綠地2663m","2021面積_ha":0.18,"2022面積_ha":0.09,"2023面積_ha":0.09}},{"type":"Feature","geometry":{"type":"Polygon","coordinates":[[[121.60265326379248,24.657713462976616],[121.6026966274888,24.666741751789097],[121.61257645988498,24.666701791202158],[121.61253238544751,24.65767351892724],[121.60265326379248,24.657713462976616]]]},"properties":{"grid_id":"G039_029","綠地類型":"公園／都市綠地","中心經度":121.607615,"中心緯度":24.662208,"分析面積_km2":1.04,"2020面積_ha":7.83,"2024面積_ha":5.4,"面積減少率_pct":31.03,"2020斑塊數":1,"2024斑塊數":2,"斑塊數增加率_pct":100.0,"2020平均斑塊面積_ha":8.1,"2024平均斑塊面積_ha":2.835,"平均斑塊面積下降率_pct":65.0,"道路切割密度_km_per_km2":4.325,"建成區邊界切割密度_km_per_km2":0.404,"孤立小斑塊比例_pct":16.67,"距大型連續綠地平均距離_m":1205.1,"score_面積減少":76.76348547717843,"score_斑塊增加":95.0207468879668,"score_平均斑塊縮小":85.06224066390041,"score_道路建成區切割":56.6390041493776,"score_孤立比例":50.4149377593361,"score_距大型綠地":41.90871369294606,"綜合破碎化分數":67.6,"破碎化等級":"高","判定原因":"面積減少31.0%；斑塊增加100.0%；平均斑塊縮小65.0%；道路密度4.33 km/km²；孤立比例16.7%；距大型綠地1205m","2021面積_ha":7.65,"2022面積_ha":6.3,"2023面積_ha":6.12}},{"type":"Feature","geometry":{"type":"Polygon","coordinates":[[[121.79035256944529,24.656843487702677],[121.79040943595692,24.66587141633179],[121.80028880119978,24.665819113447952],[121.80023122409469,24.656791206463943],[121.79035256944529,24.656843487702677]]]},"properties":{"grid_id":"G039_048","綠地類型":"公園／都市綠地","中心經度":121.795321,"中心緯度":24.661331,"分析面積_km2":1.04,"2020面積_ha":0.36,"2024面積_ha":0.18,"面積減少率_pct":50.0,"2020斑塊數":1,"2024斑塊數":1,"斑塊數增加率_pct":0.0,"2020平均斑塊面積_ha":0.36,"2024平均斑塊面積_ha":0.18,"平均斑塊面積下降率_pct":50.0,"道路切割密度_km_per_km2":11.419,"建成區邊界切割密度_km_per_km2":0.058,"孤立小斑塊比例_pct":100.0,"距大型連續綠地平均距離_m":4837.2,"score_面積減少":84.43983402489627,"score_斑塊增加":42.531120331950206,"score_平均斑塊縮小":78.63070539419087,"score_道路建成區切割":63.589211618257266,"score_孤立比例":80.29045643153528,"score_距大型綠地":86.30705394190872,"綜合破碎化分數":72.6,"破碎化等級":"高","判定原因":"面積減少50.0%；斑塊增加0.0%；平均斑塊縮小50.0%；道路密度11.42 km/km²；孤立比例100.0%；距大型綠地4837m","2021面積_ha":0.36,"2022面積_ha":0.0,"2023面積_ha":0.36}},{"type":"Feature","geometry":{"type":"Polygon","coordinates":[[[121.83974555883482,24.656575588993512],[121.82986701842042,24.656630467223636],[121.82992672725241,24.665658307659676],[121.83935524158322,24.665605925686112],[121.839362,24.665555200000004],[121.8396679,24.663288599999994],[121.8397776,24.662799900000003],[121.83978695615768,24.662761619878516],[121.83974555883482,24.656575588993512]]]},"properties":{"grid_id":"G039_052","綠地類型":"公園／都市綠地","中心經度":121.834827,"中心緯度":24.659696,"分析面積_km2":1.029,"2020面積_ha":9.36,"2024面積_ha":2.16,"面積減少率_pct":76.92,"2020斑塊數":1,"2024斑塊數":1,"斑塊數增加率_pct":0.0,"2020平均斑塊面積_ha":9.36,"2024平均斑塊面積_ha":2.16,"平均斑塊面積下降率_pct":76.92,"道路切割密度_km_per_km2":8.428,"建成區邊界切割密度_km_per_km2":0.408,"孤立小斑塊比例_pct":0.0,"距大型連續綠地平均距離_m":2668.5,"score_面積減少":90.45643153526972,"score_斑塊增加":42.531120331950206,"score_平均斑塊縮小":90.87136929460581,"score_道路建成區切割":74.06639004149378,"score_孤立比例":20.539419087136928,"score_距大型綠地":59.33609958506224,"綜合破碎化分數":63.0,"破碎化等級":"高","判定原因":"面積減少76.9%；斑塊增加0.0%；平均斑塊縮小76.9%；道路密度8.43 km/km²；孤立比例0.0%；距大型綠地2668m","2021面積_ha":9.36,"2022面積_ha":8.55,"2023面積_ha":2.79}},{"type":"Feature","geometry":{"type":"Polygon","coordinates":[[[121.58293689966744,24.66681972399201],[121.58297886229418,24.675848034157767],[121.59285944769493,24.675809356884507],[121.59281677396756,24.666781062720858],[121.58293689966744,24.66681972399201]]]},"properties":{"grid_id":"G040_027","綠地類型":"公園／都市綠地","中心經度":121.587898,"中心緯度":24.671315,"分析面積_km2":1.04,"2020面積_ha":1.8,"2024面積_ha":1.17,"面積減少率_pct":35.0,"2020斑塊數":1,"2024斑塊數":1,"斑塊數增加率_pct":0.0,"2020平均斑塊面積_ha":1.8,"2024平均斑塊面積_ha":1.17,"平均斑塊面積下降率_pct":35.0,"道路切割密度_km_per_km2":10.323,"建成區邊界切割密度_km_per_km2":0.058,"孤立小斑塊比例_pct":100.0,"距大型連續綠地平均距離_m":2337.1,"score_面積減少":80.49792531120332,"score_斑塊增加":42.531120331950206,"score_平均斑塊縮小":72.19917012448133,"score_道路建成區切割":60.16597510373444,"score_孤立比例":80.29045643153528,"score_距大型綠地":53.11203319502075,"綜合破碎化分數":64.8,"破碎化等級":"高","判定原因":"面積減少35.0%；斑塊增加0.0%；平均斑塊縮小35.0%；道路密度10.32 km/km²；孤立比例100.0%；距大型綠地2337m","2021面積_ha":2.16,"2022面積_ha":1.62,"2023面積_ha":1.26}},{"type":"Feature","geometry":{"type":"Polygon","coordinates":[[[121.61257645988498,24.666701791202158],[121.61262055579375,24.67573005255493],[121.6225010777992,24.675689425509574],[121.62245627080986,24.666661180965566],[121.61257645988498,24.666701791202158]]]},"properties":{"grid_id":"G040_030","綠地類型":"公園／都市綠地","中心經度":121.617539,"中心緯度":24.671196,"分析面積_km2":1.04,"2020面積_ha":12.69,"2024面積_ha":11.97,"面積減少率_pct":5.67,"2020斑塊數":2,"2024斑塊數":3,"斑塊數增加率_pct":50.0,"2020平均斑塊面積_ha":8.73,"2024平均斑塊面積_ha":5.49,"平均斑塊面積下降率_pct":37.11,"道路切割密度_km_per_km2":6.401,"建成區邊界切割密度_km_per_km2":0.26,"孤立小斑塊比例_pct":2.26,"距大型連續綠地平均距離_m":877.9,"score_面積減少":64.73029045643153,"score_斑塊增加":89.00414937759335,"score_平均斑塊縮小":73.44398340248964,"score_道路建成區切割":62.03319502074689,"score_孤立比例":43.15352697095436,"score_距大型綠地":35.26970954356847,"綜合破碎化分數":61.3,"破碎化等級":"高","判定原因":"面積減少5.7%；斑塊增加50.0%；平均斑塊縮小37.1%；道路密度6.40 km/km²；孤立比例2.3%；距大型綠地878m","2021面積_ha":12.15,"2022面積_ha":13.32,"2023面積_ha":14.22}},{"type":"Feature","geometry":{"type":"Polygon","coordinates":[[[121.67185499124722,24.66644838523732],[121.67190335353375,24.675476541704374],[121.68178373939791,24.675432015268832],[121.68173466607388,24.66640387722378],[121.67185499124722,24.66644838523732]]]},"properties":{"grid_id":"G040_036","綠地類型":"公園／都市綠地","中心經度":121.676819,"中心緯度":24.67094,"分析面積_km2":1.04,"2020面積_ha":2.79,"2024面積_ha":0.54,"面積減少率_pct":80.65,"2020斑塊數":2,"2024斑塊數":2,"斑塊數增加率_pct":0.0,"2020平均斑塊面積_ha":1.395,"2024平均斑塊面積_ha":0.27,"平均斑塊面積下降率_pct":80.65,"道路切割密度_km_per_km2":11.909,"建成區邊界切割密度_km_per_km2":0.173,"孤立小斑塊比例_pct":100.0,"距大型連續綠地平均距離_m":3836.0,"score_面積減少":91.70124481327801,"score_斑塊增加":42.531120331950206,"score_平均斑塊縮小":91.70124481327801,"score_道路建成區切割":74.48132780082987,"score_孤立比例":80.29045643153528,"score_距大型綠地":79.25311203319502,"綜合破碎化分數":76.7,"破碎化等級":"高","判定原因":"面積減少80.7%；斑塊增加0.0%；平均斑塊縮小80.7%；道路密度11.91 km/km²；孤立比例100.0%；距大型綠地3836m","2021面積_ha":1.98,"2022面積_ha":0.09,"2023面積_ha":1.8}},{"type":"Feature","geometry":{"type":"Polygon","coordinates":[[[121.69161431700579,24.666358719601753],[121.6916641013598,24.67538683895595],[121.70154443907312,24.67534101277196],[121.70149394369679,24.666312912377474],[121.69161431700579,24.666358719601753]]]},"properties":{"grid_id":"G040_038","綠地類型":"公園／都市綠地","中心經度":121.696579,"中心緯度":24.67085,"分析面積_km2":1.04,"2020面積_ha":0.81,"2024面積_ha":0.54,"面積減少率_pct":33.33,"2020斑塊數":2,"2024斑塊數":1,"斑塊數增加率_pct":0.0,"2020平均斑塊面積_ha":0.405,"2024平均斑塊面積_ha":0.54,"平均斑塊面積下降率_pct":0.0,"道路切割密度_km_per_km2":9.948,"建成區邊界切割密度_km_per_km2":0.144,"孤立小斑塊比例_pct":100.0,"距大型連續綠地平均距離_m":5516.8,"score_面積減少":78.42323651452283,"score_斑塊增加":42.531120331950206,"score_平均斑塊縮小":26.970954356846473,"score_道路建成區切割":67.63485477178423,"score_孤立比例":80.29045643153528,"score_距大型綠地":88.79668049792531,"綜合破碎化分數":64.1,"破碎化等級":"高","判定原因":"面積減少33.3%；斑塊增加0.0%；平均斑塊縮小0.0%；道路密度9.95 km/km²；孤立比例100.0%；距大型綠地5517m","2021面積_ha":1.35,"2022面積_ha":0.99,"2023面積_ha":0.63}},{"type":"Feature","geometry":{"type":"Polygon","coordinates":[[[121.81016813839409,24.66576616103643],[121.81022645447858,24.67479403513029],[121.82010647419993,24.674740411012635],[121.82004744719366,24.665712559104538],[121.81016813839409,24.66576616103643]]]},"properties":{"grid_id":"G040_050","綠地類型":"公園／都市綠地","中心經度":121.815137,"中心緯度":24.670253,"分析面積_km2":1.04,"2020面積_ha":2.16,"2024面積_ha":0.72,"面積減少率_pct":66.67,"2020斑塊數":3,"2024斑塊數":3,"斑塊數增加率_pct":0.0,"2020平均斑塊面積_ha":0.72,"2024平均斑塊面積_ha":0.24,"平均斑塊面積下降率_pct":66.67,"道路切割密度_km_per_km2":7.007,"建成區邊界切割密度_km_per_km2":0.087,"孤立小斑塊比例_pct":100.0,"距大型連續綠地平均距離_m":3297.5,"score_面積減少":89.21161825726142,"score_斑塊增加":42.531120331950206,"score_平均斑塊縮小":86.92946058091286,"score_道路建成區切割":54.66804979253112,"score_孤立比例":80.29045643153528,"score_距大型綠地":73.44398340248964,"綜合破碎化分數":71.2,"破碎化等級":"高","判定原因":"面積減少66.7%；斑塊增加0.0%；平均斑塊縮小66.7%；道路密度7.01 km/km²；孤立比例100.0%；距大型綠地3298m","2021面積_ha":1.71,"2022面積_ha":2.16,"2023面積_ha":1.89}},{"type":"Feature","geometry":{"type":"Polygon","coordinates":[[[121.63238157798024,24.675648148551293],[121.63242711821398,24.684676365087824],[121.64230830763725,24.684634420873373],[121.64226205599051,24.67560622168579],[121.63238157798024,24.675648148551293]]]},"properties":{"grid_id":"G041_032","綠地類型":"公園／都市綠地","中心經度":121.637345,"中心緯度":24.680141,"分析面積_km2":1.04,"2020面積_ha":9.45,"2024面積_ha":9.81,"面積減少率_pct":0.0,"2020斑塊數":2,"2024斑塊數":4,"斑塊數增加率_pct":100.0,"2020平均斑塊面積_ha":8.55,"2024平均斑塊面積_ha":5.603,"平均斑塊面積下降率_pct":34.47,"道路切割密度_km_per_km2":9.112,"建成區邊界切割密度_km_per_km2":0.231,"孤立小斑塊比例_pct":0.92,"距大型連續綠地平均距離_m":53.2,"score_面積減少":29.87551867219917,"score_斑塊增加":95.0207468879668,"score_平均斑塊縮小":71.78423236514523,"score_道路建成區切割":70.22821576763485,"score_孤立比例":41.90871369294606,"score_距大型綠地":23.651452282157674,"綜合破碎化分數":55.4,"破碎化等級":"高","判定原因":"面積減少0.0%；斑塊增加100.0%；平均斑塊縮小34.5%；道路密度9.11 km/km²；孤立比例0.9%；距大型綠地53m","2021面積_ha":9.18,"2022面積_ha":9.72,"2023面積_ha":9.45}},{"type":"Feature","geometry":{"type":"Polygon","coordinates":[[[121.7509457517911,24.67510213401016],[121.7509998284864,24.684130124611848],[121.76088072475663,24.684080378761657],[121.76082593674106,24.675052408735656],[121.7509457517911,24.67510213401016]]]},"properties":{"grid_id":"G041_044","綠地類型":"公園／都市綠地","中心經度":121.755913,"中心緯度":24.679591,"分析面積_km2":1.04,"2020面積_ha":12.33,"2024面積_ha":11.7,"面積減少率_pct":5.11,"2020斑塊數":1,"2024斑塊數":2,"斑塊數增加率_pct":100.0,"2020平均斑塊面積_ha":26.01,"2024平均斑塊面積_ha":13.005,"平均斑塊面積下降率_pct":50.0,"道路切割密度_km_per_km2":18.051,"建成區邊界切割密度_km_per_km2":0.952,"孤立小斑塊比例_pct":0.0,"距大型連續綠地平均距離_m":85.4,"score_面積減少":64.31535269709543,"score_斑塊增加":95.0207468879668,"score_平均斑塊縮小":78.63070539419087,"score_道路建成區切割":96.88796680497924,"score_孤立比例":20.539419087136928,"score_距大型綠地":24.066390041493776,"綜合破碎化分數":63.2,"破碎化等級":"高","判定原因":"面積減少5.1%；斑塊增加100.0%；平均斑塊縮小50.0%；道路密度18.05 km/km²；孤立比例0.0%；距大型綠地85m","2021面積_ha":12.06,"2022面積_ha":11.7,"2023面積_ha":12.51}},{"type":"Feature","geometry":{"type":"Polygon","coordinates":[[[121.76082593674106,24.675052408735656],[121.76088072475663,24.684080378761657],[121.77076159434594,24.684029982817705],[121.77070609501854,24.675002033636254],[121.76082593674106,24.675052408735656]]]},"properties":{"grid_id":"G041_045","綠地類型":"公園／都市綠地","中心經度":121.765794,"中心緯度":24.679541,"分析面積_km2":1.04,"2020面積_ha":0.63,"2024面積_ha":0.36,"面積減少率_pct":42.86,"2020斑塊數":1,"2024斑塊數":2,"斑塊數增加率_pct":100.0,"2020平均斑塊面積_ha":0.63,"2024平均斑塊面積_ha":0.18,"平均斑塊面積下降率_pct":71.43,"道路切割密度_km_per_km2":24.02,"建成區邊界切割密度_km_per_km2":0.115,"孤立小斑塊比例_pct":100.0,"距大型連續綠地平均距離_m":949.1,"score_面積減少":82.57261410788381,"score_斑塊增加":95.0207468879668,"score_平均斑塊縮小":88.79668049792531,"score_道路建成區切割":79.77178423236515,"score_孤立比例":80.29045643153528,"score_距大型綠地":37.344398340248965,"綜合破碎化分數":77.3,"破碎化等級":"高","判定原因":"面積減少42.9%；斑塊增加100.0%；平均斑塊縮小71.4%；道路密度24.02 km/km²；孤立比例100.0%；距大型綠地949m","2021面積_ha":0.81,"2022面積_ha":0.45,"2023面積_ha":0.63}},{"type":"Feature","geometry":{"type":"Polygon","coordinates":[[[121.7114759835236,24.68432260693878],[121.71152723980465,24.6933506662011],[121.7214089510342,24.69330350129094],[121.72135698305381,24.68427546153151],[121.7114759835236,24.68432260693878]]]},"properties":{"grid_id":"G042_040","綠地類型":"公園／都市綠地","中心經度":121.716442,"中心緯度":24.688813,"分析面積_km2":1.04,"2020面積_ha":0.54,"2024面積_ha":0.36,"面積減少率_pct":33.33,"2020斑塊數":2,"2024斑塊數":1,"斑塊數增加率_pct":0.0,"2020平均斑塊面積_ha":0.27,"2024平均斑塊面積_ha":0.36,"平均斑塊面積下降率_pct":0.0,"道路切割密度_km_per_km2":12.197,"建成區邊界切割密度_km_per_km2":0.087,"孤立小斑塊比例_pct":100.0,"距大型連續綠地平均距離_m":3379.3,"score_面積減少":78.42323651452283,"score_斑塊增加":42.531120331950206,"score_平均斑塊縮小":26.970954356846473,"score_道路建成區切割":70.64315352697096,"score_孤立比例":80.29045643153528,"score_距大型綠地":74.68879668049793,"綜合破碎化分數":62.3,"破碎化等級":"高","判定原因":"面積減少33.3%；斑塊增加0.0%；平均斑塊縮小0.0%；道路密度12.20 km/km²；孤立比例100.0%；距大型綠地3379m","2021面積_ha":0.63,"2022面積_ha":0.27,"2023面積_ha":0.36}},{"type":"Feature","geometry":{"type":"Polygon","coordinates":[[[121.63247268062551,24.693704570691537],[121.63251826522179,24.7027327653595],[121.64240087851041,24.702690786439877],[121.64235458180816,24.693662609125717],[121.63247268062551,24.693704570691537]]]},"properties":{"grid_id":"G043_032","綠地類型":"公園／都市綠地","中心經度":121.637437,"中心緯度":24.698198,"分析面積_km2":1.04,"2020面積_ha":0.18,"2024面積_ha":0.09,"面積減少率_pct":50.0,"2020斑塊數":2,"2024斑塊數":1,"斑塊數增加率_pct":0.0,"2020平均斑塊面積_ha":0.36,"2024平均斑塊面積_ha":0.09,"平均斑塊面積下降率_pct":75.0,"道路切割密度_km_per_km2":3.922,"建成區邊界切割密度_km_per_km2":0.029,"孤立小斑塊比例_pct":100.0,"距大型連續綠地平均距離_m":1110.4,"score_面積減少":84.43983402489627,"score_斑塊增加":42.531120331950206,"score_平均斑塊縮小":89.83402489626556,"score_道路建成區切割":31.53526970954357,"score_孤立比例":80.29045643153528,"score_距大型綠地":40.66390041493776,"綜合破碎化分數":61.5,"破碎化等級":"高","判定原因":"面積減少50.0%；斑塊增加0.0%；平均斑塊縮小75.0%；道路密度3.92 km/km²；孤立比例100.0%；距大型綠地1110m","2021面積_ha":0.0,"2022面積_ha":0.09,"2023面積_ha":0.0}},{"type":"Feature","geometry":{"type":"Polygon","coordinates":[[[121.65223646045953,24.69361999712061],[121.65228346926058,24.702648156811975],[121.66216603712567,24.7026048764817],[121.66211831623305,24.69357673468211],[121.65223646045953,24.69361999712061]]]},"properties":{"grid_id":"G043_034","綠地類型":"公園／都市綠地","中心經度":121.657201,"中心緯度":24.698113,"分析面積_km2":1.04,"2020面積_ha":1.17,"2024面積_ha":0.45,"面積減少率_pct":61.54,"2020斑塊數":2,"2024斑塊數":3,"斑塊數增加率_pct":50.0,"2020平均斑塊面積_ha":1.08,"2024平均斑塊面積_ha":0.54,"平均斑塊面積下降率_pct":50.0,"道路切割密度_km_per_km2":1.874,"建成區邊界切割密度_km_per_km2":0.144,"孤立小斑塊比例_pct":100.0,"距大型連續綠地平均距離_m":1641.7,"score_面積減少":87.13692946058092,"score_斑塊增加":89.00414937759335,"score_平均斑塊縮小":78.63070539419087,"score_道路建成區切割":35.788381742738586,"score_孤立比例":80.29045643153528,"score_距大型綠地":45.643153526970956,"綜合破碎化分數":69.4,"破碎化等級":"高","判定原因":"面積減少61.5%；斑塊增加50.0%；平均斑塊縮小50.0%；道路密度1.87 km/km²；孤立比例100.0%；距大型綠地1642m","2021面積_ha":0.72,"2022面積_ha":0.18,"2023面積_ha":0.81}},{"type":"Feature","geometry":{"type":"Polygon","coordinates":[[[121.66211831623305,24.69357673468211],[121.66216603712567,24.7026048764817],[121.67204858175901,24.702560945455026],[121.67200014878219,24.69353282181619],[121.66211831623305,24.69357673468211]]]},"properties":{"grid_id":"G043_035","綠地類型":"公園／都市綠地","中心經度":121.667083,"中心緯度":24.698069,"分析面積_km2":1.04,"2020面積_ha":7.92,"2024面積_ha":7.38,"面積減少率_pct":6.82,"2020斑塊數":5,"2024斑塊數":7,"斑塊數增加率_pct":40.0,"2020平均斑塊面積_ha":1.854,"2024平均斑塊面積_ha":1.157,"平均斑塊面積下降率_pct":37.59,"道路切割密度_km_per_km2":5.796,"建成區邊界切割密度_km_per_km2":0.692,"孤立小斑塊比例_pct":37.8,"距大型連續綠地平均距離_m":2429.0,"score_面積減少":67.21991701244814,"score_斑塊增加":87.55186721991701,"score_平均斑塊縮小":74.27385892116183,"score_道路建成區切割":67.73858921161826,"score_孤立比例":56.43153526970954,"score_距大型綠地":54.77178423236515,"綜合破碎化分數":68.0,"破碎化等級":"高","判定原因":"面積減少6.8%；斑塊增加40.0%；平均斑塊縮小37.6%；道路密度5.80 km/km²；孤立比例37.8%；距大型綠地2429m","2021面積_ha":8.37,"2022面積_ha":7.74,"2023面積_ha":7.38}},{"type":"Feature","geometry":{"type":"Polygon","coordinates":[[[121.69176374282128,24.693443044826477],[121.69181359994404,24.70247113133687],[121.70169607280246,24.702425248257807],[121.70164550361817,24.69339718071509],[121.69176374282128,24.693443044826477]]]},"properties":{"grid_id":"G043_038","綠地類型":"公園／都市綠地","中心經度":121.69673,"中心緯度":24.697934,"分析面積_km2":1.04,"2020面積_ha":5.4,"2024面積_ha":4.68,"面積減少率_pct":13.33,"2020斑塊數":1,"2024斑塊數":2,"斑塊數增加率_pct":100.0,"2020平均斑塊面積_ha":9.45,"2024平均斑塊面積_ha":4.05,"平均斑塊面積下降率_pct":57.14,"道路切割密度_km_per_km2":6.344,"建成區邊界切割密度_km_per_km2":0.317,"孤立小斑塊比例_pct":3.85,"距大型連續綠地平均距離_m":4935.0,"score_面積減少":71.78423236514523,"score_斑塊增加":95.0207468879668,"score_平均斑塊縮小":82.57261410788381,"score_道路建成區切割":64.10788381742739,"score_孤立比例":44.81327800829876,"score_距大型綠地":87.13692946058092,"綜合破碎化分數":74.2,"破碎化等級":"高","判定原因":"面積減少13.3%；斑塊增加100.0%；平均斑塊縮小57.1%；道路密度6.34 km/km²；孤立比例3.9%；距大型綠地4935m","2021面積_ha":5.85,"2022面積_ha":5.49,"2023面積_ha":4.95}},{"type":"Feature","geometry":{"type":"Polygon","coordinates":[[[121.70164550361817,24.69339718071509],[121.70169607280246,24.702425248257807],[121.71157852104265,24.702378714507166],[121.71152723980465,24.6933506662011],[121.70164550361817,24.69339718071509]]]},"properties":{"grid_id":"G043_039","綠地類型":"公園／都市綠地","中心經度":121.706612,"中心緯度":24.697888,"分析面積_km2":1.04,"2020面積_ha":1.35,"2024面積_ha":1.71,"面積減少率_pct":0.0,"2020斑塊數":3,"2024斑塊數":3,"斑塊數增加率_pct":0.0,"2020平均斑塊面積_ha":3.24,"2024平均斑塊面積_ha":0.63,"平均斑塊面積下降率_pct":80.56,"道路切割密度_km_per_km2":7.036,"建成區邊界切割密度_km_per_km2":0.433,"孤立小斑塊比例_pct":100.0,"距大型連續綠地平均距離_m":4634.5,"score_面積減少":29.87551867219917,"score_斑塊增加":42.531120331950206,"score_平均斑塊縮小":91.28630705394191,"score_道路建成區切割":70.53941908713693,"score_孤立比例":80.29045643153528,"score_距大型綠地":85.06224066390041,"綜合破碎化分數":66.6,"破碎化等級":"高","判定原因":"面積減少0.0%；斑塊增加0.0%；平均斑塊縮小80.6%；道路密度7.04 km/km²；孤立比例100.0%；距大型綠地4634m","2021面積_ha":2.61,"2022面積_ha":2.34,"2023面積_ha":1.62}},{"type":"Feature","geometry":{"type":"Polygon","coordinates":[[[121.71152723980465,24.6933506662011],[121.71157852104265,24.702378714507166],[121.721460944318,24.702331530091403],[121.7214089510342,24.69330350129094],[121.71152723980465,24.6933506662011]]]},"properties":{"grid_id":"G043_040","綠地類型":"公園／都市綠地","中心經度":121.716494,"中心緯度":24.697841,"分析面積_km2":1.04,"2020面積_ha":8.37,"2024面積_ha":5.49,"面積減少率_pct":34.41,"2020斑塊數":2,"2024斑塊數":4,"斑塊數增加率_pct":100.0,"2020平均斑塊面積_ha":6.525,"2024平均斑塊面積_ha":2.295,"平均斑塊面積下降率_pct":64.83,"道路切割密度_km_per_km2":9.977,"建成區邊界切割密度_km_per_km2":0.144,"孤立小斑塊比例_pct":21.31,"距大型連續綠地平均距離_m":3442.1,"score_面積減少":80.08298755186722,"score_斑塊增加":95.0207468879668,"score_平均斑塊縮小":84.64730290456431,"score_道路建成區切割":67.9460580912863,"score_孤立比例":51.867219917012456,"score_距大型綠地":75.10373443983403,"綜合破碎化分數":75.8,"破碎化等級":"高","判定原因":"面積減少34.4%；斑塊增加100.0%；平均斑塊縮小64.8%；道路密度9.98 km/km²；孤立比例21.3%；距大型綠地3442m","2021面積_ha":8.19,"2022面積_ha":7.83,"2023面積_ha":6.48}},{"type":"Feature","geometry":{"type":"Polygon","coordinates":[[[121.7214089510342,24.69330350129094],[121.721460944318,24.702331530091403],[121.7313433422819,24.70228369501702],[121.7312906369603,24.69325568599114],[121.7214089510342,24.69330350129094]]]},"properties":{"grid_id":"G043_041","綠地類型":"公園／都市綠地","中心經度":121.726376,"中心緯度":24.697794,"分析面積_km2":1.04,"2020面積_ha":5.31,"2024面積_ha":4.23,"面積減少率_pct":20.34,"2020斑塊數":2,"2024斑塊數":3,"斑塊數增加率_pct":50.0,"2020平均斑塊面積_ha":4.905,"2024平均斑塊面積_ha":2.7,"平均斑塊面積下降率_pct":44.95,"道路切割密度_km_per_km2":12.486,"建成區邊界切割密度_km_per_km2":0.26,"孤立小斑塊比例_pct":2.13,"距大型連續綠地平均距離_m":3074.9,"score_面積減少":75.51867219917013,"score_斑塊增加":89.00414937759335,"score_平均斑塊縮小":76.76348547717843,"score_道路建成區切割":80.91286307053943,"score_孤立比例":42.738589211618255,"score_距大型綠地":68.04979253112033,"綜合破碎化分數":72.2,"破碎化等級":"高","判定原因":"面積減少20.3%；斑塊增加50.0%；平均斑塊縮小45.0%；道路密度12.49 km/km²；孤立比例2.1%；距大型綠地3075m","2021面積_ha":4.41,"2022面積_ha":3.87,"2023面積_ha":4.14}},{"type":"Feature","geometry":{"type":"Polygon","coordinates":[[[121.7312906369603,24.69325568599114],[121.7313433422819,24.70228369501702],[121.74122571458778,24.70223520929064],[121.74117229723649,24.69320722030829],[121.7312906369603,24.69325568599114]]]},"properties":{"grid_id":"G043_042","綠地類型":"公園／都市綠地","中心經度":121.736258,"中心緯度":24.697746,"分析面積_km2":1.04,"2020面積_ha":0.09,"2024面積_ha":0.27,"面積減少率_pct":0.0,"2020斑塊數":1,"2024斑塊數":3,"斑塊數增加率_pct":200.0,"2020平均斑塊面積_ha":0.09,"2024平均斑塊面積_ha":0.09,"平均斑塊面積下降率_pct":0.0,"道路切割密度_km_per_km2":13.552,"建成區邊界切割密度_km_per_km2":0.087,"孤立小斑塊比例_pct":100.0,"距大型連續綠地平均距離_m":2143.7,"score_面積減少":29.87551867219917,"score_斑塊增加":100.0,"score_平均斑塊縮小":26.970954356846473,"score_道路建成區切割":73.7551867219917,"score_孤立比例":80.29045643153528,"score_距大型綠地":49.37759336099585,"綜合破碎化分數":60.0,"破碎化等級":"高","判定原因":"面積減少0.0%；斑塊增加200.0%；平均斑塊縮小0.0%；道路密度13.55 km/km²；孤立比例100.0%；距大型綠地2144m","2021面積_ha":0.9,"2022面積_ha":0.09,"2023面積_ha":0.36}},{"type":"Feature","geometry":{"type":"Polygon","coordinates":[[[121.64240087851041,24.702690786439877],[121.64244719775111,24.711718952812866],[121.65233050094672,24.71167630555971],[121.65228346926058,24.702648156811975],[121.64240087851041,24.702690786439877]]]},"properties":{"grid_id":"G044_033","綠地類型":"公園／都市綠地","中心經度":121.647366,"中心緯度":24.707184,"分析面積_km2":1.04,"2020面積_ha":0.0,"2024面積_ha":0.27,"面積減少率_pct":0.0,"2020斑塊數":0,"2024斑塊數":1,"斑塊數增加率_pct":100.0,"2020平均斑塊面積_ha":0.0,"2024平均斑塊面積_ha":0.27,"平均斑塊面積下降率_pct":0.0,"道路切割密度_km_per_km2":5.94,"建成區邊界切割密度_km_per_km2":0.087,"孤立小斑塊比例_pct":100.0,"距大型連續綠地平均距離_m":2540.4,"score_面積減少":29.87551867219917,"score_斑塊增加":95.0207468879668,"score_平均斑塊縮小":26.970954356846473,"score_道路建成區切割":49.68879668049793,"score_孤立比例":80.29045643153528,"score_距大型綠地":56.43153526970954,"綜合破碎化分數":56.4,"破碎化等級":"高","判定原因":"面積減少0.0%；斑塊增加100.0%；平均斑塊縮小0.0%；道路密度5.94 km/km²；孤立比例100.0%；距大型綠地2540m","2021面積_ha":0.54,"2022面積_ha":0.27,"2023面積_ha":0.0}},{"type":"Feature","geometry":{"type":"Polygon","coordinates":[[[121.721460944318,24.702331530091403],[121.72151296291325,24.711359547929895],[121.73139607326156,24.71131169307817],[121.7313433422819,24.70228369501702],[121.721460944318,24.702331530091403]]]},"properties":{"grid_id":"G044_041","綠地類型":"公園／都市綠地","中心經度":121.726428,"中心緯度":24.706822,"分析面積_km2":1.04,"2020面積_ha":0.45,"2024面積_ha":0.36,"面積減少率_pct":20.0,"2020斑塊數":2,"2024斑塊數":2,"斑塊數增加率_pct":0.0,"2020平均斑塊面積_ha":0.225,"2024平均斑塊面積_ha":0.18,"平均斑塊面積下降率_pct":20.0,"道路切割密度_km_per_km2":7.093,"建成區邊界切割密度_km_per_km2":0.115,"孤立小斑塊比例_pct":100.0,"距大型連續綠地平均距離_m":2892.8,"score_面積減少":75.10373443983403,"score_斑塊增加":42.531120331950206,"score_平均斑塊縮小":67.63485477178423,"score_道路建成區切割":57.57261410788382,"score_孤立比例":80.29045643153528,"score_距大型綠地":64.31535269709543,"綜合破碎化分數":64.6,"破碎化等級":"高","判定原因":"面積減少20.0%；斑塊增加0.0%；平均斑塊縮小20.0%；道路密度7.09 km/km²；孤立比例100.0%；距大型綠地2893m","2021面積_ha":0.54,"2022面積_ha":0.45,"2023面積_ha":0.63}},{"type":"Feature","geometry":{"type":"Polygon","coordinates":[[[121.7313433422819,24.70228369501702],[121.73139607326156,24.71131169307817],[121.74127915794371,24.711263187305452],[121.74122571458778,24.70223520929064],[121.7313433422819,24.70228369501702]]]},"properties":{"grid_id":"G044_042","綠地類型":"公園／都市綠地","中心經度":121.736311,"中心緯度":24.706774,"分析面積_km2":1.04,"2020面積_ha":2.88,"2024面積_ha":0.54,"面積減少率_pct":81.25,"2020斑塊數":4,"2024斑塊數":2,"斑塊數增加率_pct":0.0,"2020平均斑塊面積_ha":0.81,"2024平均斑塊面積_ha":0.27,"平均斑塊面積下降率_pct":66.67,"道路切割密度_km_per_km2":5.565,"建成區邊界切割密度_km_per_km2":0.173,"孤立小斑塊比例_pct":100.0,"距大型連續綠地平均距離_m":2712.6,"score_面積減少":92.11618257261411,"score_斑塊增加":42.531120331950206,"score_平均斑塊縮小":86.92946058091286,"score_道路建成區切割":52.904564315352694,"score_孤立比例":80.29045643153528,"score_距大型綠地":59.75103734439834,"綜合破碎化分數":69.1,"破碎化等級":"高","判定原因":"面積減少81.2%；斑塊增加0.0%；平均斑塊縮小66.7%；道路密度5.57 km/km²；孤立比例100.0%；距大型綠地2713m","2021面積_ha":3.78,"2022面積_ha":1.71,"2023面積_ha":2.61}},{"type":"Feature","geometry":{"type":"Polygon","coordinates":[[[121.74122571458778,24.70223520929064],[121.74127915794371,24.711263187305452],[121.75116221661297,24.711214030618446],[121.75110806088898,24.702186072918966],[121.74122571458778,24.70223520929064]]]},"properties":{"grid_id":"G044_043","綠地類型":"公園／都市綠地","中心經度":121.746194,"中心緯度":24.706725,"分析面積_km2":1.04,"2020面積_ha":3.06,"2024面積_ha":1.08,"面積減少率_pct":64.71,"2020斑塊數":3,"2024斑塊數":4,"斑塊數增加率_pct":33.33,"2020平均斑塊面積_ha":1.47,"2024平均斑塊面積_ha":0.608,"平均斑塊面積下降率_pct":58.67,"道路切割密度_km_per_km2":12.168,"建成區邊界切割密度_km_per_km2":0.202,"孤立小斑塊比例_pct":100.0,"距大型連續綠地平均距離_m":2377.7,"score_面積減少":87.96680497925311,"score_斑塊增加":86.51452282157676,"score_平均斑塊縮小":83.40248962655602,"score_道路建成區切割":77.38589211618257,"score_孤立比例":80.29045643153528,"score_距大型綠地":53.941908713692946,"綜合破碎化分數":78.3,"破碎化等級":"高","判定原因":"面積減少64.7%；斑塊增加33.3%；平均斑塊縮小58.7%；道路密度12.17 km/km²；孤立比例100.0%；距大型綠地2378m","2021面積_ha":2.88,"2022面積_ha":2.61,"2023面積_ha":3.78}},{"type":"Feature","geometry":{"type":"Polygon","coordinates":[[[121.75110806088898,24.702186072918966],[121.75116221661297,24.711214030618446],[121.76104524892267,24.71116422302394],[121.76099038083899,24.702136285908782],[121.75110806088898,24.702186072918966]]]},"properties":{"grid_id":"G044_044","綠地類型":"公園／都市綠地","中心經度":121.756076,"中心緯度":24.706675,"分析面積_km2":1.04,"2020面積_ha":2.34,"2024面積_ha":2.34,"面積減少率_pct":0.0,"2020斑塊數":4,"2024斑塊數":5,"斑塊數增加率_pct":25.0,"2020平均斑塊面積_ha":0.855,"2024平均斑塊面積_ha":0.54,"平均斑塊面積下降率_pct":36.84,"道路切割密度_km_per_km2":8.449,"建成區邊界切割密度_km_per_km2":0.346,"孤立小斑塊比例_pct":100.0,"距大型連續綠地平均距離_m":2274.9,"score_面積減少":29.87551867219917,"score_斑塊增加":85.06224066390041,"score_平均斑塊縮小":73.02904564315352,"score_道路建成區切割":72.30290456431536,"score_孤立比例":80.29045643153528,"score_距大型綠地":51.867219917012456,"綜合破碎化分數":65.4,"破碎化等級":"高","判定原因":"面積減少0.0%；斑塊增加25.0%；平均斑塊縮小36.8%；道路密度8.45 km/km²；孤立比例100.0%；距大型綠地2275m","2021面積_ha":3.6,"2022面積_ha":3.15,"2023面積_ha":3.24}},{"type":"Feature","geometry":{"type":"Polygon","coordinates":[[[121.6819802717926,24.711544457995874],[121.68202946470375,24.720572541299493],[121.69191338701212,24.72052727149306],[121.69186348133843,24.71149920689339],[121.6819802717926,24.711544457995874]]]},"properties":{"grid_id":"G045_037","綠地類型":"公園／都市綠地","中心經度":121.686947,"中心緯度":24.716036,"分析面積_km2":1.04,"2020面積_ha":1.53,"2024面積_ha":0.18,"面積減少率_pct":88.24,"2020斑塊數":2,"2024斑塊數":1,"斑塊數增加率_pct":0.0,"2020平均斑塊面積_ha":0.765,"2024平均斑塊面積_ha":0.18,"平均斑塊面積下降率_pct":76.47,"道路切割密度_km_per_km2":9.458,"建成區邊界切割密度_km_per_km2":0.058,"孤立小斑塊比例_pct":100.0,"距大型連續綠地平均距離_m":3915.6,"score_面積減少":92.9460580912863,"score_斑塊增加":42.531120331950206,"score_平均斑塊縮小":90.45643153526972,"score_道路建成區切割":57.88381742738589,"score_孤立比例":80.29045643153528,"score_距大型綠地":80.49792531120332,"綜合破碎化分數":74.1,"破碎化等級":"高","判定原因":"面積減少88.2%；斑塊增加0.0%；平均斑塊縮小76.5%；道路密度9.46 km/km²；孤立比例100.0%；距大型綠地3916m","2021面積_ha":0.45,"2022面積_ha":0.0,"2023面積_ha":0.09}},{"type":"Feature","geometry":{"type":"Polygon","coordinates":[[[121.69186348133843,24.71149920689339],[121.69191338701212,24.72052727149306],[121.70179728503349,24.720481350470664],[121.70174666660498,24.71145330484398],[121.69186348133843,24.71149920689339]]]},"properties":{"grid_id":"G045_038","綠地類型":"公園／都市綠地","中心經度":121.69683,"中心緯度":24.71599,"分析面積_km2":1.04,"2020面積_ha":0.27,"2024面積_ha":0.18,"面積減少率_pct":33.33,"2020斑塊數":2,"2024斑塊數":1,"斑塊數增加率_pct":0.0,"2020平均斑塊面積_ha":0.27,"2024平均斑塊面積_ha":0.18,"平均斑塊面積下降率_pct":33.33,"道路切割密度_km_per_km2":12.168,"建成區邊界切割密度_km_per_km2":0.058,"孤立小斑塊比例_pct":100.0,"距大型連續綠地平均距離_m":3728.6,"score_面積減少":78.42323651452283,"score_斑塊增加":42.531120331950206,"score_平均斑塊縮小":70.33195020746888,"score_道路建成區切割":65.87136929460581,"score_孤立比例":80.29045643153528,"score_距大型綠地":78.83817427385893,"綜合破碎化分數":69.4,"破碎化等級":"高","判定原因":"面積減少33.3%；斑塊增加0.0%；平均斑塊縮小33.3%；道路密度12.17 km/km²；孤立比例100.0%；距大型綠地3729m","2021面積_ha":0.45,"2022面積_ha":0.09,"2023面積_ha":0.18}},{"type":"Feature","geometry":{"type":"Polygon","coordinates":[[[121.73139607326156,24.71131169307817],[121.73144882990741,24.720339680171623],[121.74133262731254,24.720291154349756],[121.74127915794371,24.711263187305452],[121.73139607326156,24.71131169307817]]]},"properties":{"grid_id":"G045_042","綠地類型":"公園／都市綠地","中心經度":121.736364,"中心緯度":24.715802,"分析面積_km2":1.04,"2020面積_ha":0.63,"2024面積_ha":0.18,"面積減少率_pct":71.43,"2020斑塊數":1,"2024斑塊數":2,"斑塊數增加率_pct":100.0,"2020平均斑塊面積_ha":1.26,"2024平均斑塊面積_ha":0.225,"平均斑塊面積下降率_pct":82.14,"道路切割密度_km_per_km2":12.947,"建成區邊界切割密度_km_per_km2":0.058,"孤立小斑塊比例_pct":100.0,"距大型連續綠地平均距離_m":2967.2,"score_面積減少":90.04149377593362,"score_斑塊增加":95.0207468879668,"score_平均斑塊縮小":92.11618257261411,"score_道路建成區切割":68.15352697095436,"score_孤立比例":80.29045643153528,"score_距大型綠地":65.14522821576763,"綜合破碎化分數":81.8,"破碎化等級":"高","判定原因":"面積減少71.4%；斑塊增加100.0%；平均斑塊縮小82.1%；道路密度12.95 km/km²；孤立比例100.0%；距大型綠地2967m","2021面積_ha":0.09,"2022面積_ha":0.0,"2023面積_ha":0.9}},{"type":"Feature","geometry":{"type":"Polygon","coordinates":[[[121.74127915794371,24.711263187305452],[121.74133262731254,24.720291154349756],[121.75121639869653,24.720241977344568],[121.75116221661297,24.711214030618446],[121.74127915794371,24.711263187305452]]]},"properties":{"grid_id":"G045_043","綠地類型":"公園／都市綠地","中心經度":121.746248,"中心緯度":24.715753,"分析面積_km2":1.04,"2020面積_ha":2.79,"2024面積_ha":1.08,"面積減少率_pct":61.29,"2020斑塊數":5,"2024斑塊數":5,"斑塊數增加率_pct":0.0,"2020平均斑塊面積_ha":1.44,"2024平均斑塊面積_ha":0.522,"平均斑塊面積下降率_pct":63.75,"道路切割密度_km_per_km2":5.479,"建成區邊界切割密度_km_per_km2":0.346,"孤立小斑塊比例_pct":100.0,"距大型連續綠地平均距離_m":3077.3,"score_面積減少":86.72199170124482,"score_斑塊增加":42.531120331950206,"score_平均斑塊縮小":84.23236514522821,"score_道路建成區切割":60.06224066390042,"score_孤立比例":80.29045643153528,"score_距大型綠地":68.46473029045643,"綜合破碎化分數":70.4,"破碎化等級":"高","判定原因":"面積減少61.3%；斑塊增加0.0%；平均斑塊縮小63.8%；道路密度5.48 km/km²；孤立比例100.0%；距大型綠地3077m","2021面積_ha":2.61,"2022面積_ha":0.99,"2023面積_ha":5.31}},{"type":"Feature","geometry":{"type":"Polygon","coordinates":[[[121.75116221661297,24.711214030618446],[121.75121639869653,24.720241977344568],[121.76110014371264,24.720192149162855],[121.76104524892267,24.71116422302394],[121.75116221661297,24.711214030618446]]]},"properties":{"grid_id":"G045_044","綠地類型":"公園／都市綠地","中心經度":121.756131,"中心緯度":24.715703,"分析面積_km2":1.04,"2020面積_ha":4.77,"2024面積_ha":4.95,"面積減少率_pct":0.0,"2020斑塊數":3,"2024斑塊數":4,"斑塊數增加率_pct":33.33,"2020平均斑塊面積_ha":2.88,"2024平均斑塊面積_ha":1.665,"平均斑塊面積下降率_pct":42.19,"道路切割密度_km_per_km2":3.46,"建成區邊界切割密度_km_per_km2":0.721,"孤立小斑塊比例_pct":100.0,"距大型連續綠地平均距離_m":2872.0,"score_面積減少":29.87551867219917,"score_斑塊增加":86.51452282157676,"score_平均斑塊縮小":76.34854771784232,"score_道路建成區切割":57.780082987551864,"score_孤立比例":80.29045643153528,"score_距大型綠地":63.07053941908713,"綜合破碎化分數":65.6,"破碎化等級":"高","判定原因":"面積減少0.0%；斑塊增加33.3%；平均斑塊縮小42.2%；道路密度3.46 km/km²；孤立比例100.0%；距大型綠地2872m","2021面積_ha":5.58,"2022面積_ha":1.89,"2023面積_ha":6.3}},{"type":"Feature","geometry":{"type":"Polygon","coordinates":[[[121.77092825452608,24.71111376452882],[121.77098386201398,24.72014166981151],[121.7808675532538,24.720090539297512],[121.78081123307652,24.711062655140076],[121.77092825452608,24.71111376452882]]]},"properties":{"grid_id":"G045_046","綠地類型":"公園／都市綠地","中心經度":121.775898,"中心緯度":24.715602,"分析面積_km2":1.04,"2020面積_ha":0.9,"2024面積_ha":1.8,"面積減少率_pct":0.0,"2020斑塊數":2,"2024斑塊數":4,"斑塊數增加率_pct":100.0,"2020平均斑塊面積_ha":0.45,"2024平均斑塊面積_ha":1.552,"平均斑塊面積下降率_pct":0.0,"道路切割密度_km_per_km2":5.854,"建成區邊界切割密度_km_per_km2":0.346,"孤立小斑塊比例_pct":25.0,"距大型連續綠地平均距離_m":3351.6,"score_面積減少":29.87551867219917,"score_斑塊增加":95.0207468879668,"score_平均斑塊縮小":26.970954356846473,"score_道路建成區切割":62.03319502074689,"score_孤立比例":53.11203319502075,"score_距大型綠地":74.27385892116183,"綜合破碎化分數":56.9,"破碎化等級":"高","判定原因":"面積減少0.0%；斑塊增加100.0%；平均斑塊縮小0.0%；道路密度5.85 km/km²；孤立比例25.0%；距大型綠地3352m","2021面積_ha":2.25,"2022面積_ha":2.16,"2023面積_ha":1.89}},{"type":"Feature","geometry":{"type":"Polygon","coordinates":[[[121.78081123307652,24.711062655140076],[121.7808675532538,24.720090539297512],[121.79075121708527,24.720038757627933],[121.79069418422732,24.711010894864753],[121.78081123307652,24.711062655140076]]]},"properties":{"grid_id":"G045_047","綠地類型":"公園／都市綠地","中心經度":121.785781,"中心緯度":24.715551,"分析面積_km2":1.04,"2020面積_ha":0.36,"2024面積_ha":2.07,"面積減少率_pct":0.0,"2020斑塊數":2,"2024斑塊數":3,"斑塊數增加率_pct":50.0,"2020平均斑塊面積_ha":0.18,"2024平均斑塊面積_ha":0.72,"平均斑塊面積下降率_pct":0.0,"道路切割密度_km_per_km2":6.488,"建成區邊界切割密度_km_per_km2":0.577,"孤立小斑塊比例_pct":100.0,"距大型連續綠地平均距離_m":2887.5,"score_面積減少":29.87551867219917,"score_斑塊增加":89.00414937759335,"score_平均斑塊縮小":26.970954356846473,"score_道路建成區切割":70.53941908713693,"score_孤立比例":80.29045643153528,"score_距大型綠地":63.90041493775933,"綜合破碎化分數":60.1,"破碎化等級":"高","判定原因":"面積減少0.0%；斑塊增加50.0%；平均斑塊縮小0.0%；道路密度6.49 km/km²；孤立比例100.0%；距大型綠地2888m","2021面積_ha":1.53,"2022面積_ha":0.45,"2023面積_ha":0.27}},{"type":"Feature","geometry":{"type":"Polygon","coordinates":[[[121.79069418422732,24.711010894864753],[121.79075121708527,24.720038757627933],[121.80063485316165,24.719986324809916],[121.8005771076318,24.710958483710016],[121.79069418422732,24.711010894864753]]]},"properties":{"grid_id":"G045_048","綠地類型":"公園／都市綠地","中心經度":121.795664,"中心緯度":24.715499,"分析面積_km2":1.04,"2020面積_ha":1.62,"2024面積_ha":1.08,"面積減少率_pct":33.33,"2020斑塊數":3,"2024斑塊數":2,"斑塊數增加率_pct":0.0,"2020平均斑塊面積_ha":0.54,"2024平均斑塊面積_ha":0.54,"平均斑塊面積下降率_pct":0.0,"道路切割密度_km_per_km2":4.325,"建成區邊界切割密度_km_per_km2":0.288,"孤立小斑塊比例_pct":100.0,"距大型連續綠地平均距離_m":1730.5,"score_面積減少":78.42323651452283,"score_斑塊增加":42.531120331950206,"score_平均斑塊縮小":26.970954356846473,"score_道路建成區切割":53.3195020746888,"score_孤立比例":80.29045643153528,"score_距大型綠地":46.88796680497925,"綜合破碎化分數":54.7,"破碎化等級":"高","判定原因":"面積減少33.3%；斑塊增加0.0%；平均斑塊縮小0.0%；道路密度4.33 km/km²；孤立比例100.0%；距大型綠地1730m","2021面積_ha":4.86,"2022面積_ha":2.52,"2023面積_ha":2.34}},{"type":"Feature","geometry":{"type":"Polygon","coordinates":[[[121.74133262731254,24.720291154349756],[121.74138612270247,24.729319110420587],[121.75127060714803,24.729269913094367],[121.75121639869653,24.720241977344568],[121.74133262731254,24.720291154349756]]]},"properties":{"grid_id":"G046_043","綠地類型":"公園／都市綠地","中心經度":121.746301,"中心緯度":24.724781,"分析面積_km2":1.04,"2020面積_ha":5.4,"2024面積_ha":1.08,"面積減少率_pct":80.0,"2020斑塊數":2,"2024斑塊數":2,"斑塊數增加率_pct":0.0,"2020平均斑塊面積_ha":5.67,"2024平均斑塊面積_ha":1.485,"平均斑塊面積下降率_pct":73.81,"道路切割密度_km_per_km2":12.774,"建成區邊界切割密度_km_per_km2":0.288,"孤立小斑塊比例_pct":66.67,"距大型連續綠地平均距離_m":3086.2,"score_面積減少":91.07883817427386,"score_斑塊增加":42.531120331950206,"score_平均斑塊縮小":89.21161825726142,"score_道路建成區切割":83.7136929460581,"score_孤立比例":58.921161825726145,"score_距大型綠地":69.29460580912863,"綜合破碎化分數":72.5,"破碎化等級":"高","判定原因":"面積減少80.0%；斑塊增加0.0%；平均斑塊縮小73.8%；道路密度12.77 km/km²；孤立比例66.7%；距大型綠地3086m","2021面積_ha":3.96,"2022面積_ha":1.8,"2023面積_ha":1.26}},{"type":"Feature","geometry":{"type":"Polygon","coordinates":[[[121.75121639869653,24.720241977344568],[121.75127060714803,24.729269913094367],[121.76115506521732,24.729220064322565],[121.76110014371264,24.720192149162855],[121.75121639869653,24.720241977344568]]]},"properties":{"grid_id":"G046_044","綠地類型":"公園／都市綠地","中心經度":121.756186,"中心緯度":24.724731,"分析面積_km2":1.04,"2020面積_ha":0.45,"2024面積_ha":0.27,"面積減少率_pct":40.0,"2020斑塊數":1,"2024斑塊數":1,"斑塊數增加率_pct":0.0,"2020平均斑塊面積_ha":0.45,"2024平均斑塊面積_ha":0.27,"平均斑塊面積下降率_pct":40.0,"道路切割密度_km_per_km2":16.667,"建成區邊界切割密度_km_per_km2":0.087,"孤立小斑塊比例_pct":100.0,"距大型連續綠地平均距離_m":3706.9,"score_面積減少":81.74273858921161,"score_斑塊增加":42.531120331950206,"score_平均斑塊縮小":75.51867219917013,"score_道路建成區切割":75.8298755186722,"score_孤立比例":80.29045643153528,"score_距大型綠地":78.42323651452283,"綜合破碎化分數":72.4,"破碎化等級":"高","判定原因":"面積減少40.0%；斑塊增加0.0%；平均斑塊縮小40.0%；道路密度16.67 km/km²；孤立比例100.0%；距大型綠地3707m","2021面積_ha":0.54,"2022面積_ha":0.27,"2023面積_ha":0.27}},{"type":"Feature","geometry":{"type":"Polygon","coordinates":[[[121.77098386201398,24.72014166981151],[121.7710394965634,24.729169564112073],[121.78092390083938,24.729118412469862],[121.7808675532538,24.720090539297512],[121.77098386201398,24.72014166981151]]]},"properties":{"grid_id":"G046_046","綠地類型":"公園／都市綠地","中心經度":121.775954,"中心緯度":24.72463,"分析面積_km2":1.04,"2020面積_ha":0.0,"2024面積_ha":0.09,"面積減少率_pct":0.0,"2020斑塊數":0,"2024斑塊數":1,"斑塊數增加率_pct":100.0,"2020平均斑塊面積_ha":0.0,"2024平均斑塊面積_ha":0.09,"平均斑塊面積下降率_pct":0.0,"道路切割密度_km_per_km2":10.409,"建成區邊界切割密度_km_per_km2":0.029,"孤立小斑塊比例_pct":100.0,"距大型連續綠地平均距離_m":3313.6,"score_面積減少":29.87551867219917,"score_斑塊增加":95.0207468879668,"score_平均斑塊縮小":26.970954356846473,"score_道路建成區切割":56.12033195020747,"score_孤立比例":80.29045643153528,"score_距大型綠地":73.85892116182573,"綜合破碎化分數":60.4,"破碎化等級":"高","判定原因":"面積減少0.0%；斑塊增加100.0%；平均斑塊縮小0.0%；道路密度10.41 km/km²；孤立比例100.0%；距大型綠地3314m","2021面積_ha":0.0,"2022面積_ha":0.0,"2023面積_ha":0.0}},{"type":"Feature","geometry":{"type":"Polygon","coordinates":[[[121.7808675532538,24.720090539297512],[121.78092390083938,24.729118412469862],[121.79080827769835,24.729066609403013],[121.79075121708527,24.720038757627933],[121.7808675532538,24.720090539297512]]]},"properties":{"grid_id":"G046_047","綠地類型":"公園／都市綠地","中心經度":121.785838,"中心緯度":24.724579,"分析面積_km2":1.04,"2020面積_ha":0.27,"2024面積_ha":0.99,"面積減少率_pct":0.0,"2020斑塊數":1,"2024斑塊數":1,"斑塊數增加率_pct":0.0,"2020平均斑塊面積_ha":0.27,"2024平均斑塊面積_ha":1.17,"平均斑塊面積下降率_pct":0.0,"道路切割密度_km_per_km2":10.64,"建成區邊界切割密度_km_per_km2":0.288,"孤立小斑塊比例_pct":100.0,"距大型連續綠地平均距離_m":3110.3,"score_面積減少":29.87551867219917,"score_斑塊增加":42.531120331950206,"score_平均斑塊縮小":26.970954356846473,"score_道路建成區切割":77.28215767634856,"score_孤立比例":80.29045643153528,"score_距大型綠地":70.95435684647303,"綜合破碎化分數":54.7,"破碎化等級":"高","判定原因":"面積減少0.0%；斑塊增加0.0%；平均斑塊縮小0.0%；道路密度10.64 km/km²；孤立比例100.0%；距大型綠地3110m","2021面積_ha":0.9,"2022面積_ha":0.36,"2023面積_ha":0.0}},{"type":"Feature","geometry":{"type":"Polygon","coordinates":[[[121.74138612270247,24.729319110420587],[121.74143964412175,24.73834705551495],[121.7513248419758,24.738297837864863],[121.75127060714803,24.729269913094367],[121.74138612270247,24.729319110420587]]]},"properties":{"grid_id":"G047_043","綠地類型":"公園／都市綠地","中心經度":121.746355,"中心緯度":24.733809,"分析面積_km2":1.04,"2020面積_ha":5.22,"2024面積_ha":1.89,"面積減少率_pct":63.79,"2020斑塊數":2,"2024斑塊數":1,"斑塊數增加率_pct":0.0,"2020平均斑塊面積_ha":3.87,"2024平均斑塊面積_ha":2.25,"平均斑塊面積下降率_pct":41.86,"道路切割密度_km_per_km2":11.419,"建成區邊界切割密度_km_per_km2":0.26,"孤立小斑塊比例_pct":0.0,"距大型連續綠地平均距離_m":3061.6,"score_面積減少":87.55186721991701,"score_斑塊增加":42.531120331950206,"score_平均斑塊縮小":75.93360995850622,"score_道路建成區切割":77.69709543568464,"score_孤立比例":20.539419087136928,"score_距大型綠地":67.21991701244814,"綜合破碎化分數":61.9,"破碎化等級":"高","判定原因":"面積減少63.8%；斑塊增加0.0%；平均斑塊縮小41.9%；道路密度11.42 km/km²；孤立比例0.0%；距大型綠地3062m","2021面積_ha":4.41,"2022面積_ha":4.32,"2023面積_ha":2.61}},{"type":"Feature","geometry":{"type":"Polygon","coordinates":[[[121.75127060714803,24.729269913094367],[121.7513248419758,24.738297837864863],[121.76121001344521,24.73824796850008],[121.76115506521732,24.729220064322565],[121.75127060714803,24.729269913094367]]]},"properties":{"grid_id":"G047_044","綠地類型":"公園／都市綠地","中心經度":121.75624,"中心緯度":24.733759,"分析面積_km2":1.04,"2020面積_ha":2.61,"2024面積_ha":0.9,"面積減少率_pct":65.52,"2020斑塊數":5,"2024斑塊數":2,"斑塊數增加率_pct":0.0,"2020平均斑塊面積_ha":1.944,"2024平均斑塊面積_ha":1.215,"平均斑塊面積下降率_pct":37.5,"道路切割密度_km_per_km2":15.917,"建成區邊界切割密度_km_per_km2":0.231,"孤立小斑塊比例_pct":40.0,"距大型連續綠地平均距離_m":2623.4,"score_面積減少":88.38174273858921,"score_斑塊增加":42.531120331950206,"score_平均斑塊縮小":73.85892116182573,"score_道路建成區切割":83.71369294605809,"score_孤立比例":57.26141078838174,"score_距大型綠地":57.26141078838174,"綜合破碎化分數":67.2,"破碎化等級":"高","判定原因":"面積減少65.5%；斑塊增加0.0%；平均斑塊縮小37.5%；道路密度15.92 km/km²；孤立比例40.0%；距大型綠地2623m","2021面積_ha":2.52,"2022面積_ha":2.43,"2023面積_ha":1.44}},{"type":"Feature","geometry":{"type":"Polygon","coordinates":[[[121.81057694777766,24.728961049024136],[121.81063546287689,24.737988846200345],[121.82052046875108,24.737935066695393],[121.82046124030424,24.728907291726703],[121.81057694777766,24.728961049024136]]]},"properties":{"grid_id":"G047_050","綠地類型":"公園／都市綠地","中心經度":121.815549,"中心緯度":24.733448,"分析面積_km2":1.04,"2020面積_ha":0.45,"2024面積_ha":0.09,"面積減少率_pct":80.0,"2020斑塊數":2,"2024斑塊數":1,"斑塊數增加率_pct":0.0,"2020平均斑塊面積_ha":0.225,"2024平均斑塊面積_ha":0.09,"平均斑塊面積下降率_pct":60.0,"道路切割密度_km_per_km2":10.669,"建成區邊界切割密度_km_per_km2":0.029,"孤立小斑塊比例_pct":100.0,"距大型連續綠地平均距離_m":2100.0,"score_面積減少":91.07883817427386,"score_斑塊增加":42.531120331950206,"score_平均斑塊縮小":83.81742738589212,"score_道路建成區切割":57.157676348547724,"score_孤立比例":80.29045643153528,"score_距大型綠地":48.96265560165975,"綜合破碎化分數":67.3,"破碎化等級":"高","判定原因":"面積減少80.0%；斑塊增加0.0%；平均斑塊縮小60.0%；道路密度10.67 km/km²；孤立比例100.0%；距大型綠地2100m","2021面積_ha":0.72,"2022面積_ha":0.0,"2023面積_ha":0.0}},{"type":"Feature","geometry":{"type":"Polygon","coordinates":[[[121.82046124030424,24.728907291726703],[121.82052046875108,24.737935066695393],[121.82380220186518,24.737917068261808],[121.8238741,24.737704099999988],[121.8239488,24.737296399999998],[121.8243069,24.7365084],[121.82446550000002,24.735939000000002],[121.82486939999998,24.7350899],[121.8251278,24.734546699999996],[121.8259711,24.732327099999996],[121.82606370000002,24.732116900000005],[121.8261402,24.731945],[121.8262949,24.731663],[121.8264328,24.7314364],[121.82680780000001,24.730696499999997],[121.82697710000001,24.7303349],[121.8271989,24.730010100000005],[121.8276033,24.729411600000002],[121.8277977,24.729007999999993],[121.82790366176616,24.72886638494158],[121.82046124030424,24.728907291726703]]]},"properties":{"grid_id":"G047_051","綠地類型":"公園／都市綠地","中心經度":121.82302,"中心緯度":24.733451,"分析面積_km2":0.527,"2020面積_ha":0.72,"2024面積_ha":0.45,"面積減少率_pct":37.5,"2020斑塊數":1,"2024斑塊數":2,"斑塊數增加率_pct":100.0,"2020平均斑塊面積_ha":0.72,"2024平均斑塊面積_ha":0.225,"平均斑塊面積下降率_pct":68.75,"道路切割密度_km_per_km2":6.655,"建成區邊界切割密度_km_per_km2":0.284,"孤立小斑塊比例_pct":100.0,"距大型連續綠地平均距離_m":2198.4,"score_面積減少":81.32780082987551,"score_斑塊增加":95.0207468879668,"score_平均斑塊縮小":87.96680497925311,"score_道路建成區切割":64.31535269709545,"score_孤立比例":80.29045643153528,"score_距大型綠地":50.20746887966805,"綜合破碎化分數":76.5,"破碎化等級":"高","判定原因":"面積減少37.5%；斑塊增加100.0%；平均斑塊縮小68.8%；道路密度6.66 km/km²；孤立比例100.0%；距大型綠地2198m","2021面積_ha":0.72,"2022面積_ha":0.63,"2023面積_ha":0.81}},{"type":"Feature","geometry":{"type":"Polygon","coordinates":[[[121.82052046875108,24.737935066695393],[121.82057972601166,24.746962830660788],[121.82108897420551,24.746960041484115],[121.82114120000001,24.7466803],[121.82138000000002,24.745899999999992],[121.8217727,24.7444724],[121.82216490000002,24.743130699999995],[121.8225053,24.742032499999997],[121.82278200000002,24.740991899999997],[121.82310870000002,24.7399163],[121.82338130000001,24.739163800000004],[121.82380220186518,24.737917068261808],[121.82052046875108,24.737935066695393]]]},"properties":{"grid_id":"G048_051","綠地類型":"公園／都市綠地","中心經度":121.821443,"中心緯度":24.742586,"分析面積_km2":0.19,"2020面積_ha":0.36,"2024面積_ha":0.36,"面積減少率_pct":0.0,"2020斑塊數":2,"2024斑塊數":2,"斑塊數增加率_pct":0.0,"2020平均斑塊面積_ha":0.495,"2024平均斑塊面積_ha":0.405,"平均斑塊面積下降率_pct":18.18,"道路切割密度_km_per_km2":1.896,"建成區邊界切割密度_km_per_km2":0.632,"孤立小斑塊比例_pct":100.0,"距大型連續綠地平均距離_m":2348.5,"score_面積減少":29.87551867219917,"score_斑塊增加":42.531120331950206,"score_平均斑塊縮小":67.21991701244814,"score_道路建成區切割":51.037344398340245,"score_孤立比例":80.29045643153528,"score_距大型綠地":53.52697095435685,"綜合破碎化分數":54.1,"破碎化等級":"高","判定原因":"面積減少0.0%；斑塊增加0.0%；平均斑塊縮小18.2%；道路密度1.90 km/km²；孤立比例100.0%；距大型綠地2348m","2021面積_ha":0.45,"2022面積_ha":0.36,"2023面積_ha":0.54}},{"type":"Feature","geometry":{"type":"Polygon","coordinates":[[[121.75137910318823,24.747325751653076],[121.75143339079366,24.756353654456042],[121.7613199901045,24.75630374389663],[121.76126498840476,24.747275861692422],[121.75137910318823,24.747325751653076]]]},"properties":{"grid_id":"G049_044","綠地類型":"公園／都市綠地","中心經度":121.756349,"中心緯度":24.751815,"分析面積_km2":1.04,"2020面積_ha":0.99,"2024面積_ha":0.0,"面積減少率_pct":100.0,"2020斑塊數":1,"2024斑塊數":0,"斑塊數增加率_pct":0.0,"2020平均斑塊面積_ha":0.99,"2024平均斑塊面積_ha":0.0,"平均斑塊面積下降率_pct":100.0,"道路切割密度_km_per_km2":18.656,"建成區邊界切割密度_km_per_km2":0.0,"孤立小斑塊比例_pct":0.0,"距大型連續綠地平均距離_m":0.0,"score_面積減少":96.6804979253112,"score_斑塊增加":42.531120331950206,"score_平均斑塊縮小":96.6804979253112,"score_道路建成區切割":57.46887966804979,"score_孤立比例":20.539419087136928,"score_距大型綠地":9.95850622406639,"綜合破碎化分數":54.0,"破碎化等級":"高","判定原因":"面積減少100.0%；斑塊增加0.0%；平均斑塊縮小100.0%；道路密度18.66 km/km²；孤立比例0.0%；距大型綠地0m","2021面積_ha":0.0,"2022面積_ha":0.0,"2023面積_ha":0.0}},{"type":"Feature","geometry":{"type":"Polygon","coordinates":[[[121.67233967502706,24.75672945726216],[121.67238827320938,24.765757504198067],[121.6822757885134,24.765712793400578],[121.68222647582563,24.75668476491251],[121.67233967502706,24.75672945726216]]]},"properties":{"grid_id":"G050_036","綠地類型":"公園／都市綠地","中心經度":121.677308,"中心緯度":24.761221,"分析面積_km2":1.04,"2020面積_ha":4.86,"2024面積_ha":3.78,"面積減少率_pct":22.22,"2020斑塊數":1,"2024斑塊數":1,"斑塊數增加率_pct":0.0,"2020平均斑塊面積_ha":4.86,"2024平均斑塊面積_ha":3.78,"平均斑塊面積下降率_pct":22.22,"道路切割密度_km_per_km2":6.286,"建成區邊界切割密度_km_per_km2":0.49,"孤立小斑塊比例_pct":0.0,"距大型連續綠地平均距離_m":4309.6,"score_面積減少":75.93360995850622,"score_斑塊增加":42.531120331950206,"score_平均斑塊縮小":68.04979253112033,"score_道路建成區切割":68.15352697095436,"score_孤立比例":20.539419087136928,"score_距大型綠地":83.40248962655602,"綜合破碎化分數":59.8,"破碎化等級":"高","判定原因":"面積減少22.2%；斑塊增加0.0%；平均斑塊縮小22.2%；道路密度6.29 km/km²；孤立比例0.0%；距大型綠地4310m","2021面積_ha":3.33,"2022面積_ha":1.17,"2023面積_ha":2.16}},{"type":"Feature","geometry":{"type":"Polygon","coordinates":[[[121.70210151318832,24.774649393915173],[121.7021523042177,24.783677362742324],[121.71204117655205,24.783630655740446],[121.71198967034547,24.774602706174235],[121.70210151318832,24.774649393915173]]]},"properties":{"grid_id":"G052_039","綠地類型":"公園／都市綠地","中心經度":121.707071,"中心緯度":24.77914,"分析面積_km2":1.04,"2020面積_ha":3.24,"2024面積_ha":2.34,"面積減少率_pct":27.78,"2020斑塊數":1,"2024斑塊數":1,"斑塊數增加率_pct":0.0,"2020平均斑塊面積_ha":3.24,"2024平均斑塊面積_ha":2.34,"平均斑塊面積下降率_pct":27.78,"道路切割密度_km_per_km2":7.555,"建成區邊界切割密度_km_per_km2":0.433,"孤立小斑塊比例_pct":0.0,"距大型連續綠地平均距離_m":3548.7,"score_面積減少":76.34854771784232,"score_斑塊增加":42.531120331950206,"score_平均斑塊縮小":69.29460580912863,"score_道路建成區切割":72.19917012448133,"score_孤立比例":20.539419087136928,"score_距大型綠地":76.34854771784232,"綜合破碎化分數":59.5,"破碎化等級":"高","判定原因":"面積減少27.8%；斑塊增加0.0%；平均斑塊縮小27.8%；道路密度7.55 km/km²；孤立比例0.0%；距大型綠地3549m","2021面積_ha":3.24,"2022面積_ha":2.61,"2023面積_ha":2.52}},{"type":"Feature","geometry":{"type":"Polygon","coordinates":[[[121.73181884576462,24.783535282480678],[121.73187180803298,24.792563181725622],[121.74176131971662,24.792514495409268],[121.74170764194768,24.783486616236],[121.73181884576462,24.783535282480678]]]},"properties":{"grid_id":"G053_042","綠地類型":"公園／都市綠地","中心經度":121.73679,"中心緯度":24.788025,"分析面積_km2":1.04,"2020面積_ha":1.26,"2024面積_ha":0.81,"面積減少率_pct":35.71,"2020斑塊數":1,"2024斑塊數":1,"斑塊數增加率_pct":0.0,"2020平均斑塊面積_ha":2.34,"2024平均斑塊面積_ha":0.81,"平均斑塊面積下降率_pct":65.38,"道路切割密度_km_per_km2":11.967,"建成區邊界切割密度_km_per_km2":0.144,"孤立小斑塊比例_pct":100.0,"距大型連續綠地平均距離_m":3089.0,"score_面積減少":80.91286307053942,"score_斑塊增加":42.531120331950206,"score_平均斑塊縮小":85.89211618257261,"score_道路建成區切割":73.34024896265561,"score_孤立比例":80.29045643153528,"score_距大型綠地":69.70954356846472,"綜合破碎化分數":72.1,"破碎化等級":"高","判定原因":"面積減少35.7%；斑塊增加0.0%；平均斑塊縮小65.4%；道路密度11.97 km/km²；孤立比例100.0%；距大型綠地3089m","2021面積_ha":1.17,"2022面積_ha":0.81,"2023面積_ha":0.9}},{"type":"Feature","geometry":{"type":"Polygon","coordinates":[[[121.74170764194768,24.783486616236],[121.74176131971662,24.792514495409268],[121.751650805313,24.79246515575598],[121.75159641205175,24.78343729692372],[121.74170764194768,24.783486616236]]]},"properties":{"grid_id":"G053_043","綠地類型":"公園／都市綠地","中心經度":121.746679,"中心緯度":24.787976,"分析面積_km2":1.04,"2020面積_ha":0.27,"2024面積_ha":0.18,"面積減少率_pct":33.33,"2020斑塊數":2,"2024斑塊數":2,"斑塊數增加率_pct":0.0,"2020平均斑塊面積_ha":1.44,"2024平均斑塊面積_ha":0.675,"平均斑塊面積下降率_pct":53.12,"道路切割密度_km_per_km2":12.659,"建成區邊界切割密度_km_per_km2":0.058,"孤立小斑塊比例_pct":100.0,"距大型連續綠地平均距離_m":3064.3,"score_面積減少":78.42323651452283,"score_斑塊增加":42.531120331950206,"score_平均斑塊縮小":80.70539419087137,"score_道路建成區切割":67.5311203319502,"score_孤立比例":80.29045643153528,"score_距大型綠地":67.63485477178423,"綜合破碎化分數":69.5,"破碎化等級":"高","判定原因":"面積減少33.3%；斑塊增加0.0%；平均斑塊縮小53.1%；道路密度12.66 km/km²；孤立比例100.0%；距大型綠地3064m","2021面積_ha":0.18,"2022面積_ha":0.09,"2023面積_ha":0.09}},{"type":"Feature","geometry":{"type":"Polygon","coordinates":[[[121.73187180803298,24.792563181725622],[121.73192479604084,24.801591069976165],[121.74181502357278,24.8015423635853],[121.74176131971662,24.792514495409268],[121.73187180803298,24.792563181725622]]]},"properties":{"grid_id":"G054_042","綠地類型":"公園／都市綠地","中心經度":121.736843,"中心緯度":24.797053,"分析面積_km2":1.04,"2020面積_ha":2.61,"2024面積_ha":2.61,"面積減少率_pct":0.0,"2020斑塊數":3,"2024斑塊數":3,"斑塊數增加率_pct":0.0,"2020平均斑塊面積_ha":1.11,"2024平均斑塊面積_ha":0.99,"平均斑塊面積下降率_pct":10.81,"道路切割密度_km_per_km2":6.113,"建成區邊界切割密度_km_per_km2":0.26,"孤立小斑塊比例_pct":100.0,"距大型連續綠地平均距離_m":3665.7,"score_面積減少":29.87551867219917,"score_斑塊增加":42.531120331950206,"score_平均斑塊縮小":65.56016597510373,"score_道路建成區切割":60.06224066390042,"score_孤立比例":80.29045643153528,"score_距大型綠地":78.00829875518673,"綜合破碎化分數":59.4,"破碎化等級":"高","判定原因":"面積減少0.0%；斑塊增加0.0%；平均斑塊縮小10.8%；道路密度6.11 km/km²；孤立比例100.0%；距大型綠地3666m","2021面積_ha":3.06,"2022面積_ha":2.52,"2023面積_ha":2.7}},{"type":"Feature","geometry":{"type":"Polygon","coordinates":[[[121.74176131971662,24.792514495409268],[121.74181502357278,24.8015423635853],[121.75170522500919,24.80149300358815],[121.751650805313,24.79246515575598],[121.74176131971662,24.792514495409268]]]},"properties":{"grid_id":"G054_043","綠地類型":"公園／都市綠地","中心經度":121.746733,"中心緯度":24.797004,"分析面積_km2":1.04,"2020面積_ha":0.63,"2024面積_ha":0.63,"面積減少率_pct":0.0,"2020斑塊數":2,"2024斑塊數":2,"斑塊數增加率_pct":0.0,"2020平均斑塊面積_ha":1.44,"2024平均斑塊面積_ha":0.675,"平均斑塊面積下降率_pct":53.12,"道路切割密度_km_per_km2":4.729,"建成區邊界切割密度_km_per_km2":0.087,"孤立小斑塊比例_pct":100.0,"距大型連續綠地平均距離_m":3094.7,"score_面積減少":29.87551867219917,"score_斑塊增加":42.531120331950206,"score_平均斑塊縮小":80.70539419087137,"score_道路建成區切割":44.087136929460584,"score_孤立比例":80.29045643153528,"score_距大型綠地":70.12448132780082,"綜合破碎化分數":57.9,"破碎化等級":"高","判定原因":"面積減少0.0%；斑塊增加0.0%；平均斑塊縮小53.1%；道路密度4.73 km/km²；孤立比例100.0%；距大型綠地3095m","2021面積_ha":0.63,"2022面積_ha":0.54,"2023面積_ha":0.72}},{"type":"Feature","geometry":{"type":"Polygon","coordinates":[[[121.751650805313,24.79246515575598],[121.75170522500919,24.80149300358815],[121.76159540000226,24.801442989991536],[121.76154026447449,24.792415162772606],[121.751650805313,24.79246515575598]]]},"properties":{"grid_id":"G054_044","綠地類型":"公園／都市綠地","中心經度":121.756623,"中心緯度":24.796954,"分析面積_km2":1.04,"2020面積_ha":0.54,"2024面積_ha":0.18,"面積減少率_pct":66.67,"2020斑塊數":1,"2024斑塊數":1,"斑塊數增加率_pct":0.0,"2020平均斑塊面積_ha":0.54,"2024平均斑塊面積_ha":0.18,"平均斑塊面積下降率_pct":66.67,"道路切割密度_km_per_km2":10.957,"建成區邊界切割密度_km_per_km2":0.058,"孤立小斑塊比例_pct":100.0,"距大型連續綠地平均距離_m":3031.9,"score_面積減少":89.21161825726142,"score_斑塊增加":42.531120331950206,"score_平均斑塊縮小":86.92946058091286,"score_道路建成區切割":62.240663900414944,"score_孤立比例":80.29045643153528,"score_距大型綠地":66.80497925311202,"綜合破碎化分數":71.3,"破碎化等級":"高","判定原因":"面積減少66.7%；斑塊增加0.0%；平均斑塊縮小66.7%；道路密度10.96 km/km²；孤立比例100.0%；距大型綠地3032m","2021面積_ha":0.45,"2022面積_ha":0.18,"2023面積_ha":0.45}},{"type":"Feature","geometry":{"type":"Polygon","coordinates":[[[121.81098715158925,24.79215539814952],[121.81104586614518,24.801183118261886],[121.81956148629992,24.801136717540086],[121.8194499,24.800700000000003],[121.81945990000001,24.8001901],[121.81919,24.7988999],[121.81919020000001,24.798872299999996],[121.8192,24.79761],[121.81893,24.79606999999999],[121.8187757,24.7948473],[121.81872820000001,24.794520099999993],[121.81859700000001,24.7931754],[121.81848303048878,24.79211459329073],[121.81098715158925,24.79215539814952]]]},"properties":{"grid_id":"G054_050","綠地類型":"公園／都市綠地","中心經度":121.815041,"中心緯度":24.796862,"分析面積_km2":0.842,"2020面積_ha":0.0,"2024面積_ha":0.18,"面積減少率_pct":0.0,"2020斑塊數":0,"2024斑塊數":1,"斑塊數增加率_pct":100.0,"2020平均斑塊面積_ha":0.0,"2024平均斑塊面積_ha":0.18,"平均斑塊面積下降率_pct":0.0,"道路切割密度_km_per_km2":9.01,"建成區邊界切割密度_km_per_km2":0.071,"孤立小斑塊比例_pct":100.0,"距大型連續綠地平均距離_m":2495.5,"score_面積減少":29.87551867219917,"score_斑塊增加":95.0207468879668,"score_平均斑塊縮小":26.970954356846473,"score_道路建成區切割":59.75103734439834,"score_孤立比例":80.29045643153528,"score_距大型綠地":55.601659751037346,"綜合破碎化分數":57.9,"破碎化等級":"高","判定原因":"面積減少0.0%；斑塊增加100.0%；平均斑塊縮小0.0%；道路密度9.01 km/km²；孤立比例100.0%；距大型綠地2496m","2021面積_ha":0.09,"2022面積_ha":0.09,"2023面積_ha":0.18}},{"type":"Feature","geometry":{"type":"Polygon","coordinates":[[[121.76159540000226,24.801442989991536],[121.76165056232117,24.810470806204503],[121.77154142669403,24.81042011812981],[121.77148554820423,24.80139232280238],[121.76159540000226,24.801442989991536]]]},"properties":{"grid_id":"G055_045","綠地類型":"公園／都市綠地","中心經度":121.766568,"中心緯度":24.805932,"分析面積_km2":1.04,"2020面積_ha":2.16,"2024面積_ha":2.07,"面積減少率_pct":4.17,"2020斑塊數":1,"2024斑塊數":2,"斑塊數增加率_pct":100.0,"2020平均斑塊面積_ha":2.16,"2024平均斑塊面積_ha":1.035,"平均斑塊面積下降率_pct":52.08,"道路切割密度_km_per_km2":13.495,"建成區邊界切割密度_km_per_km2":0.231,"孤立小斑塊比例_pct":100.0,"距大型連續綠地平均距離_m":4460.9,"score_面積減少":63.90041493775933,"score_斑塊增加":95.0207468879668,"score_平均斑塊縮小":80.08298755186722,"score_道路建成區切割":81.84647302904564,"score_孤立比例":80.29045643153528,"score_距大型綠地":83.81742738589212,"綜合破碎化分數":80.8,"破碎化等級":"高","判定原因":"面積減少4.2%；斑塊增加100.0%；平均斑塊縮小52.1%；道路密度13.49 km/km²；孤立比例100.0%；距大型綠地4461m","2021面積_ha":2.61,"2022面積_ha":2.07,"2023面積_ha":2.25}},{"type":"Feature","geometry":{"type":"Polygon","coordinates":[[[121.74197629174759,24.828625902100356],[121.74203010003562,24.83765372625782],[121.75192316831117,24.83760428485655],[121.75186864279127,24.828576481054416],[121.74197629174759,24.828625902100356]]]},"properties":{"grid_id":"G058_043","綠地類型":"公園／都市綠地","中心經度":121.74695,"中心緯度":24.833115,"分析面積_km2":1.04,"2020面積_ha":1.53,"2024面積_ha":1.44,"面積減少率_pct":5.88,"2020斑塊數":3,"2024斑塊數":2,"斑塊數增加率_pct":0.0,"2020平均斑塊面積_ha":0.9,"2024平均斑塊面積_ha":1.26,"平均斑塊面積下降率_pct":0.0,"道路切割密度_km_per_km2":7.093,"建成區邊界切割密度_km_per_km2":0.26,"孤立小斑塊比例_pct":25.0,"距大型連續綠地平均距離_m":6921.1,"score_面積減少":65.76763485477179,"score_斑塊增加":42.531120331950206,"score_平均斑塊縮小":26.970954356846473,"score_道路建成區切割":64.93775933609959,"score_孤立比例":53.11203319502075,"score_距大型綠地":94.1908713692946,"綜合破碎化分數":57.9,"破碎化等級":"高","判定原因":"面積減少5.9%；斑塊增加0.0%；平均斑塊縮小0.0%；道路密度7.09 km/km²；孤立比例25.0%；距大型綠地6921m","2021面積_ha":1.44,"2022面積_ha":0.99,"2023面積_ha":1.08}},{"type":"Feature","geometry":{"type":"Polygon","coordinates":[[[121.82141235822533,24.873350369161372],[121.82147204879111,24.882377967719865],[121.83136848653272,24.88232317649484],[121.83130807706343,24.873295600463603],[121.82141235822533,24.873350369161372]]]},"properties":{"grid_id":"G063_051","綠地類型":"公園／都市綠地","中心經度":121.82639,"中心緯度":24.877837,"分析面積_km2":1.04,"2020面積_ha":0.45,"2024面積_ha":0.63,"面積減少率_pct":0.0,"2020斑塊數":2,"2024斑塊數":3,"斑塊數增加率_pct":50.0,"2020平均斑塊面積_ha":0.225,"2024平均斑塊面積_ha":0.21,"平均斑塊面積下降率_pct":6.67,"道路切割密度_km_per_km2":8.016,"建成區邊界切割密度_km_per_km2":0.202,"孤立小斑塊比例_pct":100.0,"距大型連續綠地平均距離_m":1219.5,"score_面積減少":29.87551867219917,"score_斑塊增加":89.00414937759335,"score_平均斑塊縮小":63.27800829875518,"score_道路建成區切割":64.93775933609959,"score_孤立比例":80.29045643153528,"score_距大型綠地":42.32365145228216,"綜合破碎化分數":61.6,"破碎化等級":"高","判定原因":"面積減少0.0%；斑塊增加50.0%；平均斑塊縮小6.7%；道路密度8.02 km/km²；孤立比例100.0%；距大型綠地1220m","2021面積_ha":0.18,"2022面積_ha":0.09,"2023面積_ha":0.9}},{"type":"Feature","geometry":{"type":"Polygon","coordinates":[[[121.83136848653272,24.88232317649484],[121.83142892531134,24.891350741471978],[121.84132605298655,24.891295271479475],[121.84126489496498,24.8822677293025],[121.83136848653272,24.88232317649484]]]},"properties":{"grid_id":"G064_052","綠地類型":"公園／都市綠地","中心經度":121.836347,"中心緯度":24.886809,"分析面積_km2":1.04,"2020面積_ha":24.03,"2024面積_ha":24.57,"面積減少率_pct":0.0,"2020斑塊數":1,"2024斑塊數":2,"斑塊數增加率_pct":100.0,"2020平均斑塊面積_ha":25.83,"2024平均斑塊面積_ha":13.185,"平均斑塊面積下降率_pct":48.95,"道路切割密度_km_per_km2":6.171,"建成區邊界切割密度_km_per_km2":1.153,"孤立小斑塊比例_pct":0.37,"距大型連續綠地平均距離_m":0.2,"score_面積減少":29.87551867219917,"score_斑塊增加":95.0207468879668,"score_平均斑塊縮小":77.59336099585063,"score_道路建成區切割":71.78423236514523,"score_孤立比例":41.078838174273855,"score_距大型綠地":19.91701244813278,"綜合破碎化分數":55.9,"破碎化等級":"高","判定原因":"面積減少0.0%；斑塊增加100.0%；平均斑塊縮小49.0%；道路密度6.17 km/km²；孤立比例0.4%；距大型綠地0m","2021面積_ha":25.65,"2022面積_ha":24.21,"2023面積_ha":26.01}},{"type":"Feature","geometry":{"type":"Polygon","coordinates":[[[121.89120042392236,24.945172390296467],[121.90110169079584,24.945112836463466],[121.90106392488724,24.939921402804078],[121.89905040000001,24.939998800000005],[121.8989734,24.940328099999995],[121.8987416,24.9405568],[121.8985477,24.940638099999997],[121.8984775,24.940650599999998],[121.8984952,24.940870299999993],[121.8984238,24.9410487],[121.8981554,24.941103999999992],[121.8976563,24.941105699999998],[121.8974072,24.9411151],[121.8969642,24.941142899999996],[121.8965045,24.941082999999995],[121.8961061,24.940934899999995],[121.89549930000001,24.9407616],[121.89482060000002,24.940728599999996],[121.89416350000002,24.940505699999996],[121.8936711,24.940162899999997],[121.89322000000001,24.939470000000004],[121.89290469999999,24.938970399999995],[121.8922397,24.9386239],[121.8915831,24.9383602],[121.89115008318842,24.938175162003674],[121.89120042392236,24.945172390296467]]]},"properties":{"grid_id":"G070_058","綠地類型":"公園／都市綠地","中心經度":121.896137,"中心緯度":24.943145,"分析面積_km2":0.566,"2020面積_ha":0.9,"2024面積_ha":0.81,"面積減少率_pct":10.0,"2020斑塊數":1,"2024斑塊數":1,"斑塊數增加率_pct":0.0,"2020平均斑塊面積_ha":0.9,"2024平均斑塊面積_ha":0.81,"平均斑塊面積下降率_pct":10.0,"道路切割密度_km_per_km2":9.062,"建成區邊界切割密度_km_per_km2":0.371,"孤立小斑塊比例_pct":100.0,"距大型連續綠地平均距離_m":8461.2,"score_面積減少":70.74688796680498,"score_斑塊增加":42.531120331950206,"score_平均斑塊縮小":64.73029045643153,"score_道路建成區切割":75.51867219917011,"score_孤立比例":80.29045643153528,"score_距大型綠地":96.2655601659751,"綜合破碎化分數":71.7,"破碎化等級":"高","判定原因":"面積減少10.0%；斑塊增加0.0%；平均斑塊縮小10.0%；道路密度9.06 km/km²；孤立比例100.0%；距大型綠地8461m","2021面積_ha":1.08,"2022面積_ha":0.54,"2023面積_ha":0.81}},{"type":"Feature","geometry":{"type":"Polygon","coordinates":[[[121.92103843934002,24.963046289080093],[121.92110564345208,24.972073539252243],[121.93100897965498,24.972011936275475],[121.93100837871334,24.971932092068748],[121.9309753,24.9719175],[121.9303562,24.9716102],[121.9301073,24.971403499999994],[121.92982519999998,24.971250800000004],[121.92961330000001,24.9711497],[121.9293788,24.971021299999997],[121.9292093,24.9709343],[121.92907089999999,24.970829199999994],[121.9289261,24.9706858],[121.9286836,24.97044989999999],[121.92842669999999,24.97026749999999],[121.9279955,24.9700821],[121.92750719999998,24.969935399999997],[121.92675890000001,24.969647999999996],[121.92646600000002,24.9695099],[121.9257428,24.9688816],[121.9254344,24.968487199999995],[121.9250508,24.968033999999992],[121.9247737,24.967708799999993],[121.9246967,24.9676126],[121.92444170000002,24.967287300000002],[121.92407610000001,24.966780700000005],[121.92374989999999,24.96646],[121.92363890000001,24.966272999999997],[121.923404,24.965947699999997],[121.92325270000002,24.965774499999995],[121.92311110000001,24.9654832],[121.92275110000001,24.9649887],[121.92262990000002,24.964649899999994],[121.92251019999999,24.964339399999997],[121.9224105,24.964113799999993],[121.9220544,24.963236699999992],[121.92214689999999,24.963123799999998],[121.92220639999998,24.963051199999995],[121.92221638570211,24.963038998729015],[121.92103843934002,24.963046289080093]]]},"properties":{"grid_id":"G073_061","綠地類型":"公園／都市綠地","中心經度":121.92282,"中心緯度":24.967461,"分析面積_km2":0.436,"2020面積_ha":0.27,"2024面積_ha":0.36,"面積減少率_pct":0.0,"2020斑塊數":1,"2024斑塊數":2,"斑塊數增加率_pct":100.0,"2020平均斑塊面積_ha":0.27,"2024平均斑塊面積_ha":0.18,"平均斑塊面積下降率_pct":33.33,"道路切割密度_km_per_km2":14.256,"建成區邊界切割密度_km_per_km2":0.275,"孤立小斑塊比例_pct":100.0,"距大型連續綠地平均距離_m":12616.9,"score_面積減少":29.87551867219917,"score_斑塊增加":95.0207468879668,"score_平均斑塊縮小":70.33195020746888,"score_道路建成區切割":85.06224066390041,"score_孤立比例":80.29045643153528,"score_距大型綠地":98.7551867219917,"綜合破碎化分數":76.6,"破碎化等級":"高","判定原因":"面積減少0.0%；斑塊增加100.0%；平均斑塊縮小33.3%；道路密度14.26 km/km²；孤立比例100.0%；距大型綠地12617m","2021面積_ha":0.27,"2022面積_ha":0.18,"2023面積_ha":0.27}},{"type":"Feature","geometry":{"type":"Polygon","coordinates":[[[121.96080780808155,24.983281367393204],[121.96048400000001,24.983283700000005],[121.96017940000002,24.983151599999992],[121.9598896,24.9831362],[121.95957849999999,24.983107800000003],[121.959435,24.983066499999996],[121.9592786,24.983061199999998],[121.9591145,24.9829862],[121.9589744,24.9829443],[121.9587186,24.982926699999997],[121.95833,24.9828643],[121.95780389999999,24.982670399999993],[121.95742890000001,24.982674399999997],[121.95703340000001,24.982819799999998],[121.9563759,24.982740599999993],[121.9561281,24.982558999999995],[121.95594,24.982389999999995],[121.9549941,24.9820034],[121.954774,24.981822499999993],[121.95467,24.9816],[121.9545959,24.981177200000005],[121.95435357396869,24.980891716024566],[121.95088495757928,24.980913917033995],[121.95094233742589,24.988373766270424],[121.95111540000002,24.988366899999995],[121.9512725,24.988343599999997],[121.95139290000002,24.988309999999995],[121.9517229,24.988195599999994],[121.95191799999999,24.9881427],[121.95198460000002,24.988153299999993],[121.9521521,24.9882375],[121.95224629999998,24.988285499999996],[121.9523914,24.988321299999996],[121.95248840000001,24.9883243],[121.9525413,24.988329999999998],[121.95264310000002,24.988296699999996],[121.95296959999999,24.988062],[121.95304790000002,24.988027799999998],[121.9531222,24.9880184],[121.9532676,24.988031199999998],[121.95334730000002,24.9880627],[121.9534371,24.988119700000002],[121.9535082,24.988197599999992],[121.95370499999999,24.98834869999999],[121.95385190000002,24.988354199999996],[121.9539875,24.988345399999993],[121.9543393,24.9882841],[121.9544614,24.9882926],[121.9547452,24.988364699999998],[121.95485740000001,24.988383099999997],[121.95500070000001,24.9883745],[121.9551336,24.9883799],[121.9553478,24.988358899999998],[121.9555773,24.988326199999996],[121.9558179,24.9882588],[121.95607870000002,24.9880341],[121.9562103,24.988002899999994],[121.95645790000002,24.9880111],[121.95679880000002,24.988022299999994],[121.95691640000001,24.988013399999996],[121.9570117,24.9879688],[121.95729060000001,24.98775729999999],[121.95738839999999,24.987697399999995],[121.9574512,24.9876632],[121.95751430000001,24.987625999999995],[121.95756110000002,24.987597800000003],[121.9576341,24.987580500000004],[121.95774830000002,24.9875136],[121.95782070000001,24.9874884],[121.95809760000002,24.9873341],[121.95815999999999,24.9873154],[121.95822720000001,24.987329599999995],[121.95831099999998,24.9873823],[121.95844020000001,24.987479299999997],[121.95864810000002,24.987633],[121.95872190000001,24.987706499999998],[121.9589045,24.987808899999997],[121.9590453,24.98784549999999],[121.95911700000002,24.9878597],[121.9593141,24.9879232],[121.95937519999998,24.987973899999997],[121.9595238,24.988126899999997],[121.95962830000002,24.988227700000003],[121.95973,24.988299099999995],[121.9598461,24.988396200000007],[121.95994000000002,24.988438399999996],[121.9600024,24.98845929999999],[121.96012010000001,24.988455299999988],[121.9604118,24.988283599999995],[121.9605061,24.988236699999987],[121.96061609999998,24.988218299999996],[121.9608181,24.9882272],[121.9608463566372,24.9882410240269],[121.96080780808155,24.983281367393204]]]},"properties":{"grid_id":"G075_064","綠地類型":"公園／都市綠地","中心經度":121.955871,"中心緯度":24.985322,"分析面積_km2":0.69,"2020面積_ha":4.5,"2024面積_ha":4.14,"面積減少率_pct":8.0,"2020斑塊數":1,"2024斑塊數":1,"斑塊數增加率_pct":0.0,"2020平均斑塊面積_ha":5.58,"2024平均斑塊面積_ha":5.22,"平均斑塊面積下降率_pct":6.45,"道路切割密度_km_per_km2":6.432,"建成區邊界切割密度_km_per_km2":0.391,"孤立小斑塊比例_pct":0.0,"距大型連續綠地平均距離_m":15630.4,"score_面積減少":68.87966804979253,"score_斑塊增加":42.531120331950206,"score_平均斑塊縮小":62.655601659751035,"score_道路建成區切割":67.01244813278008,"score_孤立比例":20.539419087136928,"score_距大型綠地":100.0,"綜合破碎化分數":60.3,"破碎化等級":"高","判定原因":"面積減少8.0%；斑塊增加0.0%；平均斑塊縮小6.5%；道路密度6.43 km/km²；孤立比例0.0%；距大型綠地15630m","2021面積_ha":4.86,"2022面積_ha":2.79,"2023面積_ha":3.87}}]}