{"type":"FeatureCollection","features":[{"type":"Feature","geometry":{"type":"Polygon","coordinates":[[[121.78910849725585,24.45822628846438],[121.78916475651795,24.467254457679676],[121.79902856846566,24.46720263029189],[121.7989716061973,24.458174482655544],[121.78910849725585,24.45822628846438]]]},"properties":{"grid_id":"G017_048","綠地類型":"公園／都市綠地","中心經度":121.794068,"中心緯度":24.462715,"分析面積_km2":1.04,"2020面積_ha":0.27,"2024面積_ha":0.0,"面積減少率_pct":100.0,"2020斑塊數":2,"2024斑塊數":0,"斑塊數增加率_pct":0.0,"2020平均斑塊面積_ha":0.315,"2024平均斑塊面積_ha":0.0,"平均斑塊面積下降率_pct":100.0,"道路切割密度_km_per_km2":9.977,"建成區邊界切割密度_km_per_km2":0.0,"孤立小斑塊比例_pct":0.0,"距大型連續綠地平均距離_m":0.0,"score_面積減少":96.6804979253112,"score_斑塊增加":42.531120331950206,"score_平均斑塊縮小":96.6804979253112,"score_道路建成區切割":44.91701244813277,"score_孤立比例":20.539419087136928,"score_距大型綠地":9.95850622406639,"綜合破碎化分數":51.9,"破碎化等級":"中","判定原因":"面積減少100.0%；斑塊增加0.0%；平均斑塊縮小100.0%；道路密度9.98 km/km²；孤立比例0.0%；距大型綠地0m","2021面積_ha":0.09,"2022面積_ha":0.09,"2023面積_ha":0.09}},{"type":"Feature","geometry":{"type":"Polygon","coordinates":[[[121.7989716061973,24.458174482655544],[121.79902856846566,24.46720263029189],[121.80889235255846,24.46715015928101],[121.80883468729255,24.458122033491577],[121.7989716061973,24.458174482655544]]]},"properties":{"grid_id":"G017_049","綠地類型":"公園／都市綠地","中心經度":121.803932,"中心緯度":24.462662,"分析面積_km2":1.04,"2020面積_ha":0.18,"2024面積_ha":0.0,"面積減少率_pct":100.0,"2020斑塊數":1,"2024斑塊數":0,"斑塊數增加率_pct":0.0,"2020平均斑塊面積_ha":0.27,"2024平均斑塊面積_ha":0.0,"平均斑塊面積下降率_pct":100.0,"道路切割密度_km_per_km2":14.648,"建成區邊界切割密度_km_per_km2":0.0,"孤立小斑塊比例_pct":0.0,"距大型連續綠地平均距離_m":0.0,"score_面積減少":96.6804979253112,"score_斑塊增加":42.531120331950206,"score_平均斑塊縮小":96.6804979253112,"score_道路建成區切割":55.39419087136929,"score_孤立比例":20.539419087136928,"score_距大型綠地":9.95850622406639,"綜合破碎化分數":53.6,"破碎化等級":"中","判定原因":"面積減少100.0%；斑塊增加0.0%；平均斑塊縮小100.0%；道路密度14.65 km/km²；孤立比例0.0%；距大型綠地0m","2021面積_ha":0.0,"2022面積_ha":0.0,"2023面積_ha":0.0}},{"type":"Feature","geometry":{"type":"Polygon","coordinates":[[[121.77930091705903,24.46730564143723],[121.77935650047367,24.47633382106226],[121.78922104329122,24.47628261599078],[121.78916475651795,24.467254457679676],[121.77930091705903,24.46730564143723]]]},"properties":{"grid_id":"G018_047","綠地類型":"公園／都市綠地","中心經度":121.784261,"中心緯度":24.471794,"分析面積_km2":1.04,"2020面積_ha":1.89,"2024面積_ha":1.98,"面積減少率_pct":0.0,"2020斑塊數":1,"2024斑塊數":1,"斑塊數增加率_pct":0.0,"2020平均斑塊面積_ha":1.89,"2024平均斑塊面積_ha":1.98,"平均斑塊面積下降率_pct":0.0,"道路切割密度_km_per_km2":8.016,"建成區邊界切割密度_km_per_km2":0.202,"孤立小斑塊比例_pct":100.0,"距大型連續綠地平均距離_m":2190.2,"score_面積減少":29.87551867219917,"score_斑塊增加":42.531120331950206,"score_平均斑塊縮小":26.970954356846473,"score_道路建成區切割":64.93775933609959,"score_孤立比例":80.29045643153528,"score_距大型綠地":49.79253112033195,"綜合破碎化分數":49.1,"破碎化等級":"中","判定原因":"面積減少0.0%；斑塊增加0.0%；平均斑塊縮小0.0%；道路密度8.02 km/km²；孤立比例100.0%；距大型綠地2190m","2021面積_ha":0.9,"2022面積_ha":1.53,"2023面積_ha":1.71}},{"type":"Feature","geometry":{"type":"Polygon","coordinates":[[[121.77935650047367,24.47633382106226],[121.77941211106427,24.48536198978304],[121.78927735758434,24.485310763394676],[121.78922104329122,24.47628261599078],[121.77935650047367,24.47633382106226]]]},"properties":{"grid_id":"G019_047","綠地類型":"公園／都市綠地","中心經度":121.784317,"中心緯度":24.480822,"分析面積_km2":1.04,"2020面積_ha":0.36,"2024面積_ha":0.45,"面積減少率_pct":0.0,"2020斑塊數":1,"2024斑塊數":1,"斑塊數增加率_pct":0.0,"2020平均斑塊面積_ha":1.89,"2024平均斑塊面積_ha":1.98,"平均斑塊面積下降率_pct":0.0,"道路切割密度_km_per_km2":6.949,"建成區邊界切割密度_km_per_km2":0.029,"孤立小斑塊比例_pct":100.0,"距大型連續綠地平均距離_m":2250.6,"score_面積減少":29.87551867219917,"score_斑塊增加":42.531120331950206,"score_平均斑塊縮小":26.970954356846473,"score_道路建成區切割":45.33195020746888,"score_孤立比例":80.29045643153528,"score_距大型綠地":51.45228215767634,"綜合破碎化分數":46.1,"破碎化等級":"中","判定原因":"面積減少0.0%；斑塊增加0.0%；平均斑塊縮小0.0%；道路密度6.95 km/km²；孤立比例100.0%；距大型綠地2251m","2021面積_ha":0.27,"2022面積_ha":0.45,"2023面積_ha":0.36}},{"type":"Feature","geometry":{"type":"Polygon","coordinates":[[[121.53277300748175,24.486433276343423],[121.53281104160111,24.495461880018155],[121.54267756876047,24.49542674523526],[121.54263883041361,24.486398156177383],[121.53277300748175,24.486433276343423]]]},"properties":{"grid_id":"G020_022","綠地類型":"公園／都市綠地","中心經度":121.537725,"中心緯度":24.49093,"分析面積_km2":1.04,"2020面積_ha":3.33,"2024面積_ha":4.59,"面積減少率_pct":0.0,"2020斑塊數":2,"2024斑塊數":1,"斑塊數增加率_pct":0.0,"2020平均斑塊面積_ha":3.15,"2024平均斑塊面積_ha":7.56,"平均斑塊面積下降率_pct":0.0,"道路切割密度_km_per_km2":2.624,"建成區邊界切割密度_km_per_km2":0.606,"孤立小斑塊比例_pct":0.0,"距大型連續綠地平均距離_m":10986.5,"score_面積減少":29.87551867219917,"score_斑塊增加":42.531120331950206,"score_平均斑塊縮小":26.970954356846473,"score_道路建成區切割":53.941908713692946,"score_孤立比例":20.539419087136928,"score_距大型綠地":97.5103734439834,"綜合破碎化分數":45.2,"破碎化等級":"中","判定原因":"面積減少0.0%；斑塊增加0.0%；平均斑塊縮小0.0%；道路密度2.62 km/km²；孤立比例0.0%；距大型綠地10986m","2021面積_ha":3.96,"2022面積_ha":4.05,"2023面積_ha":3.42}},{"type":"Feature","geometry":{"type":"Polygon","coordinates":[[[121.5920521937124,24.504269903744692],[121.59209449442166,24.513298393970732],[121.60196231222774,24.51325935929889],[121.60191930663984,24.504230885303095],[121.5920521937124,24.504269903744692]]]},"properties":{"grid_id":"G022_028","綠地類型":"公園／都市綠地","中心經度":121.597007,"中心緯度":24.508765,"分析面積_km2":1.04,"2020面積_ha":0.36,"2024面積_ha":0.36,"面積減少率_pct":0.0,"2020斑塊數":1,"2024斑塊數":1,"斑塊數增加率_pct":0.0,"2020平均斑塊面積_ha":0.36,"2024平均斑塊面積_ha":0.36,"平均斑塊面積下降率_pct":0.0,"道路切割密度_km_per_km2":2.826,"建成區邊界切割密度_km_per_km2":0.0,"孤立小斑塊比例_pct":100.0,"距大型連續綠地平均距離_m":11535.5,"score_面積減少":29.87551867219917,"score_斑塊增加":42.531120331950206,"score_平均斑塊縮小":26.970954356846473,"score_道路建成區切割":17.219917012448132,"score_孤立比例":80.29045643153528,"score_距大型綠地":97.9253112033195,"綜合破碎化分數":49.1,"破碎化等級":"中","判定原因":"面積減少0.0%；斑塊增加0.0%；平均斑塊縮小0.0%；道路密度2.83 km/km²；孤立比例100.0%；距大型綠地11536m","2021面積_ha":0.36,"2022面積_ha":0.36,"2023面積_ha":0.36}},{"type":"Feature","geometry":{"type":"Polygon","coordinates":[[[121.60191930663984,24.504230885303095],[121.60196231222774,24.51325935929889],[121.61183010902162,24.51321967953719],[121.6117863985617,24.50419122203985],[121.60191930663984,24.504230885303095]]]},"properties":{"grid_id":"G022_029","綠地類型":"公園／都市綠地","中心經度":121.606875,"中心緯度":24.508725,"分析面積_km2":1.04,"2020面積_ha":0.36,"2024面積_ha":0.36,"面積減少率_pct":0.0,"2020斑塊數":1,"2024斑塊數":1,"斑塊數增加率_pct":0.0,"2020平均斑塊面積_ha":0.36,"2024平均斑塊面積_ha":0.36,"平均斑塊面積下降率_pct":0.0,"道路切割密度_km_per_km2":2.191,"建成區邊界切割密度_km_per_km2":0.0,"孤立小斑塊比例_pct":100.0,"距大型連續綠地平均距離_m":12460.9,"score_面積減少":29.87551867219917,"score_斑塊增加":42.531120331950206,"score_平均斑塊縮小":26.970954356846473,"score_道路建成區切割":14.83402489626556,"score_孤立比例":80.29045643153528,"score_距大型綠地":98.3402489626556,"綜合破碎化分數":48.8,"破碎化等級":"中","判定原因":"面積減少0.0%；斑塊增加0.0%；平均斑塊縮小0.0%；道路密度2.19 km/km²；孤立比例100.0%；距大型綠地12461m","2021面積_ha":0.36,"2022面積_ha":0.36,"2023面積_ha":0.36}},{"type":"Feature","geometry":{"type":"Polygon","coordinates":[[[121.6117863985617,24.50419122203985],[121.61183010902162,24.51321967953719],[121.62169788445898,24.51317935469111],[121.62165346913372,24.50415091396044],[121.6117863985617,24.50419122203985]]]},"properties":{"grid_id":"G022_030","綠地類型":"公園／都市綠地","中心經度":121.616742,"中心緯度":24.508685,"分析面積_km2":1.04,"2020面積_ha":0.09,"2024面積_ha":0.09,"面積減少率_pct":0.0,"2020斑塊數":1,"2024斑塊數":1,"斑塊數增加率_pct":0.0,"2020平均斑塊面積_ha":0.09,"2024平均斑塊面積_ha":0.09,"平均斑塊面積下降率_pct":0.0,"道路切割密度_km_per_km2":0.202,"建成區邊界切割密度_km_per_km2":0.0,"孤立小斑塊比例_pct":100.0,"距大型連續綠地平均距離_m":12961.4,"score_面積減少":29.87551867219917,"score_斑塊增加":42.531120331950206,"score_平均斑塊縮小":26.970954356846473,"score_道路建成區切割":9.024896265560164,"score_孤立比例":80.29045643153528,"score_距大型綠地":99.1701244813278,"綜合破碎化分數":48.0,"破碎化等級":"中","判定原因":"面積減少0.0%；斑塊增加0.0%；平均斑塊縮小0.0%；道路密度0.20 km/km²；孤立比例100.0%；距大型綠地12961m","2021面積_ha":0.09,"2022面積_ha":0.09,"2023面積_ha":0.09}},{"type":"Feature","geometry":{"type":"Polygon","coordinates":[[[121.51318791622883,24.522616047044558],[121.51322461351505,24.531644635752794],[121.5230939979091,24.531610733811462],[121.52305659500635,24.52258215919159],[121.51318791622883,24.522616047044558]]]},"properties":{"grid_id":"G024_020","綠地類型":"公園／都市綠地","中心經度":121.518141,"中心緯度":24.527113,"分析面積_km2":1.04,"2020面積_ha":0.36,"2024面積_ha":0.36,"面積減少率_pct":0.0,"2020斑塊數":1,"2024斑塊數":1,"斑塊數增加率_pct":0.0,"2020平均斑塊面積_ha":0.36,"2024平均斑塊面積_ha":0.36,"平均斑塊面積下降率_pct":0.0,"道路切割密度_km_per_km2":5.536,"建成區邊界切割密度_km_per_km2":0.0,"孤立小斑塊比例_pct":100.0,"距大型連續綠地平均距離_m":7095.2,"score_面積減少":29.87551867219917,"score_斑塊增加":42.531120331950206,"score_平均斑塊縮小":26.970954356846473,"score_道路建成區切割":28.008298755186722,"score_孤立比例":80.29045643153528,"score_距大型綠地":94.6058091286307,"綜合破碎化分數":50.4,"破碎化等級":"中","判定原因":"面積減少0.0%；斑塊增加0.0%；平均斑塊縮小0.0%；道路密度5.54 km/km²；孤立比例100.0%；距大型綠地7095m","2021面積_ha":0.36,"2022面積_ha":0.36,"2023面積_ha":0.36}},{"type":"Feature","geometry":{"type":"Polygon","coordinates":[[[121.50339122044045,24.54070648369627],[121.50342724726862,24.549735064512724],[121.51329806186486,24.54970178059723],[121.51326132872518,24.540673213604673],[121.50339122044045,24.54070648369627]]]},"properties":{"grid_id":"G026_019","綠地類型":"公園／都市綠地","中心經度":121.508344,"中心緯度":24.545204,"分析面積_km2":1.04,"2020面積_ha":3.24,"2024面積_ha":3.51,"面積減少率_pct":0.0,"2020斑塊數":2,"2024斑塊數":2,"斑塊數增加率_pct":0.0,"2020平均斑塊面積_ha":1.935,"2024平均斑塊面積_ha":2.07,"平均斑塊面積下降率_pct":0.0,"道路切割密度_km_per_km2":5.882,"建成區邊界切割密度_km_per_km2":0.0,"孤立小斑塊比例_pct":35.9,"距大型連續綠地平均距離_m":5416.8,"score_面積減少":29.87551867219917,"score_斑塊增加":42.531120331950206,"score_平均斑塊縮小":26.970954356846473,"score_道路建成區切割":30.186721991701244,"score_孤立比例":56.016597510373444,"score_距大型綠地":88.38174273858921,"綜合破碎化分數":45.7,"破碎化等級":"中","判定原因":"面積減少0.0%；斑塊增加0.0%；平均斑塊縮小0.0%；道路密度5.88 km/km²；孤立比例35.9%；距大型綠地5417m","2021面積_ha":3.6,"2022面積_ha":3.42,"2023面積_ha":3.51}},{"type":"Feature","geometry":{"type":"Polygon","coordinates":[[[121.51326132872518,24.540673213604673],[121.51329806186486,24.54970178059723],[121.52316885852588,24.549667850473288],[121.52313141908036,24.540639297573016],[121.51326132872518,24.540673213604673]]]},"properties":{"grid_id":"G026_020","綠地類型":"公園／都市綠地","中心經度":121.518215,"中心緯度":24.545171,"分析面積_km2":1.04,"2020面積_ha":1.26,"2024面積_ha":1.26,"面積減少率_pct":0.0,"2020斑塊數":1,"2024斑塊數":1,"斑塊數增加率_pct":0.0,"2020平均斑塊面積_ha":1.89,"2024平均斑塊面積_ha":1.89,"平均斑塊面積下降率_pct":0.0,"道路切割密度_km_per_km2":0.202,"建成區邊界切割密度_km_per_km2":0.0,"孤立小斑塊比例_pct":100.0,"距大型連續綠地平均距離_m":5554.2,"score_面積減少":29.87551867219917,"score_斑塊增加":42.531120331950206,"score_平均斑塊縮小":26.970954356846473,"score_道路建成區切割":9.024896265560164,"score_孤立比例":80.29045643153528,"score_距大型綠地":89.21161825726142,"綜合破碎化分數":46.3,"破碎化等級":"中","判定原因":"面積減少0.0%；斑塊增加0.0%；平均斑塊縮小0.0%；道路密度0.20 km/km²；孤立比例100.0%；距大型綠地5554m","2021面積_ha":1.26,"2022面積_ha":1.26,"2023面積_ha":1.26}},{"type":"Feature","geometry":{"type":"Polygon","coordinates":[[[121.47381469931723,24.549831038963084],[121.4738486237339,24.55885964878609],[121.48372019673927,24.558828290502575],[121.48368556564996,24.549799693700113],[121.47381469931723,24.549831038963084]]]},"properties":{"grid_id":"G027_016","綠地類型":"公園／都市綠地","中心經度":121.478767,"中心緯度":24.55433,"分析面積_km2":1.04,"2020面積_ha":1.8,"2024面積_ha":1.8,"面積減少率_pct":0.0,"2020斑塊數":2,"2024斑塊數":2,"斑塊數增加率_pct":0.0,"2020平均斑塊面積_ha":2.07,"2024平均斑塊面積_ha":1.98,"平均斑塊面積下降率_pct":4.35,"道路切割密度_km_per_km2":3.287,"建成區邊界切割密度_km_per_km2":0.058,"孤立小斑塊比例_pct":80.0,"距大型連續綠地平均距離_m":5134.1,"score_面積減少":29.87551867219917,"score_斑塊增加":42.531120331950206,"score_平均斑塊縮小":61.41078838174274,"score_道路建成區切割":32.88381742738589,"score_孤立比例":59.75103734439834,"score_距大型綠地":87.55186721991701,"綜合破碎化分數":52.3,"破碎化等級":"中","判定原因":"面積減少0.0%；斑塊增加0.0%；平均斑塊縮小4.3%；道路密度3.29 km/km²；孤立比例80.0%；距大型綠地5134m","2021面積_ha":1.98,"2022面積_ha":1.89,"2023面積_ha":1.8}},{"type":"Feature","geometry":{"type":"Polygon","coordinates":[[[121.4738486237339,24.55885964878609],[121.47388256471159,24.567888247751313],[121.48375484473455,24.567856876445447],[121.48372019673927,24.558828290502575],[121.4738486237339,24.55885964878609]]]},"properties":{"grid_id":"G028_016","綠地類型":"公園／都市綠地","中心經度":121.478802,"中心緯度":24.563358,"分析面積_km2":1.04,"2020面積_ha":2.52,"2024面積_ha":2.34,"面積減少率_pct":7.14,"2020斑塊數":1,"2024斑塊數":1,"斑塊數增加率_pct":0.0,"2020平均斑塊面積_ha":2.7,"2024平均斑塊面積_ha":2.52,"平均斑塊面積下降率_pct":6.67,"道路切割密度_km_per_km2":2.566,"建成區邊界切割密度_km_per_km2":0.0,"孤立小斑塊比例_pct":0.0,"距大型連續綠地平均距離_m":4847.1,"score_面積減少":67.63485477178423,"score_斑塊增加":42.531120331950206,"score_平均斑塊縮小":63.27800829875518,"score_道路建成區切割":16.07883817427386,"score_孤立比例":20.539419087136928,"score_距大型綠地":86.72199170124482,"綜合破碎化分數":49.5,"破碎化等級":"中","判定原因":"面積減少7.1%；斑塊增加0.0%；平均斑塊縮小6.7%；道路密度2.57 km/km²；孤立比例0.0%；距大型綠地4847m","2021面積_ha":2.52,"2022面積_ha":2.43,"2023面積_ha":2.34}},{"type":"Feature","geometry":{"type":"Polygon","coordinates":[[[121.51344517383198,24.585815939915015],[121.51348199670413,24.594844452566548],[121.52335633006928,24.594810451951787],[121.52331879916598,24.585781953402346],[121.51344517383198,24.585815939915015]]]},"properties":{"grid_id":"G031_020","綠地類型":"公園／都市綠地","中心經度":121.518401,"中心緯度":24.590313,"分析面積_km2":1.04,"2020面積_ha":6.21,"2024面積_ha":6.03,"面積減少率_pct":2.9,"2020斑塊數":2,"2024斑塊數":2,"斑塊數增加率_pct":0.0,"2020平均斑塊面積_ha":10.26,"2024平均斑塊面積_ha":9.945,"平均斑塊面積下降率_pct":3.07,"道路切割密度_km_per_km2":6.2,"建成區邊界切割密度_km_per_km2":0.058,"孤立小斑塊比例_pct":32.84,"距大型連續綠地平均距離_m":178.5,"score_面積減少":63.07053941908713,"score_斑塊增加":42.531120331950206,"score_平均斑塊縮小":58.50622406639005,"score_道路建成區切割":46.47302904564315,"score_孤立比例":55.601659751037346,"score_距大型綠地":26.556016597510375,"綜合破碎化分數":48.8,"破碎化等級":"中","判定原因":"面積減少2.9%；斑塊增加0.0%；平均斑塊縮小3.1%；道路密度6.20 km/km²；孤立比例32.8%；距大型綠地178m","2021面積_ha":6.03,"2022面積_ha":6.03,"2023面積_ha":6.03}},{"type":"Feature","geometry":{"type":"Polygon","coordinates":[[[121.83938366007169,24.60240845216678],[121.83944390305801,24.61143633573381],[121.84931886649585,24.611380923171296],[121.84925791503572,24.602353062573993],[121.83938366007169,24.60240845216678]]]},"properties":{"grid_id":"G033_053","綠地類型":"公園／都市綠地","中心經度":121.844351,"中心緯度":24.606895,"分析面積_km2":1.04,"2020面積_ha":0.63,"2024面積_ha":0.63,"面積減少率_pct":0.0,"2020斑塊數":1,"2024斑塊數":1,"斑塊數增加率_pct":0.0,"2020平均斑塊面積_ha":0.63,"2024平均斑塊面積_ha":0.63,"平均斑塊面積下降率_pct":0.0,"道路切割密度_km_per_km2":4.556,"建成區邊界切割密度_km_per_km2":0.0,"孤立小斑塊比例_pct":100.0,"距大型連續綠地平均距離_m":3209.7,"score_面積減少":29.87551867219917,"score_斑塊增加":42.531120331950206,"score_平均斑塊縮小":26.970954356846473,"score_道路建成區切割":23.962655601659748,"score_孤立比例":80.29045643153528,"score_距大型綠地":72.61410788381743,"綜合破碎化分數":46.0,"破碎化等級":"中","判定原因":"面積減少0.0%；斑塊增加0.0%；平均斑塊縮小0.0%；道路密度4.56 km/km²；孤立比例100.0%；距大型綠地3210m","2021面積_ha":0.63,"2022面積_ha":0.63,"2023面積_ha":0.63}},{"type":"Feature","geometry":{"type":"Polygon","coordinates":[[[121.83944390305801,24.61143633573381],[121.83950417542161,24.620464208333154],[121.8493798476787,24.620408772797706],[121.84931886649585,24.611380923171296],[121.83944390305801,24.61143633573381]]]},"properties":{"grid_id":"G034_053","綠地類型":"公園／都市綠地","中心經度":121.844412,"中心緯度":24.615923,"分析面積_km2":1.04,"2020面積_ha":0.27,"2024面積_ha":0.27,"面積減少率_pct":0.0,"2020斑塊數":1,"2024斑塊數":1,"斑塊數增加率_pct":0.0,"2020平均斑塊面積_ha":0.27,"2024平均斑塊面積_ha":0.27,"平均斑塊面積下降率_pct":0.0,"道路切割密度_km_per_km2":11.275,"建成區邊界切割密度_km_per_km2":0.058,"孤立小斑塊比例_pct":100.0,"距大型連續綠地平均距離_m":2318.3,"score_面積減少":29.87551867219917,"score_斑塊增加":42.531120331950206,"score_平均斑塊縮小":26.970954356846473,"score_道路建成區切割":63.27800829875518,"score_孤立比例":80.29045643153528,"score_距大型綠地":52.69709543568465,"綜合破碎化分數":49.3,"破碎化等級":"中","判定原因":"面積減少0.0%；斑塊增加0.0%；平均斑塊縮小0.0%；道路密度11.28 km/km²；孤立比例100.0%；距大型綠地2318m","2021面積_ha":0.27,"2022面積_ha":0.27,"2023面積_ha":0.18}},{"type":"Feature","geometry":{"type":"Polygon","coordinates":[[[121.8591938002109,24.611324862730598],[121.84931886649585,24.611380923171296],[121.8493798476787,24.620408772797706],[121.85612879521351,24.620370515724034],[121.85639800000001,24.6199286],[121.85699690000001,24.619006399999993],[121.85725790000001,24.6186486],[121.8575478,24.6181187],[121.8577438,24.6178439],[121.8578077,24.617758099999996],[121.8580644,24.6174138],[121.85834070000001,24.617095199999998],[121.8586879,24.616598600000003],[121.8589298,24.6163317],[121.85922540539896,24.61595057491267],[121.8591938002109,24.611324862730598]]]},"properties":{"grid_id":"G034_054","綠地類型":"公園／都市綠地","中心經度":121.854272,"中心緯度":24.613666,"分析面積_km2":0.95,"2020面積_ha":0.63,"2024面積_ha":0.63,"面積減少率_pct":0.0,"2020斑塊數":2,"2024斑塊數":2,"斑塊數增加率_pct":0.0,"2020平均斑塊面積_ha":0.315,"2024平均斑塊面積_ha":0.315,"平均斑塊面積下降率_pct":0.0,"道路切割密度_km_per_km2":9.51,"建成區邊界切割密度_km_per_km2":0.063,"孤立小斑塊比例_pct":100.0,"距大型連續綠地平均距離_m":2838.1,"score_面積減少":29.87551867219917,"score_斑塊增加":42.531120331950206,"score_平均斑塊縮小":26.970954356846473,"score_道路建成區切割":60.58091286307054,"score_孤立比例":80.29045643153528,"score_距大型綠地":62.24066390041494,"綜合破碎化分數":50.4,"破碎化等級":"中","判定原因":"面積減少0.0%；斑塊增加0.0%；平均斑塊縮小0.0%；道路密度9.51 km/km²；孤立比例100.0%；距大型綠地2838m","2021面積_ha":0.81,"2022面積_ha":0.63,"2023面積_ha":0.81}},{"type":"Feature","geometry":{"type":"Polygon","coordinates":[[[121.57285104850529,24.62171594246472],[121.57289219965645,24.63074432289971],[121.58276925342214,24.630706374205396],[121.58272739289399,24.621678009492634],[121.57285104850529,24.62171594246472]]]},"properties":{"grid_id":"G035_026","綠地類型":"公園／都市綠地","中心經度":121.57781,"中心緯度":24.626211,"分析面積_km2":1.04,"2020面積_ha":0.63,"2024面積_ha":0.63,"面積減少率_pct":0.0,"2020斑塊數":1,"2024斑塊數":1,"斑塊數增加率_pct":0.0,"2020平均斑塊面積_ha":4.5,"2024平均斑塊面積_ha":1.35,"平均斑塊面積下降率_pct":70.0,"道路切割密度_km_per_km2":1.211,"建成區邊界切割密度_km_per_km2":0.0,"孤立小斑塊比例_pct":100.0,"距大型連續綠地平均距離_m":2943.9,"score_面積減少":29.87551867219917,"score_斑塊增加":42.531120331950206,"score_平均斑塊縮小":88.38174273858921,"score_道路建成區切割":11.410788381742737,"score_孤立比例":80.29045643153528,"score_距大型綠地":64.73029045643153,"綜合破碎化分數":52.9,"破碎化等級":"中","判定原因":"面積減少0.0%；斑塊增加0.0%；平均斑塊縮小70.0%；道路密度1.21 km/km²；孤立比例100.0%；距大型綠地2944m","2021面積_ha":0.63,"2022面積_ha":0.63,"2023面積_ha":0.63}},{"type":"Feature","geometry":{"type":"Polygon","coordinates":[[[121.75062184417915,24.620933960314176],[121.7506757630418,24.629962016639773],[121.76055239658204,24.629912394200527],[121.76049776847508,24.620884358433365],[121.75062184417915,24.620933960314176]]]},"properties":{"grid_id":"G035_044","綠地類型":"公園／都市綠地","中心經度":121.755587,"中心緯度":24.625423,"分析面積_km2":1.04,"2020面積_ha":41.4,"2024面積_ha":40.86,"面積減少率_pct":1.3,"2020斑塊數":1,"2024斑塊數":1,"斑塊數增加率_pct":0.0,"2020平均斑塊面積_ha":47.7,"2024平均斑塊面積_ha":47.16,"平均斑塊面積下降率_pct":1.13,"道路切割密度_km_per_km2":8.997,"建成區邊界切割密度_km_per_km2":0.606,"孤立小斑塊比例_pct":0.0,"距大型連續綠地平均距離_m":0.0,"score_面積減少":60.99585062240664,"score_斑塊增加":42.531120331950206,"score_平均斑塊縮小":56.016597510373444,"score_道路建成區切割":79.25311203319502,"score_孤立比例":20.539419087136928,"score_距大型綠地":9.95850622406639,"綜合破碎化分數":44.9,"破碎化等級":"中","判定原因":"面積減少1.3%；斑塊增加0.0%；平均斑塊縮小1.1%；道路密度9.00 km/km²；孤立比例0.0%；距大型綠地0m","2021面積_ha":41.31,"2022面積_ha":40.68,"2023面積_ha":41.31}},{"type":"Feature","geometry":{"type":"Polygon","coordinates":[[[121.56301512582975,24.630781622998022],[121.56305558731279,24.639810007987403],[121.57293337086864,24.63977269243341],[121.57289219965645,24.63074432289971],[121.56301512582975,24.630781622998022]]]},"properties":{"grid_id":"G036_025","綠地類型":"公園／都市綠地","中心經度":121.567974,"中心緯度":24.635277,"分析面積_km2":1.04,"2020面積_ha":2.07,"2024面積_ha":2.07,"面積減少率_pct":0.0,"2020斑塊數":3,"2024斑塊數":2,"斑塊數增加率_pct":0.0,"2020平均斑塊面積_ha":0.69,"2024平均斑塊面積_ha":1.035,"平均斑塊面積下降率_pct":0.0,"道路切割密度_km_per_km2":5.133,"建成區邊界切割密度_km_per_km2":0.375,"孤立小斑塊比例_pct":100.0,"距大型連續綠地平均距離_m":3494.9,"score_面積減少":29.87551867219917,"score_斑塊增加":42.531120331950206,"score_平均斑塊縮小":26.970954356846473,"score_道路建成區切割":59.85477178423237,"score_孤立比例":80.29045643153528,"score_距大型綠地":75.93360995850622,"綜合破碎化分數":52.6,"破碎化等級":"中","判定原因":"面積減少0.0%；斑塊增加0.0%；平均斑塊縮小0.0%；道路密度5.13 km/km²；孤立比例100.0%；距大型綠地3495m","2021面積_ha":2.61,"2022面積_ha":0.72,"2023面積_ha":1.35}},{"type":"Feature","geometry":{"type":"Polygon","coordinates":[[[121.59264628678099,24.63066777692031],[121.59268887743232,24.639696114736417],[121.60256659974839,24.639656852604],[121.60252329938726,24.630628531049794],[121.59264628678099,24.63066777692031]]]},"properties":{"grid_id":"G036_028","綠地類型":"公園／都市綠地","中心經度":121.597606,"中心緯度":24.635162,"分析面積_km2":1.04,"2020面積_ha":2.34,"2024面積_ha":2.16,"面積減少率_pct":7.69,"2020斑塊數":1,"2024斑塊數":1,"斑塊數增加率_pct":0.0,"2020平均斑塊面積_ha":4.86,"2024平均斑塊面積_ha":4.32,"平均斑塊面積下降率_pct":11.11,"道路切割密度_km_per_km2":4.671,"建成區邊界切割密度_km_per_km2":0.087,"孤立小斑塊比例_pct":0.0,"距大型連續綠地平均距離_m":283.1,"score_面積減少":68.25726141078839,"score_斑塊增加":42.531120331950206,"score_平均斑塊縮小":65.97510373443983,"score_道路建成區切割":43.672199170124486,"score_孤立比例":20.539419087136928,"score_距大型綠地":28.21576763485477,"綜合破碎化分數":44.9,"破碎化等級":"中","判定原因":"面積減少7.7%；斑塊增加0.0%；平均斑塊縮小11.1%；道路密度4.67 km/km²；孤立比例0.0%；距大型綠地283m","2021面積_ha":2.34,"2022面積_ha":2.16,"2023面積_ha":1.89}},{"type":"Feature","geometry":{"type":"Polygon","coordinates":[[[121.56305558731279,24.639810007987403],[121.56309606851731,24.6488383820747],[121.57297456214818,24.648801051062865],[121.57293337086864,24.63977269243341],[121.56305558731279,24.639810007987403]]]},"properties":{"grid_id":"G037_025","綠地類型":"公園／都市綠地","中心經度":121.568015,"中心緯度":24.644306,"分析面積_km2":1.04,"2020面積_ha":5.94,"2024面積_ha":5.94,"面積減少率_pct":0.0,"2020斑塊數":3,"2024斑塊數":3,"斑塊數增加率_pct":0.0,"2020平均斑塊面積_ha":2.76,"2024平均斑塊面積_ha":2.67,"平均斑塊面積下降率_pct":3.26,"道路切割密度_km_per_km2":4.412,"建成區邊界切割密度_km_per_km2":0.087,"孤立小斑塊比例_pct":50.0,"距大型連續綠地平均距離_m":3604.6,"score_面積減少":29.87551867219917,"score_斑塊增加":42.531120331950206,"score_平均斑塊縮小":59.75103734439834,"score_道路建成區切割":42.427385892116185,"score_孤立比例":58.50622406639005,"score_距大型綠地":76.76348547717843,"綜合破碎化分數":51.6,"破碎化等級":"中","判定原因":"面積減少0.0%；斑塊增加0.0%；平均斑塊縮小3.3%；道路密度4.41 km/km²；孤立比例50.0%；距大型綠地3605m","2021面積_ha":5.76,"2022面積_ha":5.76,"2023面積_ha":5.85}},{"type":"Feature","geometry":{"type":"Polygon","coordinates":[[[121.57293337086864,24.63977269243341],[121.57297456214818,24.648801051062865],[121.58285303570537,24.648763070917504],[121.58281113435713,24.639734728014666],[121.57293337086864,24.63977269243341]]]},"properties":{"grid_id":"G037_026","綠地類型":"公園／都市綠地","中心經度":121.577893,"中心緯度":24.644268,"分析面積_km2":1.04,"2020面積_ha":5.22,"2024面積_ha":4.41,"面積減少率_pct":15.52,"2020斑塊數":4,"2024斑塊數":3,"斑塊數增加率_pct":0.0,"2020平均斑塊面積_ha":2.34,"2024平均斑塊面積_ha":2.52,"平均斑塊面積下降率_pct":0.0,"道路切割密度_km_per_km2":4.556,"建成區邊界切割密度_km_per_km2":0.173,"孤立小斑塊比例_pct":6.12,"距大型連續綠地平均距離_m":2649.6,"score_面積減少":72.61410788381743,"score_斑塊增加":42.531120331950206,"score_平均斑塊縮小":26.970954356846473,"score_道路建成區切割":48.65145228215767,"score_孤立比例":46.058091286307054,"score_距大型綠地":58.09128630705395,"綜合破碎化分數":49.2,"破碎化等級":"中","判定原因":"面積減少15.5%；斑塊增加0.0%；平均斑塊縮小0.0%；道路密度4.56 km/km²；孤立比例6.1%；距大型綠地2650m","2021面積_ha":4.5,"2022面積_ha":4.23,"2023面積_ha":4.05}},{"type":"Feature","geometry":{"type":"Polygon","coordinates":[[[121.59268887743232,24.639696114736417],[121.59273148884283,24.64872444164385],[121.60260992121457,24.648685163247258],[121.60256659974839,24.639656852604],[121.59268887743232,24.639696114736417]]]},"properties":{"grid_id":"G037_028","綠地類型":"公園／都市綠地","中心經度":121.597649,"中心緯度":24.644191,"分析面積_km2":1.04,"2020面積_ha":2.79,"2024面積_ha":2.52,"面積減少率_pct":9.68,"2020斑塊數":2,"2024斑塊數":2,"斑塊數增加率_pct":0.0,"2020平均斑塊面積_ha":5.31,"2024平均斑塊面積_ha":4.995,"平均斑塊面積下降率_pct":5.93,"道路切割密度_km_per_km2":2.884,"建成區邊界切割密度_km_per_km2":0.087,"孤立小斑塊比例_pct":0.0,"距大型連續綠地平均距離_m":492.4,"score_面積減少":70.12448132780082,"score_斑塊增加":42.531120331950206,"score_平均斑塊縮小":62.24066390041494,"score_道路建成區切割":36.61825726141079,"score_孤立比例":20.539419087136928,"score_距大型綠地":31.535269709543567,"綜合破碎化分數":43.9,"破碎化等級":"中","判定原因":"面積減少9.7%；斑塊增加0.0%；平均斑塊縮小5.9%；道路密度2.88 km/km²；孤立比例0.0%；距大型綠地492m","2021面積_ha":2.7,"2022面積_ha":2.43,"2023面積_ha":2.07}},{"type":"Feature","geometry":{"type":"Polygon","coordinates":[[[121.72109752242346,24.639135098453707],[121.72114936400665,24.64816319296343],[121.73102749493894,24.648115476495004],[121.73097494339525,24.63908740174327],[121.72109752242346,24.639135098453707]]]},"properties":{"grid_id":"G037_041","綠地類型":"公園／都市綠地","中心經度":121.726062,"中心緯度":24.643625,"分析面積_km2":1.04,"2020面積_ha":0.36,"2024面積_ha":0.36,"面積減少率_pct":0.0,"2020斑塊數":1,"2024斑塊數":1,"斑塊數增加率_pct":0.0,"2020平均斑塊面積_ha":0.36,"2024平均斑塊面積_ha":0.36,"平均斑塊面積下降率_pct":0.0,"道路切割密度_km_per_km2":5.882,"建成區邊界切割密度_km_per_km2":0.058,"孤立小斑塊比例_pct":100.0,"距大型連續綠地平均距離_m":3096.3,"score_面積減少":29.87551867219917,"score_斑塊增加":42.531120331950206,"score_平均斑塊縮小":26.970954356846473,"score_道路建成區切割":44.91701244813278,"score_孤立比例":80.29045643153528,"score_距大型綠地":70.53941908713693,"綜合破碎化分數":49.2,"破碎化等級":"中","判定原因":"面積減少0.0%；斑塊增加0.0%；平均斑塊縮小0.0%；道路密度5.88 km/km²；孤立比例100.0%；距大型綠地3096m","2021面積_ha":0.36,"2022面積_ha":0.27,"2023面積_ha":0.27}},{"type":"Feature","geometry":{"type":"Polygon","coordinates":[[[121.73097494339525,24.63908740174327],[121.73102749493894,24.648115476495004],[121.74090560026181,24.648067110987764],[121.74085233876573,24.639039056262753],[121.73097494339525,24.63908740174327]]]},"properties":{"grid_id":"G037_042","綠地類型":"公園／都市綠地","中心經度":121.73594,"中心緯度":24.643577,"分析面積_km2":1.04,"2020面積_ha":0.27,"2024面積_ha":0.27,"面積減少率_pct":0.0,"2020斑塊數":2,"2024斑塊數":2,"斑塊數增加率_pct":0.0,"2020平均斑塊面積_ha":0.135,"2024平均斑塊面積_ha":0.135,"平均斑塊面積下降率_pct":0.0,"道路切割密度_km_per_km2":2.566,"建成區邊界切割密度_km_per_km2":0.029,"孤立小斑塊比例_pct":100.0,"距大型連續綠地平均距離_m":2757.3,"score_面積減少":29.87551867219917,"score_斑塊增加":42.531120331950206,"score_平均斑塊縮小":26.970954356846473,"score_道路建成區切割":26.348547717842326,"score_孤立比例":80.29045643153528,"score_距大型綠地":60.99585062240664,"綜合破碎化分數":44.5,"破碎化等級":"中","判定原因":"面積減少0.0%；斑塊增加0.0%；平均斑塊縮小0.0%；道路密度2.57 km/km²；孤立比例100.0%；距大型綠地2757m","2021面積_ha":0.27,"2022面積_ha":0.18,"2023面積_ha":0.45}},{"type":"Feature","geometry":{"type":"Polygon","coordinates":[[[121.75072970818907,24.63899006201884],[121.75078367962935,24.648018096448396],[121.76066173269561,24.647968432883665],[121.76060705131944,24.638940419018283],[121.75072970818907,24.63899006201884]]]},"properties":{"grid_id":"G037_044","綠地類型":"公園／都市綠地","中心經度":121.755696,"中心緯度":24.643479,"分析面積_km2":1.04,"2020面積_ha":0.09,"2024面積_ha":0.09,"面積減少率_pct":0.0,"2020斑塊數":1,"2024斑塊數":1,"斑塊數增加率_pct":0.0,"2020平均斑塊面積_ha":0.09,"2024平均斑塊面積_ha":0.09,"平均斑塊面積下降率_pct":0.0,"道路切割密度_km_per_km2":9.919,"建成區邊界切割密度_km_per_km2":0.029,"孤立小斑塊比例_pct":100.0,"距大型連續綠地平均距離_m":1590.0,"score_面積減少":29.87551867219917,"score_斑塊增加":42.531120331950206,"score_平均斑塊縮小":26.970954356846473,"score_道路建成區切割":54.66804979253112,"score_孤立比例":80.29045643153528,"score_距大型綠地":44.81327800829876,"綜合破碎化分數":46.5,"破碎化等級":"中","判定原因":"面積減少0.0%；斑塊增加0.0%；平均斑塊縮小0.0%；道路密度9.92 km/km²；孤立比例100.0%；距大型綠地1590m","2021面積_ha":0.09,"2022面積_ha":0.0,"2023面積_ha":0.09}},{"type":"Feature","geometry":{"type":"Polygon","coordinates":[[[121.62236672227682,24.648604659107033],[121.62241148563804,24.65763292549706],[121.63229056401792,24.657591682691685],[121.63224509027538,24.64856343337452],[121.62236672227682,24.648604659107033]]]},"properties":{"grid_id":"G038_031","綠地類型":"公園／都市綠地","中心經度":121.627328,"中心緯度":24.653098,"分析面積_km2":1.04,"2020面積_ha":0.45,"2024面積_ha":0.0,"面積減少率_pct":100.0,"2020斑塊數":1,"2024斑塊數":0,"斑塊數增加率_pct":0.0,"2020平均斑塊面積_ha":0.45,"2024平均斑塊面積_ha":0.0,"平均斑塊面積下降率_pct":100.0,"道路切割密度_km_per_km2":6.228,"建成區邊界切割密度_km_per_km2":0.0,"孤立小斑塊比例_pct":0.0,"距大型連續綠地平均距離_m":0.0,"score_面積減少":96.6804979253112,"score_斑塊增加":42.531120331950206,"score_平均斑塊縮小":96.6804979253112,"score_道路建成區切割":31.950207468879665,"score_孤立比例":20.539419087136928,"score_距大型綠地":9.95850622406639,"綜合破碎化分數":49.7,"破碎化等級":"中","判定原因":"面積減少100.0%；斑塊增加0.0%；平均斑塊縮小100.0%；道路密度6.23 km/km²；孤立比例0.0%；距大型綠地0m","2021面積_ha":0.54,"2022面積_ha":0.72,"2023面積_ha":0.18}},{"type":"Feature","geometry":{"type":"Polygon","coordinates":[[[121.76066173269561,24.647968432883665],[121.76071644071897,24.656996435793676],[121.77059517741144,24.656946102374636],[121.77053975911464,24.647918120300435],[121.76066173269561,24.647968432883665]]]},"properties":{"grid_id":"G038_045","綠地類型":"公園／都市綠地","中心經度":121.765628,"中心緯度":24.652457,"分析面積_km2":1.04,"2020面積_ha":0.09,"2024面積_ha":0.0,"面積減少率_pct":100.0,"2020斑塊數":1,"2024斑塊數":0,"斑塊數增加率_pct":0.0,"2020平均斑塊面積_ha":0.09,"2024平均斑塊面積_ha":0.0,"平均斑塊面積下降率_pct":100.0,"道路切割密度_km_per_km2":9.862,"建成區邊界切割密度_km_per_km2":0.0,"孤立小斑塊比例_pct":0.0,"距大型連續綠地平均距離_m":0.0,"score_面積減少":96.6804979253112,"score_斑塊增加":42.531120331950206,"score_平均斑塊縮小":96.6804979253112,"score_道路建成區切割":43.983402489626556,"score_孤立比例":20.539419087136928,"score_距大型綠地":9.95850622406639,"綜合破碎化分數":51.7,"破碎化等級":"中","判定原因":"面積減少100.0%；斑塊增加0.0%；平均斑塊縮小100.0%；道路密度9.86 km/km²；孤立比例0.0%；距大型綠地0m","2021面積_ha":0.18,"2022面積_ha":0.0,"2023面積_ha":0.0}},{"type":"Feature","geometry":{"type":"Polygon","coordinates":[[[121.82980733866613,24.647602615808065],[121.82986701842042,24.656630467223636],[121.83974555883482,24.656575588993512],[121.83968516886917,24.647547760294973],[121.82980733866613,24.647602615808065]]]},"properties":{"grid_id":"G038_052","綠地類型":"公園／都市綠地","中心經度":121.834776,"中心緯度":24.652089,"分析面積_km2":1.04,"2020面積_ha":0.09,"2024面積_ha":0.0,"面積減少率_pct":100.0,"2020斑塊數":1,"2024斑塊數":0,"斑塊數增加率_pct":0.0,"2020平均斑塊面積_ha":0.09,"2024平均斑塊面積_ha":0.0,"平均斑塊面積下降率_pct":100.0,"道路切割密度_km_per_km2":12.14,"建成區邊界切割密度_km_per_km2":0.0,"孤立小斑塊比例_pct":0.0,"距大型連續綠地平均距離_m":0.0,"score_面積減少":96.6804979253112,"score_斑塊增加":42.531120331950206,"score_平均斑塊縮小":96.6804979253112,"score_道路建成區切割":50.829875518672196,"score_孤立比例":20.539419087136928,"score_距大型綠地":9.95850622406639,"綜合破碎化分數":52.9,"破碎化等級":"中","判定原因":"面積減少100.0%；斑塊增加0.0%；平均斑塊縮小100.0%；道路密度12.14 km/km²；孤立比例0.0%；距大型綠地0m","2021面積_ha":0.0,"2022面積_ha":0.0,"2023面積_ha":0.0}},{"type":"Feature","geometry":{"type":"Polygon","coordinates":[[[121.5631365694495,24.65786674525696],[121.56317709011559,24.666895097531206],[121.5730570049347,24.666857735597215],[121.57301577350141,24.657829398785122],[121.5631365694495,24.65786674525696]]]},"properties":{"grid_id":"G039_025","綠地類型":"公園／都市綠地","中心經度":121.568097,"中心緯度":24.662362,"分析面積_km2":1.04,"2020面積_ha":0.36,"2024面積_ha":0.36,"面積減少率_pct":0.0,"2020斑塊數":1,"2024斑塊數":1,"斑塊數增加率_pct":0.0,"2020平均斑塊面積_ha":0.45,"2024平均斑塊面積_ha":0.45,"平均斑塊面積下降率_pct":0.0,"道路切割密度_km_per_km2":3.287,"建成區邊界切割密度_km_per_km2":0.0,"孤立小斑塊比例_pct":100.0,"距大型連續綠地平均距離_m":3891.5,"score_面積減少":29.87551867219917,"score_斑塊增加":42.531120331950206,"score_平均斑塊縮小":26.970954356846473,"score_道路建成區切割":18.153526970954356,"score_孤立比例":80.29045643153528,"score_距大型綠地":80.08298755186722,"綜合破碎化分數":46.3,"破碎化等級":"中","判定原因":"面積減少0.0%；斑塊增加0.0%；平均斑塊縮小0.0%；道路密度3.29 km/km²；孤立比例100.0%；距大型綠地3892m","2021面積_ha":0.36,"2022面積_ha":0.27,"2023面積_ha":0.36}},{"type":"Feature","geometry":{"type":"Polygon","coordinates":[[[121.57301577350141,24.657829398785122],[121.5730570049347,24.666857735597215],[121.58293689966744,24.66681972399201],[121.58289495747333,24.657791402910934],[121.57301577350141,24.657829398785122]]]},"properties":{"grid_id":"G039_026","綠地類型":"公園／都市綠地","中心經度":121.577976,"中心緯度":24.662325,"分析面積_km2":1.04,"2020面積_ha":0.27,"2024面積_ha":0.27,"面積減少率_pct":0.0,"2020斑塊數":1,"2024斑塊數":1,"斑塊數增加率_pct":0.0,"2020平均斑塊面積_ha":0.45,"2024平均斑塊面積_ha":0.45,"平均斑塊面積下降率_pct":0.0,"道路切割密度_km_per_km2":5.248,"建成區邊界切割密度_km_per_km2":0.0,"孤立小斑塊比例_pct":100.0,"距大型連續綠地平均距離_m":3868.7,"score_面積減少":29.87551867219917,"score_斑塊增加":42.531120331950206,"score_平均斑塊縮小":26.970954356846473,"score_道路建成區切割":26.763485477178424,"score_孤立比例":80.29045643153528,"score_距大型綠地":79.66804979253112,"綜合破碎化分數":47.7,"破碎化等級":"中","判定原因":"面積減少0.0%；斑塊增加0.0%；平均斑塊縮小0.0%；道路密度5.25 km/km²；孤立比例100.0%；距大型綠地3869m","2021面積_ha":0.27,"2022面積_ha":0.27,"2023面積_ha":0.27}},{"type":"Feature","geometry":{"type":"Polygon","coordinates":[[[121.61253238544751,24.65767351892724],[121.61257645988498,24.666701791202158],[121.62245627080986,24.666661180965566],[121.62241148563804,24.65763292549706],[121.61253238544751,24.65767351892724]]]},"properties":{"grid_id":"G039_030","綠地類型":"公園／都市綠地","中心經度":121.617494,"中心緯度":24.662167,"分析面積_km2":1.04,"2020面積_ha":4.5,"2024面積_ha":4.41,"面積減少率_pct":2.0,"2020斑塊數":1,"2024斑塊數":1,"斑塊數增加率_pct":0.0,"2020平均斑塊面積_ha":16.29,"2024平均斑塊面積_ha":5.67,"平均斑塊面積下降率_pct":65.19,"道路切割密度_km_per_km2":8.103,"建成區邊界切割密度_km_per_km2":0.058,"孤立小斑塊比例_pct":0.0,"距大型連續綠地平均距離_m":1133.2,"score_面積減少":61.82572614107884,"score_斑塊增加":42.531120331950206,"score_平均斑塊縮小":85.47717842323651,"score_道路建成區切割":53.7344398340249,"score_孤立比例":20.539419087136928,"score_距大型綠地":41.078838174273855,"綜合破碎化分數":50.9,"破碎化等級":"中","判定原因":"面積減少2.0%；斑塊增加0.0%；平均斑塊縮小65.2%；道路密度8.10 km/km²；孤立比例0.0%；距大型綠地1133m","2021面積_ha":4.41,"2022面積_ha":4.32,"2023面積_ha":4.5}},{"type":"Feature","geometry":{"type":"Polygon","coordinates":[[[121.65204865396143,24.657507248978195],[121.6520955712945,24.666535452414415],[121.66197529287203,24.666492243636213],[121.66192766483285,24.657464058081768],[121.65204865396143,24.657507248978195]]]},"properties":{"grid_id":"G039_034","綠地類型":"公園／都市綠地","中心經度":121.657012,"中心緯度":24.662,"分析面積_km2":1.04,"2020面積_ha":0.36,"2024面積_ha":0.36,"面積減少率_pct":0.0,"2020斑塊數":1,"2024斑塊數":1,"斑塊數增加率_pct":0.0,"2020平均斑塊面積_ha":0.36,"2024平均斑塊面積_ha":0.36,"平均斑塊面積下降率_pct":0.0,"道路切割密度_km_per_km2":9.717,"建成區邊界切割密度_km_per_km2":0.115,"孤立小斑塊比例_pct":100.0,"距大型連續綠地平均距離_m":2733.4,"score_面積減少":29.87551867219917,"score_斑塊增加":42.531120331950206,"score_平均斑塊縮小":26.970954356846473,"score_道路建成區切割":65.24896265560166,"score_孤立比例":80.29045643153528,"score_距大型綠地":60.16597510373444,"綜合破碎化分數":50.8,"破碎化等級":"中","判定原因":"面積減少0.0%；斑塊增加0.0%；平均斑塊縮小0.0%；道路密度9.72 km/km²；孤立比例100.0%；距大型綠地2733m","2021面積_ha":0.27,"2022面積_ha":0.0,"2023面積_ha":0.36}},{"type":"Feature","geometry":{"type":"Polygon","coordinates":[[[121.59281677396756,24.666781062720858],[121.59285944769493,24.675809356884507],[121.6027400123102,24.675770029681754],[121.6026966274888,24.666741751789097],[121.59281677396756,24.666781062720858]]]},"properties":{"grid_id":"G040_028","綠地類型":"公園／都市綠地","中心經度":121.597778,"中心緯度":24.671276,"分析面積_km2":1.04,"2020面積_ha":2.43,"2024面積_ha":2.7,"面積減少率_pct":0.0,"2020斑塊數":3,"2024斑塊數":3,"斑塊數增加率_pct":0.0,"2020平均斑塊面積_ha":0.93,"2024平均斑塊面積_ha":1.02,"平均斑塊面積下降率_pct":0.0,"道路切割密度_km_per_km2":8.622,"建成區邊界切割密度_km_per_km2":0.202,"孤立小斑塊比例_pct":100.0,"距大型連續綠地平均距離_m":1505.2,"score_面積減少":29.87551867219917,"score_斑塊增加":42.531120331950206,"score_平均斑塊縮小":26.970954356846473,"score_道路建成區切割":67.11618257261411,"score_孤立比例":80.29045643153528,"score_距大型綠地":43.15352697095436,"綜合破碎化分數":48.3,"破碎化等級":"中","判定原因":"面積減少0.0%；斑塊增加0.0%；平均斑塊縮小0.0%；道路密度8.62 km/km²；孤立比例100.0%；距大型綠地1505m","2021面積_ha":2.7,"2022面積_ha":2.34,"2023面積_ha":3.78}},{"type":"Feature","geometry":{"type":"Polygon","coordinates":[[[121.64221582686083,24.666578011565946],[121.64226205599051,24.67560622168579],[121.65214251148373,24.675563644918867],[121.6520955712945,24.666535452414415],[121.64221582686083,24.666578011565946]]]},"properties":{"grid_id":"G040_033","綠地類型":"公園／都市綠地","中心經度":121.647179,"中心緯度":24.671071,"分析面積_km2":1.04,"2020面積_ha":0.54,"2024面積_ha":0.0,"面積減少率_pct":100.0,"2020斑塊數":1,"2024斑塊數":0,"斑塊數增加率_pct":0.0,"2020平均斑塊面積_ha":0.54,"2024平均斑塊面積_ha":0.0,"平均斑塊面積下降率_pct":100.0,"道路切割密度_km_per_km2":10.784,"建成區邊界切割密度_km_per_km2":0.0,"孤立小斑塊比例_pct":0.0,"距大型連續綠地平均距離_m":0.0,"score_面積減少":96.6804979253112,"score_斑塊增加":42.531120331950206,"score_平均斑塊縮小":96.6804979253112,"score_道路建成區切割":47.302904564315355,"score_孤立比例":20.539419087136928,"score_距大型綠地":9.95850622406639,"綜合破碎化分數":52.3,"破碎化等級":"中","判定原因":"面積減少100.0%；斑塊增加0.0%；平均斑塊縮小100.0%；道路密度10.78 km/km²；孤立比例0.0%；距大型綠地0m","2021面積_ha":0.54,"2022面積_ha":0.09,"2023面積_ha":0.18}},{"type":"Feature","geometry":{"type":"Polygon","coordinates":[[[121.6027400123102,24.675770029681754],[121.6027834182634,24.68479829665162],[121.61266467318062,24.6847583029826],[121.61262055579375,24.67573005255493],[121.6027400123102,24.675770029681754]]]},"properties":{"grid_id":"G041_029","綠地類型":"公園／都市綠地","中心經度":121.607702,"中心緯度":24.680264,"分析面積_km2":1.04,"2020面積_ha":9.9,"2024面積_ha":9.0,"面積減少率_pct":9.09,"2020斑塊數":2,"2024斑塊數":2,"斑塊數增加率_pct":0.0,"2020平均斑塊面積_ha":11.16,"2024平均斑塊面積_ha":10.89,"平均斑塊面積下降率_pct":2.42,"道路切割密度_km_per_km2":6.373,"建成區邊界切割密度_km_per_km2":1.24,"孤立小斑塊比例_pct":9.0,"距大型連續綠地平均距離_m":45.5,"score_面積減少":69.70954356846472,"score_斑塊增加":42.531120331950206,"score_平均斑塊縮小":57.676348547717836,"score_道路建成區切割":73.85892116182572,"score_孤立比例":48.96265560165975,"score_距大型綠地":22.821576763485478,"綜合破碎化分數":52.6,"破碎化等級":"中","判定原因":"面積減少9.1%；斑塊增加0.0%；平均斑塊縮小2.4%；道路密度6.37 km/km²；孤立比例9.0%；距大型綠地46m","2021面積_ha":8.19,"2022面積_ha":8.19,"2023面積_ha":9.99}},{"type":"Feature","geometry":{"type":"Polygon","coordinates":[[[121.61262055579375,24.67573005255493],[121.61266467318062,24.6847583029826],[121.62254590661297,24.684717659126136],[121.6225010777992,24.675689425509574],[121.61262055579375,24.67573005255493]]]},"properties":{"grid_id":"G041_030","綠地類型":"公園／都市綠地","中心經度":121.617583,"中心緯度":24.680224,"分析面積_km2":1.04,"2020面積_ha":12.6,"2024面積_ha":11.88,"面積減少率_pct":5.71,"2020斑塊數":3,"2024斑塊數":3,"斑塊數增加率_pct":0.0,"2020平均斑塊面積_ha":7.35,"2024平均斑塊面積_ha":7.29,"平均斑塊面積下降率_pct":0.82,"道路切割密度_km_per_km2":3.864,"建成區邊界切割密度_km_per_km2":0.433,"孤立小斑塊比例_pct":7.58,"距大型連續綠地平均距離_m":20.6,"score_面積減少":65.14522821576763,"score_斑塊增加":42.531120331950206,"score_平均斑塊縮小":54.77178423236515,"score_道路建成區切割":55.705394190871374,"score_孤立比例":47.30290456431535,"score_距大型綠地":21.16182572614108,"綜合破碎化分數":47.8,"破碎化等級":"中","判定原因":"面積減少5.7%；斑塊增加0.0%；平均斑塊縮小0.8%；道路密度3.86 km/km²；孤立比例7.6%；距大型綠地21m","2021面積_ha":11.97,"2022面積_ha":10.89,"2023面積_ha":11.43}},{"type":"Feature","geometry":{"type":"Polygon","coordinates":[[[121.73118530325873,24.675199635057105],[121.73123795728861,24.684227666003512],[121.74111890588159,24.68417922036139],[121.74106554051491,24.675151209452906],[121.73118530325873,24.675199635057105]]]},"properties":{"grid_id":"G041_042","綠地類型":"公園／都市綠地","中心經度":121.736152,"中心緯度":24.67969,"分析面積_km2":1.04,"2020面積_ha":0.18,"2024面積_ha":0.18,"面積減少率_pct":0.0,"2020斑塊數":1,"2024斑塊數":1,"斑塊數增加率_pct":0.0,"2020平均斑塊面積_ha":0.18,"2024平均斑塊面積_ha":0.18,"平均斑塊面積下降率_pct":0.0,"道路切割密度_km_per_km2":11.073,"建成區邊界切割密度_km_per_km2":0.058,"孤立小斑塊比例_pct":100.0,"距大型連續綠地平均距離_m":1885.1,"score_面積減少":29.87551867219917,"score_斑塊增加":42.531120331950206,"score_平均斑塊縮小":26.970954356846473,"score_道路建成區切割":62.65560165975104,"score_孤立比例":80.29045643153528,"score_距大型綠地":48.13278008298755,"綜合破碎化分數":48.4,"破碎化等級":"中","判定原因":"面積減少0.0%；斑塊增加0.0%；平均斑塊縮小0.0%；道路密度11.07 km/km²；孤立比例100.0%；距大型綠地1885m","2021面積_ha":0.18,"2022面積_ha":0.0,"2023面積_ha":0.36}},{"type":"Feature","geometry":{"type":"Polygon","coordinates":[[[121.61266467318062,24.6847583029826],[121.61270881205239,24.693786542482215],[121.62259075725807,24.693745881812273],[121.62254590661297,24.684717659126136],[121.61266467318062,24.6847583029826]]]},"properties":{"grid_id":"G042_030","綠地類型":"公園／都市綠地","中心經度":121.617628,"中心緯度":24.689252,"分析面積_km2":1.04,"2020面積_ha":0.63,"2024面積_ha":0.9,"面積減少率_pct":0.0,"2020斑塊數":1,"2024斑塊數":1,"斑塊數增加率_pct":0.0,"2020平均斑塊面積_ha":0.63,"2024平均斑塊面積_ha":0.9,"平均斑塊面積下降率_pct":0.0,"道路切割密度_km_per_km2":6.632,"建成區邊界切割密度_km_per_km2":0.115,"孤立小斑塊比例_pct":100.0,"距大型連續綠地平均距離_m":1033.9,"score_面積減少":29.87551867219917,"score_斑塊增加":42.531120331950206,"score_平均斑塊縮小":26.970954356846473,"score_道路建成區切割":55.49792531120332,"score_孤立比例":80.29045643153528,"score_距大型綠地":38.589211618257266,"綜合破碎化分數":45.6,"破碎化等級":"中","判定原因":"面積減少0.0%；斑塊增加0.0%；平均斑塊縮小0.0%；道路密度6.63 km/km²；孤立比例100.0%；距大型綠地1034m","2021面積_ha":0.72,"2022面積_ha":0.63,"2023面積_ha":0.54}},{"type":"Feature","geometry":{"type":"Polygon","coordinates":[[[121.74111890588159,24.68417922036139],[121.74117229723649,24.69320722030829],[121.75105393151625,24.6931581042491],[121.7509998284864,24.684130124611848],[121.74111890588159,24.68417922036139]]]},"properties":{"grid_id":"G042_043","綠地類型":"公園／都市綠地","中心經度":121.746086,"中心緯度":24.688669,"分析面積_km2":1.04,"2020面積_ha":8.37,"2024面積_ha":6.84,"面積減少率_pct":18.28,"2020斑塊數":2,"2024斑塊數":2,"斑塊數增加率_pct":0.0,"2020平均斑塊面積_ha":13.95,"2024平均斑塊面積_ha":10.71,"平均斑塊面積下降率_pct":23.23,"道路切割密度_km_per_km2":8.737,"建成區邊界切割密度_km_per_km2":0.029,"孤立小斑塊比例_pct":1.32,"距大型連續綠地平均距離_m":6.1,"score_面積減少":74.27385892116183,"score_斑塊增加":42.531120331950206,"score_平均斑塊縮小":68.46473029045643,"score_道路建成區切割":51.76348547717842,"score_孤立比例":42.32365145228216,"score_距大型綠地":20.33195020746888,"綜合破碎化分數":49.9,"破碎化等級":"中","判定原因":"面積減少18.3%；斑塊增加0.0%；平均斑塊縮小23.2%；道路密度8.74 km/km²；孤立比例1.3%；距大型綠地6m","2021面積_ha":6.84,"2022面積_ha":6.84,"2023面積_ha":6.93}},{"type":"Feature","geometry":{"type":"Polygon","coordinates":[[[121.8004040395647,24.683874894493346],[121.80046170084222,24.692902768548745],[121.8103431718676,24.6928497503772],[121.81028479896675,24.68382189824488],[121.8004040395647,24.683874894493346]]]},"properties":{"grid_id":"G042_049","綠地類型":"公園／都市綠地","中心經度":121.805373,"中心緯度":24.688362,"分析面積_km2":1.04,"2020面積_ha":0.18,"2024面積_ha":0.0,"面積減少率_pct":100.0,"2020斑塊數":1,"2024斑塊數":0,"斑塊數增加率_pct":0.0,"2020平均斑塊面積_ha":0.18,"2024平均斑塊面積_ha":0.0,"平均斑塊面積下降率_pct":100.0,"道路切割密度_km_per_km2":11.967,"建成區邊界切割密度_km_per_km2":0.0,"孤立小斑塊比例_pct":0.0,"距大型連續綠地平均距離_m":0.0,"score_面積減少":96.6804979253112,"score_斑塊增加":42.531120331950206,"score_平均斑塊縮小":96.6804979253112,"score_道路建成區切割":50.31120331950208,"score_孤立比例":20.539419087136928,"score_距大型綠地":9.95850622406639,"綜合破碎化分數":52.8,"破碎化等級":"中","判定原因":"面積減少100.0%；斑塊增加0.0%；平均斑塊縮小100.0%；道路密度11.97 km/km²；孤立比例0.0%；距大型綠地0m","2021面積_ha":0.36,"2022面積_ha":0.0,"2023面積_ha":0.0}},{"type":"Feature","geometry":{"type":"Polygon","coordinates":[[[121.60282684535503,24.69382655269574],[121.60287029359178,24.702854797811156],[121.61275297241582,24.70281477105081],[121.61270881205239,24.693786542482215],[121.60282684535503,24.69382655269574]]]},"properties":{"grid_id":"G043_029","綠地類型":"公園／都市綠地","中心經度":121.60779,"中心緯度":24.698321,"分析面積_km2":1.04,"2020面積_ha":0.09,"2024面積_ha":0.0,"面積減少率_pct":100.0,"2020斑塊數":1,"2024斑塊數":0,"斑塊數增加率_pct":0.0,"2020平均斑塊面積_ha":0.09,"2024平均斑塊面積_ha":0.0,"平均斑塊面積下降率_pct":100.0,"道路切割密度_km_per_km2":2.278,"建成區邊界切割密度_km_per_km2":0.0,"孤立小斑塊比例_pct":0.0,"距大型連續綠地平均距離_m":0.0,"score_面積減少":96.6804979253112,"score_斑塊增加":42.531120331950206,"score_平均斑塊縮小":96.6804979253112,"score_道路建成區切割":15.352697095435683,"score_孤立比例":20.539419087136928,"score_距大型綠地":9.95850622406639,"綜合破碎化分數":47.0,"破碎化等級":"中","判定原因":"面積減少100.0%；斑塊增加0.0%；平均斑塊縮小100.0%；道路密度2.28 km/km²；孤立比例0.0%；距大型綠地0m","2021面積_ha":0.0,"2022面積_ha":0.0,"2023面積_ha":0.0}},{"type":"Feature","geometry":{"type":"Polygon","coordinates":[[[121.67200014878219,24.69353282181619],[121.67204858175901,24.702560945455026],[121.68193110281405,24.70251636373803],[121.68188195776042,24.69348825852893],[121.67200014878219,24.69353282181619]]]},"properties":{"grid_id":"G043_036","綠地類型":"公園／都市綠地","中心經度":121.676965,"中心緯度":24.698025,"分析面積_km2":1.04,"2020面積_ha":5.22,"2024面積_ha":5.13,"面積減少率_pct":1.72,"2020斑塊數":2,"2024斑塊數":2,"斑塊數增加率_pct":0.0,"2020平均斑塊面積_ha":5.625,"2024平均斑塊面積_ha":7.56,"平均斑塊面積下降率_pct":0.0,"道路切割密度_km_per_km2":5.046,"建成區邊界切割密度_km_per_km2":0.548,"孤立小斑塊比例_pct":0.0,"距大型連續綠地平均距離_m":3475.0,"score_面積減少":61.41078838174274,"score_斑塊增加":42.531120331950206,"score_平均斑塊縮小":26.970954356846473,"score_道路建成區切割":62.75933609958506,"score_孤立比例":20.539419087136928,"score_距大型綠地":75.51867219917013,"綜合破碎化分數":48.3,"破碎化等級":"中","判定原因":"面積減少1.7%；斑塊增加0.0%；平均斑塊縮小0.0%；道路密度5.05 km/km²；孤立比例0.0%；距大型綠地3475m","2021面積_ha":5.67,"2022面積_ha":4.77,"2023面積_ha":4.41}},{"type":"Feature","geometry":{"type":"Polygon","coordinates":[[[121.68188195776042,24.69348825852893],[121.68193110281405,24.70251636373803],[121.69181359994404,24.70247113133687],[121.69176374282128,24.693443044826477],[121.68188195776042,24.69348825852893]]]},"properties":{"grid_id":"G043_037","綠地類型":"公園／都市綠地","中心經度":121.686848,"中心緯度":24.69798,"分析面積_km2":1.04,"2020面積_ha":7.2,"2024面積_ha":8.28,"面積減少率_pct":0.0,"2020斑塊數":5,"2024斑塊數":4,"斑塊數增加率_pct":0.0,"2020平均斑塊面積_ha":3.582,"2024平均斑塊面積_ha":4.23,"平均斑塊面積下降率_pct":0.0,"道路切割密度_km_per_km2":7.872,"建成區邊界切割密度_km_per_km2":0.836,"孤立小斑塊比例_pct":8.7,"距大型連續綠地平均距離_m":4283.5,"score_面積減少":29.87551867219917,"score_斑塊增加":42.531120331950206,"score_平均斑塊縮小":26.970954356846473,"score_道路建成區切割":77.17842323651452,"score_孤立比例":48.13278008298755,"score_距大型綠地":82.57261410788381,"綜合破碎化分數":51.2,"破碎化等級":"中","判定原因":"面積減少0.0%；斑塊增加0.0%；平均斑塊縮小0.0%；道路密度7.87 km/km²；孤立比例8.7%；距大型綠地4284m","2021面積_ha":9.99,"2022面積_ha":7.11,"2023面積_ha":6.57}},{"type":"Feature","geometry":{"type":"Polygon","coordinates":[[[121.67204858175901,24.702560945455026],[121.67209703831422,24.711589058145183],[121.6819802717926,24.711544457995874],[121.68193110281405,24.70251636373803],[121.67204858175901,24.702560945455026]]]},"properties":{"grid_id":"G044_036","綠地類型":"公園／都市綠地","中心經度":121.677014,"中心緯度":24.707053,"分析面積_km2":1.04,"2020面積_ha":0.18,"2024面積_ha":0.0,"面積減少率_pct":100.0,"2020斑塊數":2,"2024斑塊數":0,"斑塊數增加率_pct":0.0,"2020平均斑塊面積_ha":0.09,"2024平均斑塊面積_ha":0.0,"平均斑塊面積下降率_pct":100.0,"道路切割密度_km_per_km2":3.864,"建成區邊界切割密度_km_per_km2":0.0,"孤立小斑塊比例_pct":0.0,"距大型連續綠地平均距離_m":0.0,"score_面積減少":96.6804979253112,"score_斑塊增加":42.531120331950206,"score_平均斑塊縮小":96.6804979253112,"score_道路建成區切割":20.850622406639005,"score_孤立比例":20.539419087136928,"score_距大型綠地":9.95850622406639,"綜合破碎化分數":47.9,"破碎化等級":"中","判定原因":"面積減少100.0%；斑塊增加0.0%；平均斑塊縮小100.0%；道路密度3.86 km/km²；孤立比例0.0%；距大型綠地0m","2021面積_ha":0.18,"2022面積_ha":0.0,"2023面積_ha":0.0}},{"type":"Feature","geometry":{"type":"Polygon","coordinates":[[[121.76099038083899,24.702136285908782],[121.76104524892267,24.71116422302394],[121.77092825452608,24.71111376452882],[121.77087267409115,24.70208584826697],[121.76099038083899,24.702136285908782]]]},"properties":{"grid_id":"G044_045","綠地類型":"公園／都市綠地","中心經度":121.765959,"中心緯度":24.706625,"分析面積_km2":1.04,"2020面積_ha":0.27,"2024面積_ha":0.18,"面積減少率_pct":33.33,"2020斑塊數":1,"2024斑塊數":1,"斑塊數增加率_pct":0.0,"2020平均斑塊面積_ha":2.61,"2024平均斑塊面積_ha":5.76,"平均斑塊面積下降率_pct":0.0,"道路切割密度_km_per_km2":16.205,"建成區邊界切割密度_km_per_km2":0.058,"孤立小斑塊比例_pct":0.0,"距大型連續綠地平均距離_m":2884.0,"score_面積減少":78.42323651452283,"score_斑塊增加":42.531120331950206,"score_平均斑塊縮小":26.970954356846473,"score_道路建成區切割":71.16182572614107,"score_孤立比例":20.539419087136928,"score_距大型綠地":63.48547717842323,"綜合破碎化分數":50.5,"破碎化等級":"中","判定原因":"面積減少33.3%；斑塊增加0.0%；平均斑塊縮小0.0%；道路密度16.20 km/km²；孤立比例0.0%；距大型綠地2884m","2021面積_ha":0.36,"2022面積_ha":0.18,"2023面積_ha":0.27}},{"type":"Feature","geometry":{"type":"Polygon","coordinates":[[[121.64244719775111,24.711718952812866],[121.64249353953737,24.720747108241746],[121.65237755552519,24.720704443360862],[121.65233050094672,24.71167630555971],[121.64244719775111,24.711718952812866]]]},"properties":{"grid_id":"G045_033","綠地類型":"公園／都市綠地","中心經度":121.647412,"中心緯度":24.716212,"分析面積_km2":1.04,"2020面積_ha":0.09,"2024面積_ha":0.0,"面積減少率_pct":100.0,"2020斑塊數":1,"2024斑塊數":0,"斑塊數增加率_pct":0.0,"2020平均斑塊面積_ha":0.09,"2024平均斑塊面積_ha":0.0,"平均斑塊面積下降率_pct":100.0,"道路切割密度_km_per_km2":2.422,"建成區邊界切割密度_km_per_km2":0.0,"孤立小斑塊比例_pct":0.0,"距大型連續綠地平均距離_m":0.0,"score_面積減少":96.6804979253112,"score_斑塊增加":42.531120331950206,"score_平均斑塊縮小":96.6804979253112,"score_道路建成區切割":15.767634854771783,"score_孤立比例":20.539419087136928,"score_距大型綠地":9.95850622406639,"綜合破碎化分數":47.0,"破碎化等級":"中","判定原因":"面積減少100.0%；斑塊增加0.0%；平均斑塊縮小100.0%；道路密度2.42 km/km²；孤立比例0.0%；距大型綠地0m","2021面積_ha":0.45,"2022面積_ha":0.0,"2023面積_ha":0.09}},{"type":"Feature","geometry":{"type":"Polygon","coordinates":[[[121.70174666660498,24.71145330484398],[121.70179728503349,24.720481350470664],[121.71168115842106,24.720434778238648],[121.71162982724549,24.711406751854007],[121.70174666660498,24.71145330484398]]]},"properties":{"grid_id":"G045_039","綠地類型":"公園／都市綠地","中心經度":121.706714,"中心緯度":24.715944,"分析面積_km2":1.04,"2020面積_ha":0.09,"2024面積_ha":0.0,"面積減少率_pct":100.0,"2020斑塊數":1,"2024斑塊數":0,"斑塊數增加率_pct":0.0,"2020平均斑塊面積_ha":0.09,"2024平均斑塊面積_ha":0.0,"平均斑塊面積下降率_pct":100.0,"道路切割密度_km_per_km2":12.947,"建成區邊界切割密度_km_per_km2":0.0,"孤立小斑塊比例_pct":0.0,"距大型連續綠地平均距離_m":0.0,"score_面積減少":96.6804979253112,"score_斑塊增加":42.531120331950206,"score_平均斑塊縮小":96.6804979253112,"score_道路建成區切割":53.42323651452282,"score_孤立比例":20.539419087136928,"score_距大型綠地":9.95850622406639,"綜合破碎化分數":53.3,"破碎化等級":"中","判定原因":"面積減少100.0%；斑塊增加0.0%；平均斑塊縮小100.0%；道路密度12.95 km/km²；孤立比例0.0%；距大型綠地0m","2021面積_ha":0.36,"2022面積_ha":0.0,"2023面積_ha":0.0}},{"type":"Feature","geometry":{"type":"Polygon","coordinates":[[[121.76104524892267,24.71116422302394],[121.76110014371264,24.720192149162855],[121.77098386201398,24.72014166981151],[121.77092825452608,24.71111376452882],[121.76104524892267,24.71116422302394]]]},"properties":{"grid_id":"G045_045","綠地類型":"公園／都市綠地","中心經度":121.766014,"中心緯度":24.715653,"分析面積_km2":1.04,"2020面積_ha":3.78,"2024面積_ha":4.77,"面積減少率_pct":0.0,"2020斑塊數":4,"2024斑塊數":2,"斑塊數增加率_pct":0.0,"2020平均斑塊面積_ha":1.125,"2024平均斑塊面積_ha":2.97,"平均斑塊面積下降率_pct":0.0,"道路切割密度_km_per_km2":4.758,"建成區邊界切割密度_km_per_km2":0.606,"孤立小斑塊比例_pct":3.77,"距大型連續綠地平均距離_m":3084.4,"score_面積減少":29.87551867219917,"score_斑塊增加":42.531120331950206,"score_平均斑塊縮小":26.970954356846473,"score_道路建成區切割":62.448132780082986,"score_孤立比例":44.398340248962654,"score_距大型綠地":68.87966804979253,"綜合破碎化分數":45.9,"破碎化等級":"中","判定原因":"面積減少0.0%；斑塊增加0.0%；平均斑塊縮小0.0%；道路密度4.76 km/km²；孤立比例3.8%；距大型綠地3084m","2021面積_ha":7.83,"2022面積_ha":6.75,"2023面積_ha":7.47}},{"type":"Feature","geometry":{"type":"Polygon","coordinates":[[[121.83022570790058,24.710797345042227],[121.8302855913923,24.719825119538257],[121.8329740380242,24.71981021314891],[121.83308,24.719549100000002],[121.83326650000001,24.719176899999997],[121.8337725,24.7186072],[121.83407490000002,24.718212799999996],[121.83428809999998,24.7178174],[121.83445420000001,24.717455899999997],[121.8347904,24.716723599999995],[121.83512140000002,24.7161779],[121.83553130000001,24.715547800000003],[121.83570200000001,24.7152855],[121.836568,24.713954299999997],[121.83667029999998,24.713788000000005],[121.8366389,24.713019699999993],[121.8367811,24.71165949999999],[121.83698268886556,24.710759801369747],[121.83022570790058,24.710797345042227]]]},"properties":{"grid_id":"G045_052","綠地類型":"公園／都市綠地","中心經度":121.833193,"中心緯度":24.714636,"分析面積_km2":0.545,"2020面積_ha":1.08,"2024面積_ha":0.9,"面積減少率_pct":16.67,"2020斑塊數":1,"2024斑塊數":1,"斑塊數增加率_pct":0.0,"2020平均斑塊面積_ha":1.62,"2024平均斑塊面積_ha":1.71,"平均斑塊面積下降率_pct":0.0,"道路切割密度_km_per_km2":0.825,"建成區邊界切割密度_km_per_km2":0.22,"孤立小斑塊比例_pct":100.0,"距大型連續綠地平均距離_m":451.0,"score_面積減少":73.85892116182573,"score_斑塊增加":42.531120331950206,"score_平均斑塊縮小":26.970954356846473,"score_道路建成區切割":37.551867219917014,"score_孤立比例":80.29045643153528,"score_距大型綠地":30.29045643153527,"綜合破碎化分數":48.6,"破碎化等級":"中","判定原因":"面積減少16.7%；斑塊增加0.0%；平均斑塊縮小0.0%；道路密度0.82 km/km²；孤立比例100.0%；距大型綠地451m","2021面積_ha":0.9,"2022面積_ha":0.54,"2023面積_ha":0.9}},{"type":"Feature","geometry":{"type":"Polygon","coordinates":[[[121.73144882990741,24.720339680171623],[121.73150161222753,24.729367656294414],[121.74138612270247,24.729319110420587],[121.74133262731254,24.720291154349756],[121.73144882990741,24.720339680171623]]]},"properties":{"grid_id":"G046_042","綠地類型":"公園／都市綠地","中心經度":121.736417,"中心緯度":24.724829,"分析面積_km2":1.04,"2020面積_ha":0.36,"2024面積_ha":0.0,"面積減少率_pct":100.0,"2020斑塊數":1,"2024斑塊數":0,"斑塊數增加率_pct":0.0,"2020平均斑塊面積_ha":0.36,"2024平均斑塊面積_ha":0.0,"平均斑塊面積下降率_pct":100.0,"道路切割密度_km_per_km2":11.851,"建成區邊界切割密度_km_per_km2":0.0,"孤立小斑塊比例_pct":0.0,"距大型連續綠地平均距離_m":0.0,"score_面積減少":96.6804979253112,"score_斑塊增加":42.531120331950206,"score_平均斑塊縮小":96.6804979253112,"score_道路建成區切割":49.585062240663895,"score_孤立比例":20.539419087136928,"score_距大型綠地":9.95850622406639,"綜合破碎化分數":52.7,"破碎化等級":"中","判定原因":"面積減少100.0%；斑塊增加0.0%；平均斑塊縮小100.0%；道路密度11.85 km/km²；孤立比例0.0%；距大型綠地0m","2021面積_ha":0.09,"2022面積_ha":0.0,"2023面積_ha":0.0}},{"type":"Feature","geometry":{"type":"Polygon","coordinates":[[[121.70184792809584,24.729509385134886],[121.70189859579983,24.73853740883367],[121.71178389572209,24.738490798109485],[121.7117325145773,24.72946279365814],[121.70184792809584,24.729509385134886]]]},"properties":{"grid_id":"G047_039","綠地類型":"公園／都市綠地","中心經度":121.706816,"中心緯度":24.734,"分析面積_km2":1.04,"2020面積_ha":0.27,"2024面積_ha":0.0,"面積減少率_pct":100.0,"2020斑塊數":1,"2024斑塊數":0,"斑塊數增加率_pct":0.0,"2020平均斑塊面積_ha":0.27,"2024平均斑塊面積_ha":0.0,"平均斑塊面積下降率_pct":100.0,"道路切割密度_km_per_km2":10.525,"建成區邊界切割密度_km_per_km2":0.0,"孤立小斑塊比例_pct":0.0,"距大型連續綠地平均距離_m":0.0,"score_面積減少":96.6804979253112,"score_斑塊增加":42.531120331950206,"score_平均斑塊縮小":96.6804979253112,"score_道路建成區切割":46.2655601659751,"score_孤立比例":20.539419087136928,"score_距大型綠地":9.95850622406639,"綜合破碎化分數":52.1,"破碎化等級":"中","判定原因":"面積減少100.0%；斑塊增加0.0%；平均斑塊縮小100.0%；道路密度10.53 km/km²；孤立比例0.0%；距大型綠地0m","2021面積_ha":0.0,"2022面積_ha":0.0,"2023面積_ha":0.0}},{"type":"Feature","geometry":{"type":"Polygon","coordinates":[[[121.7117325145773,24.72946279365814],[121.71178389572209,24.738490798109485],[121.72166917064787,24.738443535643935],[121.72161707607016,24.729415550709138],[121.7117325145773,24.72946279365814]]]},"properties":{"grid_id":"G047_040","綠地類型":"公園／都市綠地","中心經度":121.716701,"中心緯度":24.733953,"分析面積_km2":1.04,"2020面積_ha":1.8,"2024面積_ha":1.62,"面積減少率_pct":10.0,"2020斑塊數":1,"2024斑塊數":1,"斑塊數增加率_pct":0.0,"2020平均斑塊面積_ha":8.82,"2024平均斑塊面積_ha":3.78,"平均斑塊面積下降率_pct":57.14,"道路切割密度_km_per_km2":12.313,"建成區邊界切割密度_km_per_km2":0.173,"孤立小斑塊比例_pct":0.0,"距大型連續綠地平均距離_m":347.0,"score_面積減少":70.74688796680498,"score_斑塊增加":42.531120331950206,"score_平均斑塊縮小":82.57261410788381,"score_道路建成區切割":76.55601659751036,"score_孤立比例":20.539419087136928,"score_距大型綠地":29.045643153526974,"綜合破碎化分數":53.7,"破碎化等級":"中","判定原因":"面積減少10.0%；斑塊增加0.0%；平均斑塊縮小57.1%；道路密度12.31 km/km²；孤立比例0.0%；距大型綠地347m","2021面積_ha":1.35,"2022面積_ha":0.72,"2023面積_ha":1.44}},{"type":"Feature","geometry":{"type":"Polygon","coordinates":[[[121.66235715308699,24.738717334189122],[121.66240499021187,24.74774542122844],[121.67229110046799,24.74770139935981],[121.67224254952465,24.73867333049398],[121.66235715308699,24.738717334189122]]]},"properties":{"grid_id":"G048_035","綠地類型":"公園／都市綠地","中心經度":121.667324,"中心緯度":24.743209,"分析面積_km2":1.04,"2020面積_ha":0.54,"2024面積_ha":1.17,"面積減少率_pct":0.0,"2020斑塊數":1,"2024斑塊數":1,"斑塊數增加率_pct":0.0,"2020平均斑塊面積_ha":0.63,"2024平均斑塊面積_ha":1.26,"平均斑塊面積下降率_pct":0.0,"道路切割密度_km_per_km2":0.606,"建成區邊界切割密度_km_per_km2":0.058,"孤立小斑塊比例_pct":100.0,"距大型連續綠地平均距離_m":4163.1,"score_面積減少":29.87551867219917,"score_斑塊增加":42.531120331950206,"score_平均斑塊縮小":26.970954356846473,"score_道路建成區切割":24.585062240663902,"score_孤立比例":80.29045643153528,"score_距大型綠地":81.32780082987551,"綜合破碎化分數":47.6,"破碎化等級":"中","判定原因":"面積減少0.0%；斑塊增加0.0%；平均斑塊縮小0.0%；道路密度0.61 km/km²；孤立比例100.0%；距大型綠地4163m","2021面積_ha":1.08,"2022面積_ha":0.27,"2023面積_ha":0.9}},{"type":"Feature","geometry":{"type":"Polygon","coordinates":[[[121.67224254952465,24.73867333049398],[121.67229110046799,24.74770139935981],[121.6821771871084,24.7476567254554],[121.68212792235404,24.73862867503222],[121.67224254952465,24.73867333049398]]]},"properties":{"grid_id":"G048_036","綠地類型":"公園／都市綠地","中心經度":121.67721,"中心緯度":24.743165,"分析面積_km2":1.04,"2020面積_ha":0.09,"2024面積_ha":0.09,"面積減少率_pct":0.0,"2020斑塊數":1,"2024斑塊數":1,"斑塊數增加率_pct":0.0,"2020平均斑塊面積_ha":0.63,"2024平均斑塊面積_ha":1.26,"平均斑塊面積下降率_pct":0.0,"道路切割密度_km_per_km2":4.354,"建成區邊界切割密度_km_per_km2":0.0,"孤立小斑塊比例_pct":100.0,"距大型連續綠地平均距離_m":4095.9,"score_面積減少":29.87551867219917,"score_斑塊增加":42.531120331950206,"score_平均斑塊縮小":26.970954356846473,"score_道路建成區切割":23.029045643153527,"score_孤立比例":80.29045643153528,"score_距大型綠地":80.91286307053942,"綜合破碎化分數":47.3,"破碎化等級":"中","判定原因":"面積減少0.0%；斑塊增加0.0%；平均斑塊縮小0.0%；道路密度4.35 km/km²；孤立比例100.0%；距大型綠地4096m","2021面積_ha":0.09,"2022面積_ha":0.0,"2023面積_ha":0.09}},{"type":"Feature","geometry":{"type":"Polygon","coordinates":[[[121.71178389572209,24.738490798109485],[121.71183530186339,24.747518791589737],[121.7217212905691,24.747471509604893],[121.72166917064787,24.738443535643935],[121.71178389572209,24.738490798109485]]]},"properties":{"grid_id":"G048_040","綠地類型":"公園／都市綠地","中心經度":121.716752,"中心緯度":24.742981,"分析面積_km2":1.04,"2020面積_ha":15.21,"2024面積_ha":15.03,"面積減少率_pct":1.18,"2020斑塊數":3,"2024斑塊數":3,"斑塊數增加率_pct":0.0,"2020平均斑塊面積_ha":6.72,"2024平均斑塊面積_ha":6.66,"平均斑塊面積下降率_pct":0.89,"道路切割密度_km_per_km2":11.13,"建成區邊界切割密度_km_per_km2":1.298,"孤立小斑塊比例_pct":0.6,"距大型連續綠地平均距離_m":31.2,"score_面積減少":60.16597510373444,"score_斑塊增加":42.531120331950206,"score_平均斑塊縮小":55.18672199170125,"score_道路建成區切割":89.21161825726142,"score_孤立比例":41.49377593360996,"score_距大型綠地":21.991701244813278,"綜合破碎化分數":51.8,"破碎化等級":"中","判定原因":"面積減少1.2%；斑塊增加0.0%；平均斑塊縮小0.9%；道路密度11.13 km/km²；孤立比例0.6%；距大型綠地31m","2021面積_ha":15.66,"2022面積_ha":13.86,"2023面積_ha":15.3}},{"type":"Feature","geometry":{"type":"Polygon","coordinates":[[[121.81063546287689,24.737988846200345],[121.81069400644282,24.747016632376372],[121.82057972601166,24.746962830660788],[121.82052046875108,24.737935066695393],[121.81063546287689,24.737988846200345]]]},"properties":{"grid_id":"G048_050","綠地類型":"公園／都市綠地","中心經度":121.815607,"中心緯度":24.742476,"分析面積_km2":1.04,"2020面積_ha":0.09,"2024面積_ha":0.27,"面積減少率_pct":0.0,"2020斑塊數":1,"2024斑塊數":1,"斑塊數增加率_pct":0.0,"2020平均斑塊面積_ha":0.09,"2024平均斑塊面積_ha":0.54,"平均斑塊面積下降率_pct":0.0,"道路切割密度_km_per_km2":9.17,"建成區邊界切割密度_km_per_km2":0.058,"孤立小斑塊比例_pct":100.0,"距大型連續綠地平均距離_m":2450.1,"score_面積減少":29.87551867219917,"score_斑塊增加":42.531120331950206,"score_平均斑塊縮小":26.970954356846473,"score_道路建成區切割":57.676348547717836,"score_孤立比例":80.29045643153528,"score_距大型綠地":55.18672199170125,"綜合破碎化分數":48.8,"破碎化等級":"中","判定原因":"面積減少0.0%；斑塊增加0.0%；平均斑塊縮小0.0%；道路密度9.17 km/km²；孤立比例100.0%；距大型綠地2450m","2021面積_ha":0.36,"2022面積_ha":0.18,"2023面積_ha":0.63}},{"type":"Feature","geometry":{"type":"Polygon","coordinates":[[[121.70194928815324,24.747565421564055],[121.70200000516392,24.756593423323075],[121.7118867330091,24.756546774095924],[121.71183530186339,24.747518791589737],[121.70194928815324,24.747565421564055]]]},"properties":{"grid_id":"G049_039","綠地類型":"公園／都市綠地","中心經度":121.706918,"中心緯度":24.752056,"分析面積_km2":1.04,"2020面積_ha":5.04,"2024面積_ha":4.5,"面積減少率_pct":10.71,"2020斑塊數":1,"2024斑塊數":1,"斑塊數增加率_pct":0.0,"2020平均斑塊面積_ha":5.04,"2024平均斑塊面積_ha":4.5,"平均斑塊面積下降率_pct":10.71,"道路切割密度_km_per_km2":8.939,"建成區邊界切割密度_km_per_km2":0.49,"孤立小斑塊比例_pct":0.0,"距大型連續綠地平均距離_m":528.2,"score_面積減少":71.36929460580913,"score_斑塊增加":42.531120331950206,"score_平均斑塊縮小":65.14522821576763,"score_道路建成區切割":77.59336099585062,"score_孤立比例":20.539419087136928,"score_距大型綠地":31.950207468879665,"綜合破碎化分數":51.5,"破碎化等級":"中","判定原因":"面積減少10.7%；斑塊增加0.0%；平均斑塊縮小10.7%；道路密度8.94 km/km²；孤立比例0.0%；距大型綠地528m","2021面積_ha":5.31,"2022面積_ha":1.35,"2023面積_ha":4.05}},{"type":"Feature","geometry":{"type":"Polygon","coordinates":[[[121.7217212905691,24.747471509604893],[121.72177343584191,24.75649947258906],[121.73166011331513,24.756451518809023],[121.73160725392324,24.74742357561608],[121.7217212905691,24.747471509604893]]]},"properties":{"grid_id":"G049_041","綠地類型":"公園／都市綠地","中心經度":121.726691,"中心緯度":24.751962,"分析面積_km2":1.04,"2020面積_ha":10.8,"2024面積_ha":8.82,"面積減少率_pct":18.33,"2020斑塊數":6,"2024斑塊數":5,"斑塊數增加率_pct":0.0,"2020平均斑塊面積_ha":2.115,"2024平均斑塊面積_ha":3.546,"平均斑塊面積下降率_pct":0.0,"道路切割密度_km_per_km2":13.005,"建成區邊界切割密度_km_per_km2":1.413,"孤立小斑塊比例_pct":11.22,"距大型連續綠地平均距離_m":850.8,"score_面積減少":74.68879668049793,"score_斑塊增加":42.531120331950206,"score_平均斑塊縮小":26.970954356846473,"score_道路建成區切割":95.02074688796681,"score_孤立比例":49.37759336099585,"score_距大型綠地":34.439834024896264,"綜合破碎化分數":53.8,"破碎化等級":"中","判定原因":"面積減少18.3%；斑塊增加0.0%；平均斑塊縮小0.0%；道路密度13.01 km/km²；孤立比例11.2%；距大型綠地851m","2021面積_ha":11.07,"2022面積_ha":6.12,"2023面積_ha":8.64}},{"type":"Feature","geometry":{"type":"Polygon","coordinates":[[[121.73160725392324,24.74742357561608],[121.73166011331513,24.756451518809023],[121.74154676508145,24.756402912762443],[121.74149319157868,24.747374989629893],[121.73160725392324,24.74742357561608]]]},"properties":{"grid_id":"G049_042","綠地類型":"公園／都市綠地","中心經度":121.736577,"中心緯度":24.751913,"分析面積_km2":1.04,"2020面積_ha":1.26,"2024面積_ha":1.08,"面積減少率_pct":14.29,"2020斑塊數":3,"2024斑塊數":2,"斑塊數增加率_pct":0.0,"2020平均斑塊面積_ha":0.93,"2024平均斑塊面積_ha":2.25,"平均斑塊面積下降率_pct":0.0,"道路切割密度_km_per_km2":20.704,"建成區邊界切割密度_km_per_km2":0.26,"孤立小斑塊比例_pct":25.0,"距大型連續綠地平均距離_m":479.3,"score_面積減少":72.19917012448133,"score_斑塊增加":42.531120331950206,"score_平均斑塊縮小":26.970954356846473,"score_道路建成區切割":86.51452282157678,"score_孤立比例":53.11203319502075,"score_距大型綠地":30.70539419087137,"綜合破碎化分數":52.0,"破碎化等級":"中","判定原因":"面積減少14.3%；斑塊增加0.0%；平均斑塊縮小0.0%；道路密度20.70 km/km²；孤立比例25.0%；距大型綠地479m","2021面積_ha":0.63,"2022面積_ha":0.27,"2023面積_ha":0.63}},{"type":"Feature","geometry":{"type":"Polygon","coordinates":[[[121.7810366782703,24.747174125847327],[121.781093108133,24.756201966046504],[121.79097962615621,24.75615009876985],[121.79092248222503,24.74712227997695],[121.7810366782703,24.747174125847327]]]},"properties":{"grid_id":"G049_047","綠地類型":"公園／都市綠地","中心經度":121.786008,"中心緯度":24.751662,"分析面積_km2":1.04,"2020面積_ha":0.54,"2024面積_ha":0.0,"面積減少率_pct":100.0,"2020斑塊數":1,"2024斑塊數":0,"斑塊數增加率_pct":0.0,"2020平均斑塊面積_ha":0.54,"2024平均斑塊面積_ha":0.0,"平均斑塊面積下降率_pct":100.0,"道路切割密度_km_per_km2":12.284,"建成區邊界切割密度_km_per_km2":0.0,"孤立小斑塊比例_pct":0.0,"距大型連續綠地平均距離_m":0.0,"score_面積減少":96.6804979253112,"score_斑塊增加":42.531120331950206,"score_平均斑塊縮小":96.6804979253112,"score_道路建成區切割":51.6597510373444,"score_孤立比例":20.539419087136928,"score_距大型綠地":9.95850622406639,"綜合破碎化分數":53.0,"破碎化等級":"中","判定原因":"面積減少100.0%；斑塊增加0.0%；平均斑塊縮小100.0%；道路密度12.28 km/km²；孤立比例0.0%；距大型綠地0m","2021面積_ha":0.45,"2022面積_ha":0.18,"2023面積_ha":0.09}},{"type":"Feature","geometry":{"type":"Polygon","coordinates":[[[121.72177343584191,24.75649947258906],[121.72182560647433,24.765527424593447],[121.73171299841385,24.765479451019413],[121.73166011331513,24.756451518809023],[121.72177343584191,24.75649947258906]]]},"properties":{"grid_id":"G050_041","綠地類型":"公園／都市綠地","中心經度":121.726743,"中心緯度":24.76099,"分析面積_km2":1.04,"2020面積_ha":0.18,"2024面積_ha":0.99,"面積減少率_pct":0.0,"2020斑塊數":1,"2024斑塊數":2,"斑塊數增加率_pct":100.0,"2020平均斑塊面積_ha":2.61,"2024平均斑塊面積_ha":2.97,"平均斑塊面積下降率_pct":0.0,"道路切割密度_km_per_km2":12.659,"建成區邊界切割密度_km_per_km2":0.144,"孤立小斑塊比例_pct":0.0,"距大型連續綠地平均距離_m":389.2,"score_面積減少":29.87551867219917,"score_斑塊增加":95.0207468879668,"score_平均斑塊縮小":26.970954356846473,"score_道路建成區切割":75.8298755186722,"score_孤立比例":20.539419087136928,"score_距大型綠地":29.87551867219917,"綜合破碎化分數":46.4,"破碎化等級":"中","判定原因":"面積減少0.0%；斑塊增加100.0%；平均斑塊縮小0.0%；道路密度12.66 km/km²；孤立比例0.0%；距大型綠地389m","2021面積_ha":0.45,"2022面積_ha":0.0,"2023面積_ha":0.63}},{"type":"Feature","geometry":{"type":"Polygon","coordinates":[[[121.75148770480047,24.76538154627078],[121.75154204521705,24.77440942709433],[121.76143007375828,24.774359475328726],[121.76137501855281,24.765331615109726],[121.75148770480047,24.76538154627078]]]},"properties":{"grid_id":"G051_044","綠地類型":"公園／都市綠地","中心經度":121.756459,"中心緯度":24.769871,"分析面積_km2":1.04,"2020面積_ha":3.78,"2024面積_ha":4.23,"面積減少率_pct":0.0,"2020斑塊數":4,"2024斑塊數":4,"斑塊數增加率_pct":0.0,"2020平均斑塊面積_ha":7.47,"2024平均斑塊面積_ha":12.195,"平均斑塊面積下降率_pct":0.0,"道路切割密度_km_per_km2":15.052,"建成區邊界切割密度_km_per_km2":0.49,"孤立小斑塊比例_pct":8.51,"距大型連續綠地平均距離_m":134.7,"score_面積減少":29.87551867219917,"score_斑塊增加":42.531120331950206,"score_平均斑塊縮小":26.970954356846473,"score_道路建成區切割":91.49377593360995,"score_孤立比例":47.71784232365145,"score_距大型綠地":25.311203319502074,"綜合破碎化分數":44.0,"破碎化等級":"中","判定原因":"面積減少0.0%；斑塊增加0.0%；平均斑塊縮小0.0%；道路密度15.05 km/km²；孤立比例8.5%；距大型綠地135m","2021面積_ha":2.88,"2022面積_ha":2.79,"2023面積_ha":3.69}},{"type":"Feature","geometry":{"type":"Polygon","coordinates":[[[121.75154204521705,24.77440942709433],[121.75159641205175,24.78343729692372],[121.76148515572932,24.78338732455068],[121.76143007375828,24.774359475328726],[121.75154204521705,24.77440942709433]]]},"properties":{"grid_id":"G052_044","綠地類型":"公園／都市綠地","中心經度":121.756513,"中心緯度":24.778898,"分析面積_km2":1.04,"2020面積_ha":0.09,"2024面積_ha":0.09,"面積減少率_pct":0.0,"2020斑塊數":1,"2024斑塊數":1,"斑塊數增加率_pct":0.0,"2020平均斑塊面積_ha":0.09,"2024平均斑塊面積_ha":0.09,"平均斑塊面積下降率_pct":0.0,"道路切割密度_km_per_km2":11.621,"建成區邊界切割密度_km_per_km2":0.029,"孤立小斑塊比例_pct":100.0,"距大型連續綠地平均距離_m":1560.0,"score_面積減少":29.87551867219917,"score_斑塊增加":42.531120331950206,"score_平均斑塊縮小":26.970954356846473,"score_道路建成區切割":59.64730290456431,"score_孤立比例":80.29045643153528,"score_距大型綠地":43.983402489626556,"綜合破碎化分數":47.2,"破碎化等級":"中","判定原因":"面積減少0.0%；斑塊增加0.0%；平均斑塊縮小0.0%；道路密度11.62 km/km²；孤立比例100.0%；距大型綠地1560m","2021面積_ha":0.09,"2022面積_ha":0.18,"2023面積_ha":0.18}},{"type":"Feature","geometry":{"type":"Polygon","coordinates":[[[121.76143007375828,24.774359475328726],[121.76148515572932,24.78338732455068],[121.77137387263278,24.78333669912379],[121.77131807553388,24.77430887077856],[121.76143007375828,24.774359475328726]]]},"properties":{"grid_id":"G052_045","綠地類型":"公園／都市綠地","中心經度":121.766402,"中心緯度":24.778848,"分析面積_km2":1.04,"2020面積_ha":0.09,"2024面積_ha":0.0,"面積減少率_pct":100.0,"2020斑塊數":1,"2024斑塊數":0,"斑塊數增加率_pct":0.0,"2020平均斑塊面積_ha":0.09,"2024平均斑塊面積_ha":0.0,"平均斑塊面積下降率_pct":100.0,"道路切割密度_km_per_km2":10.698,"建成區邊界切割密度_km_per_km2":0.0,"孤立小斑塊比例_pct":0.0,"距大型連續綠地平均距離_m":0.0,"score_面積減少":96.6804979253112,"score_斑塊增加":42.531120331950206,"score_平均斑塊縮小":96.6804979253112,"score_道路建成區切割":47.095435684647306,"score_孤立比例":20.539419087136928,"score_距大型綠地":9.95850622406639,"綜合破碎化分數":52.2,"破碎化等級":"中","判定原因":"面積減少100.0%；斑塊增加0.0%；平均斑塊縮小100.0%；道路密度10.70 km/km²；孤立比例0.0%；距大型綠地0m","2021面積_ha":0.0,"2022面積_ha":0.0,"2023面積_ha":0.09}},{"type":"Feature","geometry":{"type":"Polygon","coordinates":[[[121.81086980803114,24.774099924873582],[121.81092846555424,24.783127667019095],[121.81788706912684,24.78308981224442],[121.8176678,24.779026699999996],[121.8177463,24.777891199999996],[121.8178294,24.7766884],[121.8179089,24.775536899999995],[121.81798809999998,24.774390599999993],[121.8180108497577,24.774061086485467],[121.81086980803114,24.774099924873582]]]},"properties":{"grid_id":"G052_050","綠地類型":"公園／都市綠地","中心經度":121.814303,"中心緯度":24.778478,"分析面積_km2":0.737,"2020面積_ha":8.46,"2024面積_ha":7.74,"面積減少率_pct":8.51,"2020斑塊數":1,"2024斑塊數":1,"斑塊數增加率_pct":0.0,"2020平均斑塊面積_ha":14.04,"2024平均斑塊面積_ha":13.59,"平均斑塊面積下降率_pct":3.21,"道路切割密度_km_per_km2":7.733,"建成區邊界切割密度_km_per_km2":0.611,"孤立小斑塊比例_pct":0.0,"距大型連續綠地平均距離_m":0.0,"score_面積減少":69.29460580912863,"score_斑塊增加":42.531120331950206,"score_平均斑塊縮小":59.128630705394194,"score_道路建成區切割":75.51867219917013,"score_孤立比例":20.539419087136928,"score_距大型綠地":9.95850622406639,"綜合破碎化分數":46.2,"破碎化等級":"中","判定原因":"面積減少8.5%；斑塊增加0.0%；平均斑塊縮小3.2%；道路密度7.73 km/km²；孤立比例0.0%；距大型綠地0m","2021面積_ha":8.37,"2022面積_ha":8.64,"2023面積_ha":8.82}},{"type":"Feature","geometry":{"type":"Polygon","coordinates":[[[121.71219584542061,24.810714438511702],[121.7122474518196,24.81974234411647],[121.72213916327179,24.81969490587858],[121.72208684031251,24.810667019815057],[121.71219584542061,24.810714438511702]]]},"properties":{"grid_id":"G056_040","綠地類型":"公園／都市綠地","中心經度":121.717167,"中心緯度":24.815205,"分析面積_km2":1.04,"2020面積_ha":0.09,"2024面積_ha":0.09,"面積減少率_pct":0.0,"2020斑塊數":1,"2024斑塊數":1,"斑塊數增加率_pct":0.0,"2020平均斑塊面積_ha":0.09,"2024平均斑塊面積_ha":0.09,"平均斑塊面積下降率_pct":0.0,"道路切割密度_km_per_km2":3.72,"建成區邊界切割密度_km_per_km2":0.029,"孤立小斑塊比例_pct":100.0,"距大型連續綠地平均距離_m":6302.9,"score_面積減少":29.87551867219917,"score_斑塊增加":42.531120331950206,"score_平均斑塊縮小":26.970954356846473,"score_道路建成區切割":30.186721991701248,"score_孤立比例":80.29045643153528,"score_距大型綠地":91.70124481327801,"綜合破碎化分數":50.3,"破碎化等級":"中","判定原因":"面積減少0.0%；斑塊增加0.0%；平均斑塊縮小0.0%；道路密度3.72 km/km²；孤立比例100.0%；距大型綠地6303m","2021面積_ha":0.09,"2022面積_ha":0.0,"2023面積_ha":0.09}},{"type":"Feature","geometry":{"type":"Polygon","coordinates":[[[121.72208684031251,24.810667019815057],[121.72213916327179,24.81969490587858],[121.73203084930792,24.81964681348214],[121.73197780979643,24.81061894722932],[121.72208684031251,24.810667019815057]]]},"properties":{"grid_id":"G056_041","綠地類型":"公園／都市綠地","中心經度":121.727059,"中心緯度":24.815157,"分析面積_km2":1.04,"2020面積_ha":3.06,"2024面積_ha":5.85,"面積減少率_pct":0.0,"2020斑塊數":10,"2024斑塊數":10,"斑塊數增加率_pct":0.0,"2020平均斑塊面積_ha":0.324,"2024平均斑塊面積_ha":0.612,"平均斑塊面積下降率_pct":0.0,"道路切割密度_km_per_km2":6.574,"建成區邊界切割密度_km_per_km2":1.182,"孤立小斑塊比例_pct":30.77,"距大型連續綠地平均距離_m":5917.5,"score_面積減少":29.87551867219917,"score_斑塊增加":42.531120331950206,"score_平均斑塊縮小":26.970954356846473,"score_道路建成區切割":74.27385892116182,"score_孤立比例":55.18672199170125,"score_距大型綠地":90.45643153526972,"綜合破碎化分數":53.2,"破碎化等級":"中","判定原因":"面積減少0.0%；斑塊增加0.0%；平均斑塊縮小0.0%；道路密度6.57 km/km²；孤立比例30.8%；距大型綠地5918m","2021面積_ha":4.32,"2022面積_ha":3.06,"2023面積_ha":4.23}},{"type":"Feature","geometry":{"type":"Polygon","coordinates":[[[121.73197780979643,24.81061894722932],[121.73203084930792,24.81964681348214],[121.74192250957995,24.81959806693381],[121.74186875352446,24.81057022076114],[121.73197780979643,24.81061894722932]]]},"properties":{"grid_id":"G056_042","綠地類型":"公園／都市綠地","中心經度":121.73695,"中心緯度":24.815109,"分析面積_km2":1.04,"2020面積_ha":0.18,"2024面積_ha":0.27,"面積減少率_pct":0.0,"2020斑塊數":1,"2024斑塊數":1,"斑塊數增加率_pct":0.0,"2020平均斑塊面積_ha":0.54,"2024平均斑塊面積_ha":0.63,"平均斑塊面積下降率_pct":0.0,"道路切割密度_km_per_km2":8.593,"建成區邊界切割密度_km_per_km2":0.029,"孤立小斑塊比例_pct":100.0,"距大型連續綠地平均距離_m":6095.5,"score_面積減少":29.87551867219917,"score_斑塊增加":42.531120331950206,"score_平均斑塊縮小":26.970954356846473,"score_道路建成區切割":50.933609958506224,"score_孤立比例":80.29045643153528,"score_距大型綠地":90.87136929460581,"綜合破碎化分數":53.6,"破碎化等級":"中","判定原因":"面積減少0.0%；斑塊增加0.0%；平均斑塊縮小0.0%；道路密度8.59 km/km²；孤立比例100.0%；距大型綠地6096m","2021面積_ha":0.27,"2022面積_ha":0.18,"2023面積_ha":0.27}},{"type":"Feature","geometry":{"type":"Polygon","coordinates":[[[121.73203084930792,24.81964681348214],[121.73208391458348,24.828674668731665],[121.74197629174759,24.828625902100356],[121.74192250957995,24.81959806693381],[121.73203084930792,24.81964681348214]]]},"properties":{"grid_id":"G057_042","綠地類型":"公園／都市綠地","中心經度":121.737003,"中心緯度":24.824136,"分析面積_km2":1.04,"2020面積_ha":0.99,"2024面積_ha":0.99,"面積減少率_pct":0.0,"2020斑塊數":2,"2024斑塊數":2,"斑塊數增加率_pct":0.0,"2020平均斑塊面積_ha":0.495,"2024平均斑塊面積_ha":0.495,"平均斑塊面積下降率_pct":0.0,"道路切割密度_km_per_km2":8.391,"建成區邊界切割密度_km_per_km2":0.0,"孤立小斑塊比例_pct":100.0,"距大型連續綠地平均距離_m":6886.3,"score_面積減少":29.87551867219917,"score_斑塊增加":42.531120331950206,"score_平均斑塊縮小":26.970954356846473,"score_道路建成區切割":39.626556016597505,"score_孤立比例":80.29045643153528,"score_距大型綠地":93.3609958506224,"綜合破碎化分數":52.1,"破碎化等級":"中","判定原因":"面積減少0.0%；斑塊增加0.0%；平均斑塊縮小0.0%；道路密度8.39 km/km²；孤立比例100.0%；距大型綠地6886m","2021面積_ha":0.99,"2022面積_ha":0.99,"2023面積_ha":0.9}},{"type":"Feature","geometry":{"type":"Polygon","coordinates":[[[121.74192250957995,24.81959806693381],[121.74197629174759,24.828625902100356],[121.75186864279127,24.828576481054416],[121.75181414373988,24.81954866624033],[121.74192250957995,24.81959806693381]]]},"properties":{"grid_id":"G057_043","綠地類型":"公園／都市綠地","中心經度":121.746895,"中心緯度":24.824087,"分析面積_km2":1.04,"2020面積_ha":0.09,"2024面積_ha":0.09,"面積減少率_pct":0.0,"2020斑塊數":1,"2024斑塊數":1,"斑塊數增加率_pct":0.0,"2020平均斑塊面積_ha":2.25,"2024平均斑塊面積_ha":2.16,"平均斑塊面積下降率_pct":4.0,"道路切割密度_km_per_km2":4.585,"建成區邊界切割密度_km_per_km2":0.0,"孤立小斑塊比例_pct":0.0,"距大型連續綠地平均距離_m":6842.4,"score_面積減少":29.87551867219917,"score_斑塊增加":42.531120331950206,"score_平均斑塊縮小":60.788381742738586,"score_道路建成區切割":24.273858921161825,"score_孤立比例":20.539419087136928,"score_距大型綠地":92.9460580912863,"綜合破碎化分數":45.2,"破碎化等級":"中","判定原因":"面積減少0.0%；斑塊增加0.0%；平均斑塊縮小4.0%；道路密度4.58 km/km²；孤立比例0.0%；距大型綠地6842m","2021面積_ha":0.09,"2022面積_ha":0.09,"2023面積_ha":0.09}},{"type":"Feature","geometry":{"type":"Polygon","coordinates":[[[121.75181414373988,24.81954866624033],[121.75186864279127,24.828576481054416],[121.76176096736638,24.82852640560069],[121.76170575143969,24.819498611408545],[121.75181414373988,24.81954866624033]]]},"properties":{"grid_id":"G057_044","綠地類型":"公園／都市綠地","中心經度":121.756787,"中心緯度":24.824038,"分析面積_km2":1.04,"2020面積_ha":0.54,"2024面積_ha":0.54,"面積減少率_pct":0.0,"2020斑塊數":1,"2024斑塊數":1,"斑塊數增加率_pct":0.0,"2020平均斑塊面積_ha":2.25,"2024平均斑塊面積_ha":2.16,"平均斑塊面積下降率_pct":4.0,"道路切割密度_km_per_km2":11.044,"建成區邊界切割密度_km_per_km2":0.0,"孤立小斑塊比例_pct":0.0,"距大型連續綠地平均距離_m":6841.0,"score_面積減少":29.87551867219917,"score_斑塊增加":42.531120331950206,"score_平均斑塊縮小":60.788381742738586,"score_道路建成區切割":47.71784232365145,"score_孤立比例":20.539419087136928,"score_距大型綠地":92.5311203319502,"綜合破碎化分數":49.0,"破碎化等級":"中","判定原因":"面積減少0.0%；斑塊增加0.0%；平均斑塊縮小4.0%；道路密度11.04 km/km²；孤立比例0.0%；距大型綠地6841m","2021面積_ha":0.54,"2022面積_ha":0.54,"2023面積_ha":0.63}},{"type":"Feature","geometry":{"type":"Polygon","coordinates":[[[121.78148888606682,24.81939653935783],[121.78154553571846,24.82842429149766],[121.79143777879918,24.828372252862508],[121.79138041229812,24.819344522153035],[121.78148888606682,24.81939653935783]]]},"properties":{"grid_id":"G057_047","綠地類型":"公園／都市綠地","中心經度":121.786463,"中心緯度":24.823884,"分析面積_km2":1.04,"2020面積_ha":0.54,"2024面積_ha":0.0,"面積減少率_pct":100.0,"2020斑塊數":3,"2024斑塊數":0,"斑塊數增加率_pct":0.0,"2020平均斑塊面積_ha":0.18,"2024平均斑塊面積_ha":0.0,"平均斑塊面積下降率_pct":100.0,"道路切割密度_km_per_km2":13.581,"建成區邊界切割密度_km_per_km2":0.0,"孤立小斑塊比例_pct":0.0,"距大型連續綠地平均距離_m":0.0,"score_面積減少":96.6804979253112,"score_斑塊增加":42.531120331950206,"score_平均斑塊縮小":96.6804979253112,"score_道路建成區切割":54.77178423236514,"score_孤立比例":20.539419087136928,"score_距大型綠地":9.95850622406639,"綜合破碎化分數":53.5,"破碎化等級":"中","判定原因":"面積減少100.0%；斑塊增加0.0%；平均斑塊縮小100.0%；道路密度13.58 km/km²；孤立比例0.0%；距大型綠地0m","2021面積_ha":0.18,"2022面積_ha":0.09,"2023面積_ha":0.0}},{"type":"Feature","geometry":{"type":"Polygon","coordinates":[[[121.75186864279127,24.828576481054416],[121.75192316831117,24.83760428485655],[121.76181621010974,24.83755418877797],[121.76176096736638,24.82852640560069],[121.75186864279127,24.828576481054416]]]},"properties":{"grid_id":"G058_044","綠地類型":"公園／都市綠地","中心經度":121.756842,"中心緯度":24.833065,"分析面積_km2":1.04,"2020面積_ha":1.89,"2024面積_ha":1.98,"面積減少率_pct":0.0,"2020斑塊數":2,"2024斑塊數":2,"斑塊數增加率_pct":0.0,"2020平均斑塊面積_ha":1.305,"2024平均斑塊面積_ha":1.35,"平均斑塊面積下降率_pct":0.0,"道路切割密度_km_per_km2":6.978,"建成區邊界切割密度_km_per_km2":0.346,"孤立小斑塊比例_pct":27.27,"距大型連續綠地平均距離_m":6916.0,"score_面積減少":29.87551867219917,"score_斑塊增加":42.531120331950206,"score_平均斑塊縮小":26.970954356846473,"score_道路建成區切割":67.5311203319502,"score_孤立比例":54.356846473029044,"score_距大型綠地":93.7759336099585,"綜合破碎化分數":52.5,"破碎化等級":"中","判定原因":"面積減少0.0%；斑塊增加0.0%；平均斑塊縮小0.0%；道路密度6.98 km/km²；孤立比例27.3%；距大型綠地6916m","2021面積_ha":1.71,"2022面積_ha":1.17,"2023面積_ha":1.89}},{"type":"Feature","geometry":{"type":"Polygon","coordinates":[[[121.81128100975985,24.8372938884713],[121.81133986705665,24.846321553448774],[121.82123346019937,24.846267507210108],[121.82117388538379,24.837239864477652],[121.81128100975985,24.8372938884713]]]},"properties":{"grid_id":"G059_050","綠地類型":"公園／都市綠地","中心經度":121.816257,"中心緯度":24.841781,"分析面積_km2":1.04,"2020面積_ha":0.09,"2024面積_ha":0.09,"面積減少率_pct":0.0,"2020斑塊數":1,"2024斑塊數":1,"斑塊數增加率_pct":0.0,"2020平均斑塊面積_ha":0.09,"2024平均斑塊面積_ha":0.09,"平均斑塊面積下降率_pct":0.0,"道路切割密度_km_per_km2":7.814,"建成區邊界切割密度_km_per_km2":0.029,"孤立小斑塊比例_pct":100.0,"距大型連續綠地平均距離_m":4551.5,"score_面積減少":29.87551867219917,"score_斑塊增加":42.531120331950206,"score_平均斑塊縮小":26.970954356846473,"score_道路建成區切割":48.23651452282158,"score_孤立比例":80.29045643153528,"score_距大型綠地":84.64730290456431,"綜合破碎化分數":52.1,"破碎化等級":"中","判定原因":"面積減少0.0%；斑塊增加0.0%；平均斑塊縮小0.0%；道路密度7.81 km/km²；孤立比例100.0%；距大型綠地4552m","2021面積_ha":0.09,"2022面積_ha":0.09,"2023面積_ha":0.09}},{"type":"Feature","geometry":{"type":"Polygon","coordinates":[[[121.73219012245967,24.84673034620899],[121.72229628467828,24.846778498054277],[121.72231509615692,24.850018452523862],[121.7227268,24.8501314],[121.7231033,24.850271799999994],[121.7234369,24.850456700000002],[121.72379980000001,24.8505293],[121.7241315,24.850581099999996],[121.7244028,24.8505839],[121.72485550000002,24.850648299999996],[121.7249788,24.850674299999998],[121.7251963,24.850775899999995],[121.7253793,24.850972599999995],[121.7254658,24.851078099999995],[121.72558,24.8511958],[121.7262767,24.851700599999997],[121.72647359999999,24.851958699999997],[121.726727,24.8524682],[121.7268003,24.852609199999996],[121.72691049999999,24.8527964],[121.7270464,24.853016799999995],[121.72716670000001,24.853146400000004],[121.72731709999998,24.853250099999997],[121.72741999999998,24.8532936],[121.7274621,24.8533268],[121.72756699999998,24.853382199999995],[121.727691,24.853464499999998],[121.72778980000001,24.8535338],[121.728081,24.8537488],[121.7282314,24.8538357],[121.72835629999999,24.8538954],[121.7284545,24.853934699999996],[121.728699,24.854070299999993],[121.72883360000002,24.8541367],[121.72892009999998,24.854165399999996],[121.7290174,24.854201899999996],[121.7291887,24.8542657],[121.7293979,24.854375],[121.7294961,24.854447299999993],[121.72968840000001,24.8545883],[121.7297235,24.854620399999998],[121.7299061,24.854804099999992],[121.7299594,24.854899999999997],[121.72998930000001,24.854915900000005],[121.73010300000001,24.8550209],[121.73014290000002,24.855069200000003],[121.73021460000001,24.855117299999996],[121.7304372,24.855251399999997],[121.7305259,24.855297699999998],[121.73064030000002,24.8553308],[121.7307341,24.8553496],[121.7308752,24.8553583],[121.731048,24.8553547],[121.73162110000001,24.8555371],[121.7319516,24.8555479],[121.7321325,24.855541799999997],[121.73224206299818,24.855554008912236],[121.73219012245967,24.84673034620899]]]},"properties":{"grid_id":"G060_041","綠地類型":"公園／都市綠地","中心經度":121.728869,"中心緯度":24.851121,"分析面積_km2":0.689,"2020面積_ha":0.36,"2024面積_ha":0.36,"面積減少率_pct":0.0,"2020斑塊數":1,"2024斑塊數":1,"斑塊數增加率_pct":0.0,"2020平均斑塊面積_ha":0.36,"2024平均斑塊面積_ha":0.36,"平均斑塊面積下降率_pct":0.0,"道路切割密度_km_per_km2":0.261,"建成區邊界切割密度_km_per_km2":0.0,"孤立小斑塊比例_pct":100.0,"距大型連續綠地平均距離_m":10039.5,"score_面積減少":29.87551867219917,"score_斑塊增加":42.531120331950206,"score_平均斑塊縮小":26.970954356846473,"score_道路建成區切割":9.33609958506224,"score_孤立比例":80.29045643153528,"score_距大型綠地":96.6804979253112,"綜合破碎化分數":47.6,"破碎化等級":"中","判定原因":"面積減少0.0%；斑塊增加0.0%；平均斑塊縮小0.0%；道路密度0.26 km/km²；孤立比例100.0%；距大型綠地10040m","2021面積_ha":0.36,"2022面積_ha":0.36,"2023面積_ha":0.36}},{"type":"Feature","geometry":{"type":"Polygon","coordinates":[[[121.78171564978597,24.8555074817806],[121.78177240954184,24.864535189819502],[121.79166752350244,24.864483065432687],[121.79161004550403,24.85545537883623],[121.78171564978597,24.8555074817806]]]},"properties":{"grid_id":"G061_047","綠地類型":"公園／都市綠地","中心經度":121.786691,"中心緯度":24.859995,"分析面積_km2":1.04,"2020面積_ha":0.63,"2024面積_ha":0.63,"面積減少率_pct":0.0,"2020斑塊數":1,"2024斑塊數":1,"斑塊數增加率_pct":0.0,"2020平均斑塊面積_ha":0.63,"2024平均斑塊面積_ha":0.63,"平均斑塊面積下降率_pct":0.0,"道路切割密度_km_per_km2":7.151,"建成區邊界切割密度_km_per_km2":0.0,"孤立小斑塊比例_pct":100.0,"距大型連續綠地平均距離_m":5394.4,"score_面積減少":29.87551867219917,"score_斑塊增加":42.531120331950206,"score_平均斑塊縮小":26.970954356846473,"score_道路建成區切割":36.51452282157676,"score_孤立比例":80.29045643153528,"score_距大型綠地":87.96680497925311,"綜合破碎化分數":50.7,"破碎化等級":"中","判定原因":"面積減少0.0%；斑塊增加0.0%；平均斑塊縮小0.0%；道路密度7.15 km/km²；孤立比例100.0%；距大型綠地5394m","2021面積_ha":0.63,"2022面積_ha":0.63,"2023面積_ha":0.63}},{"type":"Feature","geometry":{"type":"Polygon","coordinates":[[[121.78177240954184,24.864535189819502],[121.77187726803325,24.864586658741327],[121.77187963642147,24.864968085828348],[121.7719098,24.864977200000002],[121.77200810000001,24.865005],[121.7724964,24.865082799999996],[121.77271760000001,24.865074500000002],[121.77303680000001,24.865118999999996],[121.77336740000001,24.865117599999994],[121.77350639999999,24.8650539],[121.7737069,24.864933999999995],[121.7738233,24.8648931],[121.7739146,24.864903699999996],[121.7739776,24.864963999999997],[121.7740367,24.8650943],[121.774109,24.865157500000002],[121.77419789999999,24.865188399999997],[121.77432000000002,24.865170999999997],[121.7743973,24.865127899999997],[121.77452970000002,24.865013399999995],[121.7746046,24.864974999999998],[121.7746512,24.864965400000006],[121.774811,24.864950499999996],[121.7749439,24.864951],[121.77509440000001,24.8649987],[121.7751746,24.8650351],[121.775427,24.865082999999995],[121.7754823,24.8651229],[121.7756067,24.8654257],[121.7757273,24.8657037],[121.7757354,24.8659537],[121.77568879999998,24.86604549999999],[121.7756278,24.866109199999993],[121.77556000000001,24.8661629],[121.7753357,24.86638],[121.7751944,24.866611],[121.77518740000001,24.86667299999999],[121.7751947,24.866717499999996],[121.7752334,24.8668067],[121.77534,24.866941399999998],[121.7754743,24.867082999999994],[121.77555619999998,24.867145099999995],[121.77568159999998,24.8673062],[121.7757483,24.8673906],[121.77580510000001,24.867474699999995],[121.7758491,24.867607200000002],[121.77609040000002,24.868072400000003],[121.7761324,24.8681338],[121.7763877,24.8686634],[121.7764576,24.8687992],[121.7766174,24.868990200000002],[121.7767148,24.8690334],[121.7768035,24.869079700000004],[121.7768615,24.869117699999997],[121.7769307,24.8691824],[121.77696410000001,24.869273699999994],[121.7770238,24.869341600000006],[121.7771671,24.869493999999996],[121.7772393,24.869592],[121.7772979,24.869710599999998],[121.777341,24.8699544],[121.7773566,24.870101],[121.77731189999999,24.870299499999998],[121.7772857,24.8704076],[121.7772904,24.8706679],[121.7773315,24.870766299999993],[121.7773943,24.8708199],[121.77763200000001,24.870892300000005],[121.7778644,24.870960999999994],[121.7780669,24.871023299999997],[121.77820470000002,24.871061299999994],[121.7783009,24.871104499999998],[121.7783705,24.871124],[121.7786141,24.8711904],[121.7787809,24.871264399999998],[121.7789469,24.87132],[121.77914740000001,24.871410199999996],[121.77938540000001,24.871537200000002],[121.7797599,24.8717452],[121.780011,24.8718473],[121.78026170000001,24.8719754],[121.78059290000002,24.8721889],[121.78068869999998,24.8722304],[121.7809048,24.872359099999997],[121.7810254,24.8724932],[121.78113990000001,24.8726417],[121.7812213,24.872708199999998],[121.78133849999999,24.872780899999995],[121.78148010000001,24.872849499999997],[121.78150710000001,24.872860399999997],[121.78182545124038,24.872967568726672],[121.78177240954184,24.864535189819502]]]},"properties":{"grid_id":"G062_046","綠地類型":"公園／都市綠地","中心經度":121.779111,"中心緯度":24.868717,"分析面積_km2":0.468,"2020面積_ha":0.36,"2024面積_ha":0.36,"面積減少率_pct":0.0,"2020斑塊數":1,"2024斑塊數":1,"斑塊數增加率_pct":0.0,"2020平均斑塊面積_ha":0.36,"2024平均斑塊面積_ha":0.36,"平均斑塊面積下降率_pct":0.0,"道路切割密度_km_per_km2":9.872,"建成區邊界切割密度_km_per_km2":0.0,"孤立小斑塊比例_pct":100.0,"距大型連續綠地平均距離_m":6343.2,"score_面積減少":29.87551867219917,"score_斑塊增加":42.531120331950206,"score_平均斑塊縮小":26.970954356846473,"score_道路建成區切割":44.190871369294605,"score_孤立比例":80.29045643153528,"score_距大型綠地":92.11618257261411,"綜合破碎化分數":52.7,"破碎化等級":"中","判定原因":"面積減少0.0%；斑塊增加0.0%；平均斑塊縮小0.0%；道路密度9.87 km/km²；孤立比例100.0%；距大型綠地6343m","2021面積_ha":0.36,"2022面積_ha":0.36,"2023面積_ha":0.36}},{"type":"Feature","geometry":{"type":"Polygon","coordinates":[[[121.8711439801497,24.909179835260026],[121.87120738801448,24.91820727419881],[121.88110655463313,24.918149107678683],[121.88108062784617,24.914499881695622],[121.87988960000001,24.913920499999993],[121.87952000000001,24.913740699999998],[121.878976,24.9132773],[121.87862919999999,24.912874099999996],[121.8787719,24.912654099999997],[121.87863880000002,24.912583200000004],[121.87842589999998,24.912581900000003],[121.87816420000001,24.912103699999996],[121.8779039,24.911798899999997],[121.87770819999999,24.910812399999998],[121.8776677,24.9107389],[121.87758660000001,24.910746499999995],[121.8775055,24.9105856],[121.87770990000001,24.9104768],[121.8776609,24.910392499999997],[121.87756170000002,24.9103539],[121.8774902,24.9103067],[121.8773956,24.910348099999997],[121.87740910000001,24.910412499999996],[121.87735,24.910463],[121.87730949999998,24.910400200000005],[121.8771101,24.910472199999997],[121.8769809,24.9104478],[121.8765706,24.9103293],[121.8757423,24.9096396],[121.8753373,24.9092759],[121.8751497351099,24.90915638492783],[121.8711439801497,24.909179835260026]]]},"properties":{"grid_id":"G067_056","綠地類型":"公園／都市綠地","中心經度":121.875211,"中心緯度":24.913533,"分析面積_km2":0.845,"2020面積_ha":3.51,"2024面積_ha":3.24,"面積減少率_pct":7.69,"2020斑塊數":1,"2024斑塊數":1,"斑塊數增加率_pct":0.0,"2020平均斑塊面積_ha":3.51,"2024平均斑塊面積_ha":3.24,"平均斑塊面積下降率_pct":7.69,"道路切割密度_km_per_km2":4.473,"建成區邊界切割密度_km_per_km2":0.0,"孤立小斑塊比例_pct":0.0,"距大型連續綠地平均距離_m":4710.2,"score_面積減少":68.25726141078839,"score_斑塊增加":42.531120331950206,"score_平均斑塊縮小":63.90041493775933,"score_道路建成區切割":23.651452282157678,"score_孤立比例":20.539419087136928,"score_距大型綠地":85.68464730290457,"綜合破碎化分數":50.8,"破碎化等級":"中","判定原因":"面積減少7.7%；斑塊增加0.0%；平均斑塊縮小7.7%；道路密度4.47 km/km²；孤立比例0.0%；距大型綠地4710m","2021面積_ha":3.15,"2022面積_ha":3.33,"2023面積_ha":2.79}}]}