{"type":"FeatureCollection","features":[{"type":"Feature","geometry":{"type":"Polygon","coordinates":[[[121.77913432978575,24.440221037166694],[121.7791898317236,24.449249249486428],[121.78905226549632,24.4491981083479],[121.78899606123072,24.440169917333243],[121.77913432978575,24.440221037166694]]]},"properties":{"grid_id":"G015_047","綠地類型":"公園／都市綠地","中心經度":121.784093,"中心緯度":24.44471,"分析面積_km2":1.04,"2020面積_ha":4.14,"2024面積_ha":4.14,"面積減少率_pct":0.0,"2020斑塊數":1,"2024斑塊數":1,"斑塊數增加率_pct":0.0,"2020平均斑塊面積_ha":53.91,"2024平均斑塊面積_ha":54.09,"平均斑塊面積下降率_pct":0.0,"道路切割密度_km_per_km2":4.931,"建成區邊界切割密度_km_per_km2":0.0,"孤立小斑塊比例_pct":0.0,"距大型連續綠地平均距離_m":0.0,"score_面積減少":29.87551867219917,"score_斑塊增加":42.531120331950206,"score_平均斑塊縮小":26.970954356846473,"score_道路建成區切割":25.622406639004147,"score_孤立比例":20.539419087136928,"score_距大型綠地":9.95850622406639,"綜合破碎化分數":25.9,"破碎化等級":"低","判定原因":"面積減少0.0%；斑塊增加0.0%；平均斑塊縮小0.0%；道路密度4.93 km/km²；孤立比例0.0%；距大型綠地0m","2021面積_ha":4.14,"2022面積_ha":4.14,"2023面積_ha":4.14}},{"type":"Feature","geometry":{"type":"Polygon","coordinates":[[[121.78899606123072,24.440169917333243],[121.78905226549632,24.4491981083479],[121.7989146717751,24.44914632411502],[121.79885776519035,24.440118154673343],[121.78899606123072,24.440169917333243]]]},"properties":{"grid_id":"G015_048","綠地類型":"公園／都市綠地","中心經度":121.793955,"中心緯度":24.444658,"分析面積_km2":1.04,"2020面積_ha":0.09,"2024面積_ha":0.09,"面積減少率_pct":0.0,"2020斑塊數":1,"2024斑塊數":1,"斑塊數增加率_pct":0.0,"2020平均斑塊面積_ha":53.91,"2024平均斑塊面積_ha":54.09,"平均斑塊面積下降率_pct":0.0,"道路切割密度_km_per_km2":5.652,"建成區邊界切割密度_km_per_km2":0.0,"孤立小斑塊比例_pct":0.0,"距大型連續綠地平均距離_m":0.0,"score_面積減少":29.87551867219917,"score_斑塊增加":42.531120331950206,"score_平均斑塊縮小":26.970954356846473,"score_道路建成區切割":29.04564315352697,"score_孤立比例":20.539419087136928,"score_距大型綠地":9.95850622406639,"綜合破碎化分數":26.5,"破碎化等級":"低","判定原因":"面積減少0.0%；斑塊增加0.0%；平均斑塊縮小0.0%；道路密度5.65 km/km²；孤立比例0.0%；距大型綠地0m","2021面積_ha":0.09,"2022面積_ha":0.09,"2023面積_ha":0.09}},{"type":"Feature","geometry":{"type":"Polygon","coordinates":[[[121.7791898317236,24.449249249486428],[121.77924536081187,24.458277450910945],[121.78910849725585,24.45822628846438],[121.78905226549632,24.4491981083479],[121.7791898317236,24.449249249486428]]]},"properties":{"grid_id":"G016_047","綠地類型":"公園／都市綠地","中心經度":121.784149,"中心緯度":24.453738,"分析面積_km2":1.04,"2020面積_ha":33.03,"2024面積_ha":33.21,"面積減少率_pct":0.0,"2020斑塊數":1,"2024斑塊數":1,"斑塊數增加率_pct":0.0,"2020平均斑塊面積_ha":53.91,"2024平均斑塊面積_ha":54.09,"平均斑塊面積下降率_pct":0.0,"道路切割密度_km_per_km2":7.209,"建成區邊界切割密度_km_per_km2":0.98,"孤立小斑塊比例_pct":0.0,"距大型連續綠地平均距離_m":0.0,"score_面積減少":29.87551867219917,"score_斑塊增加":42.531120331950206,"score_平均斑塊縮小":26.970954356846473,"score_道路建成區切割":76.55601659751036,"score_孤立比例":20.539419087136928,"score_距大型綠地":9.95850622406639,"綜合破碎化分數":34.4,"破碎化等級":"低","判定原因":"面積減少0.0%；斑塊增加0.0%；平均斑塊縮小0.0%；道路密度7.21 km/km²；孤立比例0.0%；距大型綠地0m","2021面積_ha":33.93,"2022面積_ha":33.66,"2023面積_ha":32.67}},{"type":"Feature","geometry":{"type":"Polygon","coordinates":[[[121.78905226549632,24.4491981083479],[121.78910849725585,24.45822628846438],[121.7989716061973,24.458174482655544],[121.7989146717751,24.44914632411502],[121.78905226549632,24.4491981083479]]]},"properties":{"grid_id":"G016_048","綠地類型":"公園／都市綠地","中心經度":121.794012,"中心緯度":24.453686,"分析面積_km2":1.04,"2020面積_ha":17.73,"2024面積_ha":17.73,"面積減少率_pct":0.0,"2020斑塊數":1,"2024斑塊數":1,"斑塊數增加率_pct":0.0,"2020平均斑塊面積_ha":53.91,"2024平均斑塊面積_ha":54.09,"平均斑塊面積下降率_pct":0.0,"道路切割密度_km_per_km2":4.7,"建成區邊界切割密度_km_per_km2":0.0,"孤立小斑塊比例_pct":0.0,"距大型連續綠地平均距離_m":0.0,"score_面積減少":29.87551867219917,"score_斑塊增加":42.531120331950206,"score_平均斑塊縮小":26.970954356846473,"score_道路建成區切割":24.688796680497923,"score_孤立比例":20.539419087136928,"score_距大型綠地":9.95850622406639,"綜合破碎化分數":25.8,"破碎化等級":"低","判定原因":"面積減少0.0%；斑塊增加0.0%；平均斑塊縮小0.0%；道路密度4.70 km/km²；孤立比例0.0%；距大型綠地0m","2021面積_ha":17.73,"2022面積_ha":17.46,"2023面積_ha":17.73}},{"type":"Feature","geometry":{"type":"Polygon","coordinates":[[[121.53281104160111,24.495461880018155],[121.53284909431024,24.504490472844463],[121.5427163260413,24.50445532344268],[121.54267756876047,24.49542674523526],[121.53281104160111,24.495461880018155]]]},"properties":{"grid_id":"G021_022","綠地類型":"公園／都市綠地","中心經度":121.537764,"中心緯度":24.499959,"分析面積_km2":1.04,"2020面積_ha":3.33,"2024面積_ha":3.33,"面積減少率_pct":0.0,"2020斑塊數":1,"2024斑塊數":1,"斑塊數增加率_pct":0.0,"2020平均斑塊面積_ha":5.58,"2024平均斑塊面積_ha":7.56,"平均斑塊面積下降率_pct":0.0,"道路切割密度_km_per_km2":1.788,"建成區邊界切割密度_km_per_km2":0.0,"孤立小斑塊比例_pct":0.0,"距大型連續綠地平均距離_m":10655.0,"score_面積減少":29.87551867219917,"score_斑塊增加":42.531120331950206,"score_平均斑塊縮小":26.970954356846473,"score_道路建成區切割":12.448132780082986,"score_孤立比例":20.539419087136928,"score_距大型綠地":97.0954356846473,"綜合破碎化分數":38.2,"破碎化等級":"低","判定原因":"面積減少0.0%；斑塊增加0.0%；平均斑塊縮小0.0%；道路密度1.79 km/km²；孤立比例0.0%；距大型綠地10655m","2021面積_ha":3.33,"2022面積_ha":3.33,"2023面積_ha":3.33}},{"type":"Feature","geometry":{"type":"Polygon","coordinates":[[[121.75979002263281,24.50351889842622],[121.75984430530761,24.51254707626324],[121.76971171907533,24.512497075868858],[121.76965673164887,24.503468918821284],[121.75979002263281,24.50351889842622]]]},"properties":{"grid_id":"G022_045","綠地類型":"公園／都市綠地","中心經度":121.764751,"中心緯度":24.508008,"分析面積_km2":1.04,"2020面積_ha":0.81,"2024面積_ha":2.07,"面積減少率_pct":0.0,"2020斑塊數":2,"2024斑塊數":1,"斑塊數增加率_pct":0.0,"2020平均斑塊面積_ha":0.405,"2024平均斑塊面積_ha":2.07,"平均斑塊面積下降率_pct":0.0,"道路切割密度_km_per_km2":2.336,"建成區邊界切割密度_km_per_km2":0.0,"孤立小斑塊比例_pct":0.0,"距大型連續綠地平均距離_m":5832.8,"score_面積減少":29.87551867219917,"score_斑塊增加":42.531120331950206,"score_平均斑塊縮小":26.970954356846473,"score_道路建成區切割":15.560165975103734,"score_孤立比例":20.539419087136928,"score_距大型綠地":90.04149377593362,"綜合破碎化分數":37.6,"破碎化等級":"低","判定原因":"面積減少0.0%；斑塊增加0.0%；平均斑塊縮小0.0%；道路密度2.34 km/km²；孤立比例0.0%；距大型綠地5833m","2021面積_ha":1.71,"2022面積_ha":1.89,"2023面積_ha":2.07}},{"type":"Feature","geometry":{"type":"Polygon","coordinates":[[[121.5230939979091,24.531610733811462],[121.52313141908036,24.540639297573016],[121.53300149116126,24.54060473560598],[121.53296336403461,24.531576186203097],[121.5230939979091,24.531610733811462]]]},"properties":{"grid_id":"G025_021","綠地類型":"公園／都市綠地","中心經度":121.528048,"中心緯度":24.536108,"分析面積_km2":1.04,"2020面積_ha":4.41,"2024面積_ha":4.41,"面積減少率_pct":0.0,"2020斑塊數":1,"2024斑塊數":1,"斑塊數增加率_pct":0.0,"2020平均斑塊面積_ha":4.41,"2024平均斑塊面積_ha":4.41,"平均斑塊面積下降率_pct":0.0,"道路切割密度_km_per_km2":1.99,"建成區邊界切割密度_km_per_km2":0.0,"孤立小斑塊比例_pct":0.0,"距大型連續綠地平均距離_m":6284.2,"score_面積減少":29.87551867219917,"score_斑塊增加":42.531120331950206,"score_平均斑塊縮小":26.970954356846473,"score_道路建成區切割":13.485477178423235,"score_孤立比例":20.539419087136928,"score_距大型綠地":91.28630705394191,"綜合破碎化分數":37.4,"破碎化等級":"低","判定原因":"面積減少0.0%；斑塊增加0.0%；平均斑塊縮小0.0%；道路密度1.99 km/km²；孤立比例0.0%；距大型綠地6284m","2021面積_ha":4.41,"2022面積_ha":4.41,"2023面積_ha":4.41}},{"type":"Feature","geometry":{"type":"Polygon","coordinates":[[[121.49362710784624,24.567824858380735],[121.49366248011015,24.576853420168394],[121.50353543331738,24.57682074178808],[121.50349935370154,24.567792193561594],[121.49362710784624,24.567824858380735]]]},"properties":{"grid_id":"G029_018","綠地類型":"公園／都市綠地","中心經度":121.498581,"中心緯度":24.572323,"分析面積_km2":1.04,"2020面積_ha":2.7,"2024面積_ha":3.87,"面積減少率_pct":0.0,"2020斑塊數":1,"2024斑塊數":1,"斑塊數增加率_pct":0.0,"2020平均斑塊面積_ha":2.7,"2024平均斑塊面積_ha":3.87,"平均斑塊面積下降率_pct":0.0,"道路切割密度_km_per_km2":4.095,"建成區邊界切割密度_km_per_km2":0.029,"孤立小斑塊比例_pct":0.0,"距大型連續綠地平均距離_m":3121.5,"score_面積減少":29.87551867219917,"score_斑塊增加":42.531120331950206,"score_平均斑塊縮小":26.970954356846473,"score_道路建成區切割":32.053941908713696,"score_孤立比例":20.539419087136928,"score_距大型綠地":71.36929460580913,"綜合破碎化分數":37.2,"破碎化等級":"低","判定原因":"面積減少0.0%；斑塊增加0.0%；平均斑塊縮小0.0%；道路密度4.09 km/km²；孤立比例0.0%；距大型綠地3122m","2021面積_ha":3.87,"2022面積_ha":3.87,"2023面積_ha":3.87}},{"type":"Feature","geometry":{"type":"Polygon","coordinates":[[[121.4245513436594,24.57706405194717],[121.42458177915925,24.586092690289686],[121.43445555368311,24.58606452947637],[121.43442441045036,24.577035902817098],[121.4245513436594,24.57706405194717]]]},"properties":{"grid_id":"G030_011","綠地類型":"公園／都市綠地","中心經度":121.429503,"中心緯度":24.581564,"分析面積_km2":1.04,"2020面積_ha":1.08,"2024面積_ha":1.08,"面積減少率_pct":0.0,"2020斑塊數":1,"2024斑塊數":1,"斑塊數增加率_pct":0.0,"2020平均斑塊面積_ha":20.97,"2024平均斑塊面積_ha":20.97,"平均斑塊面積下降率_pct":0.0,"道路切割密度_km_per_km2":0.0,"建成區邊界切割密度_km_per_km2":0.0,"孤立小斑塊比例_pct":0.0,"距大型連續綠地平均距離_m":0.0,"score_面積減少":29.87551867219917,"score_斑塊增加":42.531120331950206,"score_平均斑塊縮小":26.970954356846473,"score_道路建成區切割":8.609958506224066,"score_孤立比例":20.539419087136928,"score_距大型綠地":9.95850622406639,"綜合破碎化分數":23.1,"破碎化等級":"低","判定原因":"面積減少0.0%；斑塊增加0.0%；平均斑塊縮小0.0%；道路密度0.00 km/km²；孤立比例0.0%；距大型綠地0m","2021面積_ha":1.08,"2022面積_ha":1.08,"2023面積_ha":1.08}},{"type":"Feature","geometry":{"type":"Polygon","coordinates":[[[121.43442441045036,24.577035902817098],[121.43445555368311,24.58606452947637],[121.44432931301148,24.586035721346388],[121.44429746205066,24.577007106638906],[121.43442441045036,24.577035902817098]]]},"properties":{"grid_id":"G030_012","綠地類型":"公園／都市綠地","中心經度":121.439377,"中心緯度":24.581536,"分析面積_km2":1.04,"2020面積_ha":3.78,"2024面積_ha":3.78,"面積減少率_pct":0.0,"2020斑塊數":1,"2024斑塊數":1,"斑塊數增加率_pct":0.0,"2020平均斑塊面積_ha":20.97,"2024平均斑塊面積_ha":20.97,"平均斑塊面積下降率_pct":0.0,"道路切割密度_km_per_km2":0.461,"建成區邊界切割密度_km_per_km2":0.0,"孤立小斑塊比例_pct":0.0,"距大型連續綠地平均距離_m":0.0,"score_面積減少":29.87551867219917,"score_斑塊增加":42.531120331950206,"score_平均斑塊縮小":26.970954356846473,"score_道路建成區切割":9.543568464730289,"score_孤立比例":20.539419087136928,"score_距大型綠地":9.95850622406639,"綜合破碎化分數":23.2,"破碎化等級":"低","判定原因":"面積減少0.0%；斑塊增加0.0%；平均斑塊縮小0.0%；道路密度0.46 km/km²；孤立比例0.0%；距大型綠地0m","2021面積_ha":3.78,"2022面積_ha":3.78,"2023面積_ha":3.78}},{"type":"Feature","geometry":{"type":"Polygon","coordinates":[[[121.48378950964111,24.576885451525776],[121.48382419146431,24.5859140157406],[121.49369786963588,24.585881971088703],[121.49366248011015,24.576853420168394],[121.48378950964111,24.576885451525776]]]},"properties":{"grid_id":"G030_017","綠地類型":"公園／都市綠地","中心經度":121.488744,"中心緯度":24.581384,"分析面積_km2":1.04,"2020面積_ha":3.06,"2024面積_ha":3.24,"面積減少率_pct":0.0,"2020斑塊數":1,"2024斑塊數":1,"斑塊數增加率_pct":0.0,"2020平均斑塊面積_ha":4.95,"2024平均斑塊面積_ha":5.13,"平均斑塊面積下降率_pct":0.0,"道路切割密度_km_per_km2":4.441,"建成區邊界切割密度_km_per_km2":0.0,"孤立小斑塊比例_pct":0.0,"距大型連續綠地平均距離_m":2986.8,"score_面積減少":29.87551867219917,"score_斑塊增加":42.531120331950206,"score_平均斑塊縮小":26.970954356846473,"score_道路建成區切割":23.443983402489625,"score_孤立比例":20.539419087136928,"score_距大型綠地":65.56016597510373,"綜合破碎化分數":34.8,"破碎化等級":"低","判定原因":"面積減少0.0%；斑塊增加0.0%；平均斑塊縮小0.0%；道路密度4.44 km/km²；孤立比例0.0%；距大型綠地2987m","2021面積_ha":2.79,"2022面積_ha":2.88,"2023面積_ha":3.15}},{"type":"Feature","geometry":{"type":"Polygon","coordinates":[[[121.49366248011015,24.576853420168394],[121.49369786963588,24.585881971088703],[121.50357153054019,24.585849279145332],[121.50353543331738,24.57682074178808],[121.49366248011015,24.576853420168394]]]},"properties":{"grid_id":"G030_018","綠地類型":"公園／都市綠地","中心經度":121.498617,"中心緯度":24.581351,"分析面積_km2":1.04,"2020面積_ha":3.69,"2024面積_ha":3.69,"面積減少率_pct":0.0,"2020斑塊數":2,"2024斑塊數":2,"斑塊數增加率_pct":0.0,"2020平均斑塊面積_ha":3.375,"2024平均斑塊面積_ha":3.465,"平均斑塊面積下降率_pct":0.0,"道路切割密度_km_per_km2":3.143,"建成區邊界切割密度_km_per_km2":0.0,"孤立小斑塊比例_pct":48.78,"距大型連續綠地平均距離_m":2619.6,"score_面積減少":29.87551867219917,"score_斑塊增加":42.531120331950206,"score_平均斑塊縮小":26.970954356846473,"score_道路建成區切割":17.634854771784234,"score_孤立比例":58.09128630705395,"score_距大型綠地":56.84647302904564,"綜合破碎化分數":38.7,"破碎化等級":"低","判定原因":"面積減少0.0%；斑塊增加0.0%；平均斑塊縮小0.0%；道路密度3.14 km/km²；孤立比例48.8%；距大型綠地2620m","2021面積_ha":3.69,"2022面積_ha":3.42,"2023面積_ha":3.69}},{"type":"Feature","geometry":{"type":"Polygon","coordinates":[[[121.85894734082709,24.57521344747967],[121.85900891060392,24.58424131774309],[121.86888168992178,24.584184679942528],[121.86881941272563,24.575156833176095],[121.85894734082709,24.57521344747967]]]},"properties":{"grid_id":"G030_055","綠地類型":"公園／都市綠地","中心經度":121.863914,"中心緯度":24.579699,"分析面積_km2":1.04,"2020面積_ha":2.52,"2024面積_ha":2.52,"面積減少率_pct":0.0,"2020斑塊數":1,"2024斑塊數":1,"斑塊數增加率_pct":0.0,"2020平均斑塊面積_ha":2.52,"2024平均斑塊面積_ha":2.52,"平均斑塊面積下降率_pct":0.0,"道路切割密度_km_per_km2":12.082,"建成區邊界切割密度_km_per_km2":0.0,"孤立小斑塊比例_pct":0.0,"距大型連續綠地平均距離_m":5746.6,"score_面積減少":29.87551867219917,"score_斑塊增加":42.531120331950206,"score_平均斑塊縮小":26.970954356846473,"score_道路建成區切割":50.62240663900415,"score_孤立比例":20.539419087136928,"score_距大型綠地":89.62655601659752,"綜合破碎化分數":43.4,"破碎化等級":"低","判定原因":"面積減少0.0%；斑塊增加0.0%；平均斑塊縮小0.0%；道路密度12.08 km/km²；孤立比例0.0%；距大型綠地5747m","2021面積_ha":2.52,"2022面積_ha":2.52,"2023面積_ha":2.43}},{"type":"Feature","geometry":{"type":"Polygon","coordinates":[[[121.41473773205237,24.5951488426831],[121.41470798978526,24.586120203782432],[121.40556087873343,24.58614511472203],[121.4051706,24.586750099999993],[121.4048380968245,24.587363490814063],[121.40486022900227,24.594245797813198],[121.4049561,24.5943682],[121.4053495,24.594798000000004],[121.40584180646098,24.59517308530732],[121.41473773205237,24.5951488426831]]]},"properties":{"grid_id":"G031_009","綠地類型":"公園／都市綠地","中心經度":121.409786,"中心緯度":24.590791,"分析面積_km2":1.029,"2020面積_ha":0.9,"2024面積_ha":0.9,"面積減少率_pct":0.0,"2020斑塊數":1,"2024斑塊數":1,"斑塊數增加率_pct":0.0,"2020平均斑塊面積_ha":0.9,"2024平均斑塊面積_ha":0.9,"平均斑塊面積下降率_pct":0.0,"道路切割密度_km_per_km2":1.662,"建成區邊界切割密度_km_per_km2":0.0,"孤立小斑塊比例_pct":100.0,"距大型連續綠地平均距離_m":2241.4,"score_面積減少":29.87551867219917,"score_斑塊增加":42.531120331950206,"score_平均斑塊縮小":26.970954356846473,"score_道路建成區切割":12.033195020746888,"score_孤立比例":80.29045643153528,"score_距大型綠地":51.037344398340245,"綜合破碎化分數":40.5,"破碎化等級":"低","判定原因":"面積減少0.0%；斑塊增加0.0%；平均斑塊縮小0.0%；道路密度1.66 km/km²；孤立比例100.0%；距大型綠地2241m","2021面積_ha":0.9,"2022面積_ha":0.9,"2023面積_ha":0.9}},{"type":"Feature","geometry":{"type":"Polygon","coordinates":[[[121.42458177915925,24.586092690289686],[121.42461222950928,24.595121317774066],[121.43448671211131,24.595093145275886],[121.43445555368311,24.58606452947637],[121.42458177915925,24.586092690289686]]]},"properties":{"grid_id":"G031_011","綠地類型":"公園／都市綠地","中心經度":121.429534,"中心緯度":24.590593,"分析面積_km2":1.04,"2020面積_ha":1.26,"2024面積_ha":1.26,"面積減少率_pct":0.0,"2020斑塊數":1,"2024斑塊數":1,"斑塊數增加率_pct":0.0,"2020平均斑塊面積_ha":20.97,"2024平均斑塊面積_ha":20.97,"平均斑塊面積下降率_pct":0.0,"道路切割密度_km_per_km2":2.018,"建成區邊界切割密度_km_per_km2":0.0,"孤立小斑塊比例_pct":0.0,"距大型連續綠地平均距離_m":0.0,"score_面積減少":29.87551867219917,"score_斑塊增加":42.531120331950206,"score_平均斑塊縮小":26.970954356846473,"score_道路建成區切割":13.692946058091286,"score_孤立比例":20.539419087136928,"score_距大型綠地":9.95850622406639,"綜合破碎化分數":23.9,"破碎化等級":"低","判定原因":"面積減少0.0%；斑塊增加0.0%；平均斑塊縮小0.0%；道路密度2.02 km/km²；孤立比例0.0%；距大型綠地0m","2021面積_ha":1.26,"2022面積_ha":1.26,"2023面積_ha":1.26}},{"type":"Feature","geometry":{"type":"Polygon","coordinates":[[[121.43445555368311,24.58606452947637],[121.43448671211131,24.595093145275886],[121.4443611795131,24.59506432519244],[121.44432931301148,24.586035721346388],[121.43445555368311,24.58606452947637]]]},"properties":{"grid_id":"G031_012","綠地類型":"公園／都市綠地","中心經度":121.439408,"中心緯度":24.590565,"分析面積_km2":1.04,"2020面積_ha":15.66,"2024面積_ha":15.66,"面積減少率_pct":0.0,"2020斑塊數":1,"2024斑塊數":1,"斑塊數增加率_pct":0.0,"2020平均斑塊面積_ha":20.97,"2024平均斑塊面積_ha":20.97,"平均斑塊面積下降率_pct":0.0,"道路切割密度_km_per_km2":4.21,"建成區邊界切割密度_km_per_km2":0.0,"孤立小斑塊比例_pct":0.0,"距大型連續綠地平均距離_m":0.0,"score_面積減少":29.87551867219917,"score_斑塊增加":42.531120331950206,"score_平均斑塊縮小":26.970954356846473,"score_道路建成區切割":22.406639004149376,"score_孤立比例":20.539419087136928,"score_距大型綠地":9.95850622406639,"綜合破碎化分數":25.4,"破碎化等級":"低","判定原因":"面積減少0.0%；斑塊增加0.0%；平均斑塊縮小0.0%；道路密度4.21 km/km²；孤立比例0.0%；距大型綠地0m","2021面積_ha":15.66,"2022面積_ha":15.66,"2023面積_ha":15.66}},{"type":"Feature","geometry":{"type":"Polygon","coordinates":[[[121.49369786963588,24.585881971088703],[121.49373327642883,24.5949105111387],[121.50360764537552,24.594877805630393],[121.50357153054019,24.585849279145332],[121.49369786963588,24.585881971088703]]]},"properties":{"grid_id":"G031_018","綠地類型":"公園／都市綠地","中心經度":121.498653,"中心緯度":24.59038,"分析面積_km2":1.04,"2020面積_ha":0.36,"2024面積_ha":0.36,"面積減少率_pct":0.0,"2020斑塊數":1,"2024斑塊數":1,"斑塊數增加率_pct":0.0,"2020平均斑塊面積_ha":2.07,"2024平均斑塊面積_ha":2.07,"平均斑塊面積下降率_pct":0.0,"道路切割密度_km_per_km2":0.606,"建成區邊界切割密度_km_per_km2":0.0,"孤立小斑塊比例_pct":0.0,"距大型連續綠地平均距離_m":1691.9,"score_面積減少":29.87551867219917,"score_斑塊增加":42.531120331950206,"score_平均斑塊縮小":26.970954356846473,"score_道路建成區切割":9.854771784232364,"score_孤立比例":20.539419087136928,"score_距大型綠地":46.058091286307054,"綜合破碎化分數":29.3,"破碎化等級":"低","判定原因":"面積減少0.0%；斑塊增加0.0%；平均斑塊縮小0.0%；道路密度0.61 km/km²；孤立比例0.0%；距大型綠地1692m","2021面積_ha":0.36,"2022面積_ha":0.36,"2023面積_ha":0.36}},{"type":"Feature","geometry":{"type":"Polygon","coordinates":[[[121.50357153054019,24.585849279145332],[121.50360764537552,24.594877805630393],[121.51348199670413,24.594844452566548],[121.51344517383198,24.585815939915015],[121.50357153054019,24.585849279145332]]]},"properties":{"grid_id":"G031_019","綠地類型":"公園／都市綠地","中心經度":121.508527,"中心緯度":24.590347,"分析面積_km2":1.04,"2020面積_ha":1.89,"2024面積_ha":1.89,"面積減少率_pct":0.0,"2020斑塊數":1,"2024斑塊數":1,"斑塊數增加率_pct":0.0,"2020平均斑塊面積_ha":2.07,"2024平均斑塊面積_ha":2.07,"平均斑塊面積下降率_pct":0.0,"道路切割密度_km_per_km2":1.586,"建成區邊界切割密度_km_per_km2":0.0,"孤立小斑塊比例_pct":0.0,"距大型連續綠地平均距離_m":1529.4,"score_面積減少":29.87551867219917,"score_斑塊增加":42.531120331950206,"score_平均斑塊縮小":26.970954356846473,"score_道路建成區切割":11.825726141078837,"score_孤立比例":20.539419087136928,"score_距大型綠地":43.56846473029046,"綜合破碎化分數":29.2,"破碎化等級":"低","判定原因":"面積減少0.0%；斑塊增加0.0%；平均斑塊縮小0.0%；道路密度1.59 km/km²；孤立比例0.0%；距大型綠地1529m","2021面積_ha":1.89,"2022面積_ha":1.89,"2023面積_ha":1.89}},{"type":"Feature","geometry":{"type":"Polygon","coordinates":[[[121.52331879916598,24.585781953402346],[121.52335633006928,24.594810451951787],[121.53323064512557,24.59477580379081],[121.53319240619687,24.585747319612018],[121.52331879916598,24.585781953402346]]]},"properties":{"grid_id":"G031_021","綠地類型":"公園／都市綠地","中心經度":121.528275,"中心緯度":24.590279,"分析面積_km2":1.04,"2020面積_ha":1.62,"2024面積_ha":1.62,"面積減少率_pct":0.0,"2020斑塊數":1,"2024斑塊數":1,"斑塊數增加率_pct":0.0,"2020平均斑塊面積_ha":18.54,"2024平均斑塊面積_ha":17.91,"平均斑塊面積下降率_pct":3.4,"道路切割密度_km_per_km2":0.836,"建成區邊界切割密度_km_per_km2":0.0,"孤立小斑塊比例_pct":0.0,"距大型連續綠地平均距離_m":0.0,"score_面積減少":29.87551867219917,"score_斑塊增加":42.531120331950206,"score_平均斑塊縮小":60.16597510373444,"score_道路建成區切割":10.788381742738588,"score_孤立比例":20.539419087136928,"score_距大型綠地":9.95850622406639,"綜合破碎化分數":29.0,"破碎化等級":"低","判定原因":"面積減少0.0%；斑塊增加0.0%；平均斑塊縮小3.4%；道路密度0.84 km/km²；孤立比例0.0%；距大型綠地0m","2021面積_ha":1.62,"2022面積_ha":1.35,"2023面積_ha":1.62}},{"type":"Feature","geometry":{"type":"Polygon","coordinates":[[[121.53319240619687,24.585747319612018],[121.53323064512557,24.59477580379081],[121.54310494152763,24.594740508088385],[121.54306599457942,24.585712038548824],[121.53319240619687,24.585747319612018]]]},"properties":{"grid_id":"G031_022","綠地類型":"公園／都市綠地","中心經度":121.538148,"中心緯度":24.590244,"分析面積_km2":1.04,"2020面積_ha":3.06,"2024面積_ha":2.88,"面積減少率_pct":5.88,"2020斑塊數":1,"2024斑塊數":1,"斑塊數增加率_pct":0.0,"2020平均斑塊面積_ha":3.06,"2024平均斑塊面積_ha":2.88,"平均斑塊面積下降率_pct":5.88,"道路切割密度_km_per_km2":2.191,"建成區邊界切割密度_km_per_km2":0.0,"孤立小斑塊比例_pct":0.0,"距大型連續綠地平均距離_m":1031.7,"score_面積減少":65.76763485477179,"score_斑塊增加":42.531120331950206,"score_平均斑塊縮小":61.82572614107884,"score_道路建成區切割":14.83402489626556,"score_孤立比例":20.539419087136928,"score_距大型綠地":38.17427385892116,"綜合破碎化分數":40.6,"破碎化等級":"低","判定原因":"面積減少5.9%；斑塊增加0.0%；平均斑塊縮小5.9%；道路密度2.19 km/km²；孤立比例0.0%；距大型綠地1032m","2021面積_ha":3.24,"2022面積_ha":2.52,"2023面積_ha":2.7}},{"type":"Feature","geometry":{"type":"Polygon","coordinates":[[[121.83926326219401,24.584352652141625],[121.83932344645343,24.593380557635044],[121.84919699328898,24.593325191008788],[121.84913610124629,24.584297308478696],[121.83926326219401,24.584352652141625]]]},"properties":{"grid_id":"G031_053","綠地類型":"公園／都市綠地","中心經度":121.84423,"中心緯度":24.588839,"分析面積_km2":1.04,"2020面積_ha":2.79,"2024面積_ha":2.97,"面積減少率_pct":0.0,"2020斑塊數":1,"2024斑塊數":1,"斑塊數增加率_pct":0.0,"2020平均斑塊面積_ha":2.79,"2024平均斑塊面積_ha":2.97,"平均斑塊面積下降率_pct":0.0,"道路切割密度_km_per_km2":9.054,"建成區邊界切割密度_km_per_km2":0.202,"孤立小斑塊比例_pct":0.0,"距大型連續綠地平均距離_m":3000.6,"score_面積減少":29.87551867219917,"score_斑塊增加":42.531120331950206,"score_平均斑塊縮小":26.970954356846473,"score_道路建成區切割":68.56846473029046,"score_孤立比例":20.539419087136928,"score_距大型綠地":65.97510373443983,"綜合破碎化分數":42.4,"破碎化等級":"低","判定原因":"面積減少0.0%；斑塊增加0.0%；平均斑塊縮小0.0%；道路密度9.05 km/km²；孤立比例0.0%；距大型綠地3001m","2021面積_ha":2.88,"2022面積_ha":2.88,"2023面積_ha":3.24}},{"type":"Feature","geometry":{"type":"Polygon","coordinates":[[[121.50360764537552,24.594877805630393],[121.50364377782896,24.603906321240284],[121.51351883753975,24.603872954341],[121.51348199670413,24.594844452566548],[121.50360764537552,24.594877805630393]]]},"properties":{"grid_id":"G032_019","綠地類型":"公園／都市綠地","中心經度":121.508563,"中心緯度":24.599375,"分析面積_km2":1.04,"2020面積_ha":0.36,"2024面積_ha":0.18,"面積減少率_pct":50.0,"2020斑塊數":1,"2024斑塊數":1,"斑塊數增加率_pct":0.0,"2020平均斑塊面積_ha":5.49,"2024平均斑塊面積_ha":5.49,"平均斑塊面積下降率_pct":0.0,"道路切割密度_km_per_km2":4.066,"建成區邊界切割密度_km_per_km2":0.0,"孤立小斑塊比例_pct":0.0,"距大型連續綠地平均距離_m":868.1,"score_面積減少":84.43983402489627,"score_斑塊增加":42.531120331950206,"score_平均斑塊縮小":26.970954356846473,"score_道路建成區切割":21.57676348547718,"score_孤立比例":20.539419087136928,"score_距大型綠地":34.85477178423236,"綜合破碎化分數":38.5,"破碎化等級":"低","判定原因":"面積減少50.0%；斑塊增加0.0%；平均斑塊縮小0.0%；道路密度4.07 km/km²；孤立比例0.0%；距大型綠地868m","2021面積_ha":0.36,"2022面積_ha":0.36,"2023面積_ha":0.18}},{"type":"Feature","geometry":{"type":"Polygon","coordinates":[[[121.51348199670413,24.594844452566548],[121.51351883753975,24.603872954341],[121.52339387928144,24.603838939622182],[121.52335633006928,24.594810451951787],[121.51348199670413,24.594844452566548]]]},"properties":{"grid_id":"G032_020","綠地類型":"公園／都市綠地","中心經度":121.518438,"中心緯度":24.599342,"分析面積_km2":1.04,"2020面積_ha":7.11,"2024面積_ha":7.02,"面積減少率_pct":1.27,"2020斑塊數":3,"2024斑塊數":2,"斑塊數增加率_pct":0.0,"2020平均斑塊面積_ha":8.04,"2024平均斑塊面積_ha":11.7,"平均斑塊面積下降率_pct":0.0,"道路切割密度_km_per_km2":3.403,"建成區邊界切割密度_km_per_km2":0.173,"孤立小斑塊比例_pct":0.0,"距大型連續綠地平均距離_m":670.8,"score_面積減少":60.58091286307054,"score_斑塊增加":42.531120331950206,"score_平均斑塊縮小":26.970954356846473,"score_道路建成區切割":43.56846473029045,"score_孤立比例":20.539419087136928,"score_距大型綠地":32.780082987551864,"綜合破碎化分數":37.8,"破碎化等級":"低","判定原因":"面積減少1.3%；斑塊增加0.0%；平均斑塊縮小0.0%；道路密度3.40 km/km²；孤立比例0.0%；距大型綠地671m","2021面積_ha":7.56,"2022面積_ha":7.38,"2023面積_ha":7.11}},{"type":"Feature","geometry":{"type":"Polygon","coordinates":[[[121.52335633006928,24.594810451951787],[121.52339387928144,24.603838939622182],[121.53326890270851,24.603804277088535],[121.53323064512557,24.59477580379081],[121.52335633006928,24.594810451951787]]]},"properties":{"grid_id":"G032_021","綠地類型":"公園／都市綠地","中心經度":121.528312,"中心緯度":24.599307,"分析面積_km2":1.04,"2020面積_ha":11.43,"2024面積_ha":11.07,"面積減少率_pct":3.15,"2020斑塊數":4,"2024斑塊數":3,"斑塊數增加率_pct":0.0,"2020平均斑塊面積_ha":4.747,"2024平均斑塊面積_ha":6.12,"平均斑塊面積下降率_pct":0.0,"道路切割密度_km_per_km2":6.286,"建成區邊界切割密度_km_per_km2":0.288,"孤立小斑塊比例_pct":4.07,"距大型連續綠地平均距離_m":7.1,"score_面積減少":63.48547717842323,"score_斑塊增加":42.531120331950206,"score_平均斑塊縮小":26.970954356846473,"score_道路建成區切割":62.863070539419084,"score_孤立比例":45.643153526970956,"score_距大型綠地":20.74688796680498,"綜合破碎化分數":43.7,"破碎化等級":"低","判定原因":"面積減少3.1%；斑塊增加0.0%；平均斑塊縮小0.0%；道路密度6.29 km/km²；孤立比例4.1%；距大型綠地7m","2021面積_ha":11.34,"2022面積_ha":11.07,"2023面積_ha":11.16}},{"type":"Feature","geometry":{"type":"Polygon","coordinates":[[[121.80970263117497,24.59354277339097],[121.80976072035266,24.602570735211224],[121.8196350623848,24.60251728849291],[121.8195762650512,24.593489348833643],[121.80970263117497,24.59354277339097]]]},"properties":{"grid_id":"G032_050","綠地類型":"公園／都市綠地","中心經度":121.814669,"中心緯度":24.59803,"分析面積_km2":1.04,"2020面積_ha":13.41,"2024面積_ha":13.41,"面積減少率_pct":0.0,"2020斑塊數":1,"2024斑塊數":1,"斑塊數增加率_pct":0.0,"2020平均斑塊面積_ha":13.59,"2024平均斑塊面積_ha":13.5,"平均斑塊面積下降率_pct":0.66,"道路切割密度_km_per_km2":5.421,"建成區邊界切割密度_km_per_km2":0.0,"孤立小斑塊比例_pct":0.0,"距大型連續綠地平均距離_m":0.0,"score_面積減少":29.87551867219917,"score_斑塊增加":42.531120331950206,"score_平均斑塊縮小":53.941908713692946,"score_道路建成區切割":27.593360995850624,"score_孤立比例":20.539419087136928,"score_距大型綠地":9.95850622406639,"綜合破碎化分數":30.7,"破碎化等級":"低","判定原因":"面積減少0.0%；斑塊增加0.0%；平均斑塊縮小0.7%；道路密度5.42 km/km²；孤立比例0.0%；距大型綠地0m","2021面積_ha":13.5,"2022面積_ha":13.86,"2023面積_ha":13.41}},{"type":"Feature","geometry":{"type":"Polygon","coordinates":[[[121.63201805366872,24.60342202303381],[121.63206341673254,24.612450326926048],[121.64193892454271,24.612408521435302],[121.64189285283341,24.603380234872642],[121.63201805366872,24.60342202303381]]]},"properties":{"grid_id":"G033_032","綠地類型":"公園／都市綠地","中心經度":121.636978,"中心緯度":24.607915,"分析面積_km2":1.04,"2020面積_ha":1.44,"2024面積_ha":1.35,"面積減少率_pct":6.25,"2020斑塊數":1,"2024斑塊數":1,"斑塊數增加率_pct":0.0,"2020平均斑塊面積_ha":2.79,"2024平均斑塊面積_ha":3.15,"平均斑塊面積下降率_pct":0.0,"道路切割密度_km_per_km2":3.258,"建成區邊界切割密度_km_per_km2":0.0,"孤立小斑塊比例_pct":0.0,"距大型連續綠地平均距離_m":2861.1,"score_面積減少":66.39004149377593,"score_斑塊增加":42.531120331950206,"score_平均斑塊縮小":26.970954356846473,"score_道路建成區切割":17.842323651452283,"score_孤立比例":20.539419087136928,"score_距大型綠地":62.655601659751035,"綜合破碎化分數":39.5,"破碎化等級":"低","判定原因":"面積減少6.2%；斑塊增加0.0%；平均斑塊縮小0.0%；道路密度3.26 km/km²；孤立比例0.0%；距大型綠地2861m","2021面積_ha":1.44,"2022面積_ha":1.44,"2023面積_ha":1.17}},{"type":"Feature","geometry":{"type":"Polygon","coordinates":[[[121.52343144680825,24.612867416410573],[121.52346903265541,24.621895882314],[121.5333454738606,24.621861191029012],[121.53330717895153,24.612832739502252],[121.52343144680825,24.612867416410573]]]},"properties":{"grid_id":"G034_021","綠地類型":"公園／都市綠地","中心經度":121.528388,"中心緯度":24.617364,"分析面積_km2":1.04,"2020面積_ha":3.87,"2024面積_ha":4.05,"面積減少率_pct":0.0,"2020斑塊數":3,"2024斑塊數":3,"斑塊數增加率_pct":0.0,"2020平均斑塊面積_ha":1.68,"2024平均斑塊面積_ha":1.74,"平均斑塊面積下降率_pct":0.0,"道路切割密度_km_per_km2":7.093,"建成區邊界切割密度_km_per_km2":0.058,"孤立小斑塊比例_pct":20.0,"距大型連續綠地平均距離_m":1723.0,"score_面積減少":29.87551867219917,"score_斑塊增加":42.531120331950206,"score_平均斑塊縮小":26.970954356846473,"score_道路建成區切割":50.829875518672196,"score_孤立比例":51.45228215767634,"score_距大型綠地":46.47302904564315,"綜合破碎化分數":41.4,"破碎化等級":"低","判定原因":"面積減少0.0%；斑塊增加0.0%；平均斑塊縮小0.0%；道路密度7.09 km/km²；孤立比例20.0%；距大型綠地1723m","2021面積_ha":4.23,"2022面積_ha":4.05,"2023面積_ha":4.14}},{"type":"Feature","geometry":{"type":"Polygon","coordinates":[[[121.53330717895153,24.612832739502252],[121.5333454738606,24.621861191029012],[121.54322189639387,24.621825851396668],[121.54318289242885,24.612797414515267],[121.53330717895153,24.612832739502252]]]},"properties":{"grid_id":"G034_022","綠地類型":"公園／都市綠地","中心經度":121.538264,"中心緯度":24.617329,"分析面積_km2":1.04,"2020面積_ha":2.97,"2024面積_ha":2.97,"面積減少率_pct":0.0,"2020斑塊數":2,"2024斑塊數":2,"斑塊數增加率_pct":0.0,"2020平均斑塊面積_ha":1.53,"2024平均斑塊面積_ha":1.53,"平均斑塊面積下降率_pct":0.0,"道路切割密度_km_per_km2":1.038,"建成區邊界切割密度_km_per_km2":0.0,"孤立小斑塊比例_pct":100.0,"距大型連續綠地平均距離_m":2210.4,"score_面積減少":29.87551867219917,"score_斑塊增加":42.531120331950206,"score_平均斑塊縮小":26.970954356846473,"score_道路建成區切割":11.203319502074688,"score_孤立比例":80.29045643153528,"score_距大型綠地":50.62240663900415,"綜合破碎化分數":40.2,"破碎化等級":"低","判定原因":"面積減少0.0%；斑塊增加0.0%；平均斑塊縮小0.0%；道路密度1.04 km/km²；孤立比例100.0%；距大型綠地2210m","2021面積_ha":2.97,"2022面積_ha":2.97,"2023面積_ha":2.97}},{"type":"Feature","geometry":{"type":"Polygon","coordinates":[[[121.63206341673254,24.612450326926048],[121.63210880191812,24.621478619909205],[121.64198501871935,24.621436797086474],[121.64193892454271,24.612408521435302],[121.63206341673254,24.612450326926048]]]},"properties":{"grid_id":"G034_032","綠地類型":"公園／都市綠地","中心經度":121.637024,"中心緯度":24.616944,"分析面積_km2":1.04,"2020面積_ha":1.8,"2024面積_ha":2.25,"面積減少率_pct":0.0,"2020斑塊數":1,"2024斑塊數":1,"斑塊數增加率_pct":0.0,"2020平均斑塊面積_ha":2.79,"2024平均斑塊面積_ha":3.15,"平均斑塊面積下降率_pct":0.0,"道路切割密度_km_per_km2":2.797,"建成區邊界切割密度_km_per_km2":0.0,"孤立小斑塊比例_pct":0.0,"距大型連續綠地平均距離_m":2798.8,"score_面積減少":29.87551867219917,"score_斑塊增加":42.531120331950206,"score_平均斑塊縮小":26.970954356846473,"score_道路建成區切割":16.90871369294606,"score_孤立比例":20.539419087136928,"score_距大型綠地":61.82572614107884,"綜合破碎化分數":33.1,"破碎化等級":"低","判定原因":"面積減少0.0%；斑塊增加0.0%；平均斑塊縮小0.0%；道路密度2.80 km/km²；孤立比例0.0%；距大型綠地2799m","2021面積_ha":2.34,"2022面積_ha":2.16,"2023面積_ha":2.34}},{"type":"Feature","geometry":{"type":"Polygon","coordinates":[[[121.75056795159291,24.61190589304504],[121.75062184417915,24.620933960314176],[121.76049776847508,24.620884358433365],[121.76044316699007,24.6118563117198],[121.75056795159291,24.61190589304504]]]},"properties":{"grid_id":"G034_044","綠地類型":"公園／都市綠地","中心經度":121.755533,"中心緯度":24.616395,"分析面積_km2":1.04,"2020面積_ha":0.63,"2024面積_ha":0.63,"面積減少率_pct":0.0,"2020斑塊數":1,"2024斑塊數":1,"斑塊數增加率_pct":0.0,"2020平均斑塊面積_ha":47.7,"2024平均斑塊面積_ha":47.16,"平均斑塊面積下降率_pct":1.13,"道路切割密度_km_per_km2":5.046,"建成區邊界切割密度_km_per_km2":0.029,"孤立小斑塊比例_pct":0.0,"距大型連續綠地平均距離_m":0.0,"score_面積減少":29.87551867219917,"score_斑塊增加":42.531120331950206,"score_平均斑塊縮小":56.016597510373444,"score_道路建成區切割":36.41078838174274,"score_孤立比例":20.539419087136928,"score_距大型綠地":9.95850622406639,"綜合破碎化分數":32.6,"破碎化等級":"低","判定原因":"面積減少0.0%；斑塊增加0.0%；平均斑塊縮小1.1%；道路密度5.05 km/km²；孤立比例0.0%；距大型綠地0m","2021面積_ha":0.63,"2022面積_ha":0.63,"2023面積_ha":0.63}},{"type":"Feature","geometry":{"type":"Polygon","coordinates":[[[121.61235630227503,24.62156032066541],[121.6124002908951,24.630588636599263],[121.62227726095877,24.63054809357424],[121.62223256298812,24.62151979443741],[121.61235630227503,24.62156032066541]]]},"properties":{"grid_id":"G035_030","綠地類型":"公園／都市綠地","中心經度":121.617317,"中心緯度":24.626054,"分析面積_km2":1.04,"2020面積_ha":0.81,"2024面積_ha":0.81,"面積減少率_pct":0.0,"2020斑塊數":1,"2024斑塊數":1,"斑塊數增加率_pct":0.0,"2020平均斑塊面積_ha":11.97,"2024平均斑塊面積_ha":11.88,"平均斑塊面積下降率_pct":0.75,"道路切割密度_km_per_km2":2.047,"建成區邊界切割密度_km_per_km2":0.0,"孤立小斑塊比例_pct":0.0,"距大型連續綠地平均距離_m":0.0,"score_面積減少":29.87551867219917,"score_斑塊增加":42.531120331950206,"score_平均斑塊縮小":54.356846473029044,"score_道路建成區切割":13.900414937759336,"score_孤立比例":20.539419087136928,"score_距大型綠地":9.95850622406639,"綜合破碎化分數":28.5,"破碎化等級":"低","判定原因":"面積減少0.0%；斑塊增加0.0%；平均斑塊縮小0.8%；道路密度2.05 km/km²；孤立比例0.0%；距大型綠地0m","2021面積_ha":0.81,"2022面積_ha":0.81,"2023面積_ha":0.81}},{"type":"Feature","geometry":{"type":"Polygon","coordinates":[[[121.76049776847508,24.620884358433365],[121.76055239658204,24.629912394200527],[121.77042900349194,24.629862123280184],[121.770373666149,24.620834108340112],[121.76049776847508,24.620884358433365]]]},"properties":{"grid_id":"G035_045","綠地類型":"公園／都市綠地","中心經度":121.765463,"中心緯度":24.625373,"分析面積_km2":1.04,"2020面積_ha":5.67,"2024面積_ha":5.67,"面積減少率_pct":0.0,"2020斑塊數":1,"2024斑塊數":1,"斑塊數增加率_pct":0.0,"2020平均斑塊面積_ha":47.7,"2024平均斑塊面積_ha":47.16,"平均斑塊面積下降率_pct":1.13,"道路切割密度_km_per_km2":6.69,"建成區邊界切割密度_km_per_km2":0.0,"孤立小斑塊比例_pct":0.0,"距大型連續綠地平均距離_m":0.0,"score_面積減少":29.87551867219917,"score_斑塊增加":42.531120331950206,"score_平均斑塊縮小":56.016597510373444,"score_道路建成區切割":34.43983402489627,"score_孤立比例":20.539419087136928,"score_距大型綠地":9.95850622406639,"綜合破碎化分數":32.2,"破碎化等級":"低","判定原因":"面積減少0.0%；斑塊增加0.0%；平均斑塊縮小1.1%；道路密度6.69 km/km²；孤立比例0.0%；距大型綠地0m","2021面積_ha":5.67,"2022面積_ha":5.67,"2023面積_ha":5.67}},{"type":"Feature","geometry":{"type":"Polygon","coordinates":[[[121.83950417542161,24.620464208333154],[121.83956447717183,24.629492069961795],[121.84944085859371,24.629436611450217],[121.8493798476787,24.620408772797706],[121.83950417542161,24.620464208333154]]]},"properties":{"grid_id":"G035_053","綠地類型":"公園／都市綠地","中心經度":121.844472,"中心緯度":24.62495,"分析面積_km2":1.04,"2020面積_ha":0.81,"2024面積_ha":0.99,"面積減少率_pct":0.0,"2020斑塊數":1,"2024斑塊數":1,"斑塊數增加率_pct":0.0,"2020平均斑塊面積_ha":1.44,"2024平均斑塊面積_ha":1.8,"平均斑塊面積下降率_pct":0.0,"道路切割密度_km_per_km2":10.611,"建成區邊界切割密度_km_per_km2":0.0,"孤立小斑塊比例_pct":100.0,"距大型連續綠地平均距離_m":946.6,"score_面積減少":29.87551867219917,"score_斑塊增加":42.531120331950206,"score_平均斑塊縮小":26.970954356846473,"score_道路建成區切割":46.47302904564315,"score_孤立比例":80.29045643153528,"score_距大型綠地":36.92946058091287,"綜合破碎化分數":43.8,"破碎化等級":"低","判定原因":"面積減少0.0%；斑塊增加0.0%；平均斑塊縮小0.0%；道路密度10.61 km/km²；孤立比例100.0%；距大型綠地947m","2021面積_ha":0.72,"2022面積_ha":0.81,"2023面積_ha":0.9}},{"type":"Feature","geometry":{"type":"Polygon","coordinates":[[[121.55313803228783,24.630818274495173],[121.55317778403553,24.639846674671492],[121.56305558731279,24.639810007987403],[121.56301512582975,24.630781622998022],[121.55313803228783,24.630818274495173]]]},"properties":{"grid_id":"G036_024","綠地類型":"公園／都市綠地","中心經度":121.558097,"中心緯度":24.635314,"分析面積_km2":1.04,"2020面積_ha":0.81,"2024面積_ha":0.81,"面積減少率_pct":0.0,"2020斑塊數":1,"2024斑塊數":1,"斑塊數增加率_pct":0.0,"2020平均斑塊面積_ha":3.24,"2024平均斑塊面積_ha":3.51,"平均斑塊面積下降率_pct":0.0,"道路切割密度_km_per_km2":2.595,"建成區邊界切割密度_km_per_km2":0.0,"孤立小斑塊比例_pct":0.0,"距大型連續綠地平均距離_m":4710.2,"score_面積減少":29.87551867219917,"score_斑塊增加":42.531120331950206,"score_平均斑塊縮小":26.970954356846473,"score_道路建成區切割":16.390041493775932,"score_孤立比例":20.539419087136928,"score_距大型綠地":85.68464730290457,"綜合破碎化分數":37.0,"破碎化等級":"低","判定原因":"面積減少0.0%；斑塊增加0.0%；平均斑塊縮小0.0%；道路密度2.60 km/km²；孤立比例0.0%；距大型綠地4710m","2021面積_ha":0.81,"2022面積_ha":0.81,"2023面積_ha":0.81}},{"type":"Feature","geometry":{"type":"Polygon","coordinates":[[[121.58276925342214,24.630706374205396],[121.58281113435713,24.639734728014666],[121.59268887743232,24.639696114736417],[121.59264628678099,24.63066777692031],[121.58276925342214,24.630706374205396]]]},"properties":{"grid_id":"G036_027","綠地類型":"公園／都市綠地","中心經度":121.587729,"中心緯度":24.635201,"分析面積_km2":1.04,"2020面積_ha":0.81,"2024面積_ha":0.81,"面積減少率_pct":0.0,"2020斑塊數":1,"2024斑塊數":1,"斑塊數增加率_pct":0.0,"2020平均斑塊面積_ha":5.76,"2024平均斑塊面積_ha":5.67,"平均斑塊面積下降率_pct":1.56,"道路切割密度_km_per_km2":1.874,"建成區邊界切割密度_km_per_km2":0.115,"孤立小斑塊比例_pct":0.0,"距大型連續綠地平均距離_m":1760.8,"score_面積減少":29.87551867219917,"score_斑塊增加":42.531120331950206,"score_平均斑塊縮小":56.84647302904564,"score_道路建成區切割":34.232365145228215,"score_孤立比例":20.539419087136928,"score_距大型綠地":47.30290456431535,"綜合破碎化分數":38.6,"破碎化等級":"低","判定原因":"面積減少0.0%；斑塊增加0.0%；平均斑塊縮小1.6%；道路密度1.87 km/km²；孤立比例0.0%；距大型綠地1761m","2021面積_ha":0.63,"2022面積_ha":0.45,"2023面積_ha":0.54}},{"type":"Feature","geometry":{"type":"Polygon","coordinates":[[[121.6124002908951,24.630588636599263],[121.61244430095937,24.639616941622833],[121.62232198071939,24.639576381798438],[121.62227726095877,24.63054809357424],[121.6124002908951,24.630588636599263]]]},"properties":{"grid_id":"G036_030","綠地類型":"公園／都市綠地","中心經度":121.617361,"中心緯度":24.635083,"分析面積_km2":1.04,"2020面積_ha":6.75,"2024面積_ha":6.57,"面積減少率_pct":2.67,"2020斑塊數":2,"2024斑塊數":2,"斑塊數增加率_pct":0.0,"2020平均斑塊面積_ha":10.44,"2024平均斑塊面積_ha":10.125,"平均斑塊面積下降率_pct":3.02,"道路切割密度_km_per_km2":3.835,"建成區邊界切割密度_km_per_km2":0.0,"孤立小斑塊比例_pct":0.0,"距大型連續綠地平均距離_m":294.0,"score_面積減少":62.655601659751035,"score_斑塊增加":42.531120331950206,"score_平均斑塊縮小":58.09128630705395,"score_道路建成區切割":20.539419087136928,"score_孤立比例":20.539419087136928,"score_距大型綠地":28.63070539419087,"綜合破碎化分數":38.8,"破碎化等級":"低","判定原因":"面積減少2.7%；斑塊增加0.0%；平均斑塊縮小3.0%；道路密度3.83 km/km²；孤立比例0.0%；距大型綠地294m","2021面積_ha":6.66,"2022面積_ha":6.66,"2023面積_ha":6.66}},{"type":"Feature","geometry":{"type":"Polygon","coordinates":[[[121.78030558342573,24.6298112038857],[121.78036165731791,24.638839186774796],[121.79023891949447,24.638787597545846],[121.79018213603773,24.629759636024104],[121.78030558342573,24.6298112038857]]]},"properties":{"grid_id":"G036_047","綠地類型":"公園／都市綠地","中心經度":121.785272,"中心緯度":24.634299,"分析面積_km2":1.04,"2020面積_ha":0.9,"2024面積_ha":1.62,"面積減少率_pct":0.0,"2020斑塊數":1,"2024斑塊數":1,"斑塊數增加率_pct":0.0,"2020平均斑塊面積_ha":3.06,"2024平均斑塊面積_ha":4.14,"平均斑塊面積下降率_pct":0.0,"道路切割密度_km_per_km2":11.938,"建成區邊界切割密度_km_per_km2":0.173,"孤立小斑塊比例_pct":0.0,"距大型連續綠地平均距離_m":3031.4,"score_面積減少":29.87551867219917,"score_斑塊增加":42.531120331950206,"score_平均斑塊縮小":26.970954356846473,"score_道路建成區切割":74.68879668049792,"score_孤立比例":20.539419087136928,"score_距大型綠地":66.39004149377593,"綜合破碎化分數":43.5,"破碎化等級":"低","判定原因":"面積減少0.0%；斑塊增加0.0%；平均斑塊縮小0.0%；道路密度11.94 km/km²；孤立比例0.0%；距大型綠地3031m","2021面積_ha":1.26,"2022面積_ha":0.81,"2023面積_ha":1.8}},{"type":"Feature","geometry":{"type":"Polygon","coordinates":[[[121.84944085859371,24.629436611450217],[121.83956447717183,24.629492069961795],[121.83962480831792,24.638519920616734],[121.84733666446543,24.638476657189166],[121.84750799999999,24.6378786],[121.8476939,24.637401100000005],[121.8479269,24.636885899999996],[121.8480878,24.6365885],[121.84838679999999,24.635909099999996],[121.84855380000002,24.635405199999997],[121.8486578,24.635048600000005],[121.849118,24.6340978],[121.84928050000002,24.633355099999996],[121.8494643368071,24.63290952832115],[121.84944085859371,24.629436611450217]]]},"properties":{"grid_id":"G036_053","綠地類型":"公園／都市綠地","中心經度":121.844396,"中心緯度":24.633753,"分析面積_km2":0.971,"2020面積_ha":5.94,"2024面積_ha":6.66,"面積減少率_pct":0.0,"2020斑塊數":2,"2024斑塊數":2,"斑塊數增加率_pct":0.0,"2020平均斑塊面積_ha":6.21,"2024平均斑塊面積_ha":6.66,"平均斑塊面積下降率_pct":0.0,"道路切割密度_km_per_km2":7.6,"建成區邊界切割密度_km_per_km2":0.34,"孤立小斑塊比例_pct":4.05,"距大型連續綠地平均距離_m":36.8,"score_面積減少":29.87551867219917,"score_斑塊增加":42.531120331950206,"score_平均斑塊縮小":26.970954356846473,"score_道路建成區切割":69.08713692946058,"score_孤立比例":45.22821576763486,"score_距大型綠地":22.40663900414938,"綜合破碎化分數":39.3,"破碎化等級":"低","判定原因":"面積減少0.0%；斑塊增加0.0%；平均斑塊縮小0.0%；道路密度7.60 km/km²；孤立比例4.0%；距大型綠地37m","2021面積_ha":5.58,"2022面積_ha":6.21,"2023面積_ha":6.93}},{"type":"Feature","geometry":{"type":"Polygon","coordinates":[[[121.55317778403553,24.639846674671492],[121.55321755515874,24.648875063947845],[121.56309606851731,24.6488383820747],[121.56305558731279,24.639810007987403],[121.55317778403553,24.639846674671492]]]},"properties":{"grid_id":"G037_024","綠地類型":"公園／都市綠地","中心經度":121.558137,"中心緯度":24.644343,"分析面積_km2":1.04,"2020面積_ha":2.7,"2024面積_ha":2.97,"面積減少率_pct":0.0,"2020斑塊數":1,"2024斑塊數":1,"斑塊數增加率_pct":0.0,"2020平均斑塊面積_ha":3.24,"2024平均斑塊面積_ha":3.51,"平均斑塊面積下降率_pct":0.0,"道路切割密度_km_per_km2":0.923,"建成區邊界切割密度_km_per_km2":0.0,"孤立小斑塊比例_pct":0.0,"距大型連續綠地平均距離_m":4485.8,"score_面積減少":29.87551867219917,"score_斑塊增加":42.531120331950206,"score_平均斑塊縮小":26.970954356846473,"score_道路建成區切割":10.995850622406639,"score_孤立比例":20.539419087136928,"score_距大型綠地":84.23236514522821,"綜合破碎化分數":35.9,"破碎化等級":"低","判定原因":"面積減少0.0%；斑塊增加0.0%；平均斑塊縮小0.0%；道路密度0.92 km/km²；孤立比例0.0%；距大型綠地4486m","2021面積_ha":3.06,"2022面積_ha":2.79,"2023面積_ha":2.97}},{"type":"Feature","geometry":{"type":"Polygon","coordinates":[[[121.58281113435713,24.639734728014666],[121.58285303570537,24.648763070917504],[121.59273148884283,24.64872444164385],[121.59268887743232,24.639696114736417],[121.58281113435713,24.639734728014666]]]},"properties":{"grid_id":"G037_027","綠地類型":"公園／都市綠地","中心經度":121.587771,"中心緯度":24.64423,"分析面積_km2":1.04,"2020面積_ha":11.25,"2024面積_ha":11.25,"面積減少率_pct":0.0,"2020斑塊數":3,"2024斑塊數":3,"斑塊數增加率_pct":0.0,"2020平均斑塊面積_ha":3.84,"2024平均斑塊面積_ha":3.84,"平均斑塊面積下降率_pct":0.0,"道路切割密度_km_per_km2":4.123,"建成區邊界切割密度_km_per_km2":0.404,"孤立小斑塊比例_pct":3.2,"距大型連續綠地平均距離_m":1575.8,"score_面積減少":29.87551867219917,"score_斑塊增加":42.531120331950206,"score_平均斑塊縮小":26.970954356846473,"score_道路建成區切割":55.91286307053942,"score_孤立比例":43.56846473029046,"score_距大型綠地":44.398340248962654,"綜合破碎化分數":40.5,"破碎化等級":"低","判定原因":"面積減少0.0%；斑塊增加0.0%；平均斑塊縮小0.0%；道路密度4.12 km/km²；孤立比例3.2%；距大型綠地1576m","2021面積_ha":11.25,"2022面積_ha":10.62,"2023面積_ha":10.71}},{"type":"Feature","geometry":{"type":"Polygon","coordinates":[[[121.79023891949447,24.638787597545846],[121.7902957306274,24.647815548106365],[121.80017367502927,24.6477632885097],[121.80011615399475,24.638735359588225],[121.79023891949447,24.638787597545846]]]},"properties":{"grid_id":"G037_048","綠地類型":"公園／都市綠地","中心經度":121.795206,"中心緯度":24.643276,"分析面積_km2":1.04,"2020面積_ha":0.9,"2024面積_ha":0.99,"面積減少率_pct":0.0,"2020斑塊數":1,"2024斑塊數":1,"斑塊數增加率_pct":0.0,"2020平均斑塊面積_ha":3.06,"2024平均斑塊面積_ha":4.14,"平均斑塊面積下降率_pct":0.0,"道路切割密度_km_per_km2":10.438,"建成區邊界切割密度_km_per_km2":0.0,"孤立小斑塊比例_pct":0.0,"距大型連續綠地平均距離_m":3200.6,"score_面積減少":29.87551867219917,"score_斑塊增加":42.531120331950206,"score_平均斑塊縮小":26.970954356846473,"score_道路建成區切割":46.058091286307054,"score_孤立比例":20.539419087136928,"score_距大型綠地":72.19917012448133,"綜合破碎化分數":39.7,"破碎化等級":"低","判定原因":"面積減少0.0%；斑塊增加0.0%；平均斑塊縮小0.0%；道路密度10.44 km/km²；孤立比例0.0%；距大型綠地3201m","2021面積_ha":0.99,"2022面積_ha":0.99,"2023面積_ha":0.99}},{"type":"Feature","geometry":{"type":"Polygon","coordinates":[[[121.83962480831792,24.638519920616734],[121.83968516886917,24.647547760294973],[121.84399244196538,24.647523637056324],[121.84403789999999,24.647368499999995],[121.8440462,24.647336399999997],[121.8441652,24.6468746],[121.84433790000001,24.646338699999998],[121.8448215,24.645137899999998],[121.84497280000001,24.644705899999998],[121.845372,24.643566600000007],[121.8455876,24.6430673],[121.84597729999999,24.6420692],[121.8463579,24.6409486],[121.8466569,24.640274499999993],[121.84719590000002,24.638968000000002],[121.84733666446543,24.638476657189166],[121.83962480831792,24.638519920616734]]]},"properties":{"grid_id":"G037_053","綠地類型":"公園／都市綠地","中心經度":121.842717,"中心緯度":24.642585,"分析面積_km2":0.639,"2020面積_ha":5.85,"2024面積_ha":5.85,"面積減少率_pct":0.0,"2020斑塊數":1,"2024斑塊數":1,"斑塊數增加率_pct":0.0,"2020平均斑塊面積_ha":10.98,"2024平均斑塊面積_ha":11.52,"平均斑塊面積下降率_pct":0.0,"道路切割密度_km_per_km2":8.31,"建成區邊界切割密度_km_per_km2":0.516,"孤立小斑塊比例_pct":0.0,"距大型連續綠地平均距離_m":0.0,"score_面積減少":29.87551867219917,"score_斑塊增加":42.531120331950206,"score_平均斑塊縮小":26.970954356846473,"score_道路建成區切割":75.72614107883818,"score_孤立比例":20.539419087136928,"score_距大型綠地":9.95850622406639,"綜合破碎化分數":34.3,"破碎化等級":"低","判定原因":"面積減少0.0%；斑塊增加0.0%；平均斑塊縮小0.0%；道路密度8.31 km/km²；孤立比例0.0%；距大型綠地0m","2021面積_ha":5.49,"2022面積_ha":6.12,"2023面積_ha":6.39}},{"type":"Feature","geometry":{"type":"Polygon","coordinates":[[[121.46431010428155,24.64917598875857],[121.46434350067824,24.65820449175527],[121.47422288649283,24.658173639575935],[121.47418877961766,24.649145149350918],[121.46431010428155,24.64917598875857]]]},"properties":{"grid_id":"G038_015","綠地類型":"公園／都市綠地","中心經度":121.469266,"中心緯度":24.653675,"分析面積_km2":1.04,"2020面積_ha":3.87,"2024面積_ha":3.87,"面積減少率_pct":0.0,"2020斑塊數":2,"2024斑塊數":2,"斑塊數增加率_pct":0.0,"2020平均斑塊面積_ha":2.43,"2024平均斑塊面積_ha":2.43,"平均斑塊面積下降率_pct":0.0,"道路切割密度_km_per_km2":4.931,"建成區邊界切割密度_km_per_km2":0.0,"孤立小斑塊比例_pct":0.0,"距大型連續綠地平均距離_m":7515.3,"score_面積減少":29.87551867219917,"score_斑塊增加":42.531120331950206,"score_平均斑塊縮小":26.970954356846473,"score_道路建成區切割":25.622406639004147,"score_孤立比例":20.539419087136928,"score_距大型綠地":95.0207468879668,"綜合破碎化分數":40.1,"破碎化等級":"低","判定原因":"面積減少0.0%；斑塊增加0.0%；平均斑塊縮小0.0%；道路密度4.93 km/km²；孤立比例0.0%；距大型綠地7515m","2021面積_ha":3.87,"2022面積_ha":3.87,"2023面積_ha":3.87}},{"type":"Feature","geometry":{"type":"Polygon","coordinates":[[[121.47418877961766,24.649145149350918],[121.47422288649283,24.658173639575935],[121.48410225568885,24.65814213794669],[121.48406743834043,24.649113660762193],[121.47418877961766,24.649145149350918]]]},"properties":{"grid_id":"G038_016","綠地類型":"公園／都市綠地","中心經度":121.479145,"中心緯度":24.653644,"分析面積_km2":1.04,"2020面積_ha":1.26,"2024面積_ha":1.26,"面積減少率_pct":0.0,"2020斑塊數":1,"2024斑塊數":1,"斑塊數增加率_pct":0.0,"2020平均斑塊面積_ha":2.79,"2024平均斑塊面積_ha":2.79,"平均斑塊面積下降率_pct":0.0,"道路切割密度_km_per_km2":5.277,"建成區邊界切割密度_km_per_km2":0.0,"孤立小斑塊比例_pct":0.0,"距大型連續綠地平均距離_m":7521.5,"score_面積減少":29.87551867219917,"score_斑塊增加":42.531120331950206,"score_平均斑塊縮小":26.970954356846473,"score_道路建成區切割":26.970954356846473,"score_孤立比例":20.539419087136928,"score_距大型綠地":95.4356846473029,"綜合破碎化分數":40.4,"破碎化等級":"低","判定原因":"面積減少0.0%；斑塊增加0.0%；平均斑塊縮小0.0%；道路密度5.28 km/km²；孤立比例0.0%；距大型綠地7522m","2021面積_ha":1.26,"2022面積_ha":1.26,"2023面積_ha":1.26}},{"type":"Feature","geometry":{"type":"Polygon","coordinates":[[[121.57297456214818,24.648801051062865],[121.57301577350141,24.657829398785122],[121.58289495747333,24.657791402910934],[121.58285303570537,24.648763070917504],[121.57297456214818,24.648801051062865]]]},"properties":{"grid_id":"G038_026","綠地類型":"公園／都市綠地","中心經度":121.577935,"中心緯度":24.653296,"分析面積_km2":1.04,"2020面積_ha":1.8,"2024面積_ha":2.43,"面積減少率_pct":0.0,"2020斑塊數":1,"2024斑塊數":1,"斑塊數增加率_pct":0.0,"2020平均斑塊面積_ha":1.89,"2024平均斑塊面積_ha":2.52,"平均斑塊面積下降率_pct":0.0,"道路切割密度_km_per_km2":7.987,"建成區邊界切割密度_km_per_km2":0.26,"孤立小斑塊比例_pct":0.0,"距大型連續綠地平均距離_m":2760.3,"score_面積減少":29.87551867219917,"score_斑塊增加":42.531120331950206,"score_平均斑塊縮小":26.970954356846473,"score_道路建成區切割":67.21991701244814,"score_孤立比例":20.539419087136928,"score_距大型綠地":61.41078838174274,"綜合破碎化分數":41.4,"破碎化等級":"低","判定原因":"面積減少0.0%；斑塊增加0.0%；平均斑塊縮小0.0%；道路密度7.99 km/km²；孤立比例0.0%；距大型綠地2760m","2021面積_ha":1.71,"2022面積_ha":1.71,"2023面積_ha":2.25}},{"type":"Feature","geometry":{"type":"Polygon","coordinates":[[[121.58285303570537,24.648763070917504],[121.58289495747333,24.657791402910934],[121.59277412101903,24.657752757639653],[121.59273148884283,24.64872444164385],[121.58285303570537,24.648763070917504]]]},"properties":{"grid_id":"G038_027","綠地類型":"公園／都市綠地","中心經度":121.587813,"中心緯度":24.653258,"分析面積_km2":1.04,"2020面積_ha":0.9,"2024面積_ha":0.99,"面積減少率_pct":0.0,"2020斑塊數":2,"2024斑塊數":2,"斑塊數增加率_pct":0.0,"2020平均斑塊面積_ha":1.35,"2024平均斑塊面積_ha":1.71,"平均斑塊面積下降率_pct":0.0,"道路切割密度_km_per_km2":0.779,"建成區邊界切割密度_km_per_km2":0.0,"孤立小斑塊比例_pct":90.91,"距大型連續綠地平均距離_m":2643.4,"score_面積減少":29.87551867219917,"score_斑塊增加":42.531120331950206,"score_平均斑塊縮小":26.970954356846473,"score_道路建成區切割":10.269709543568464,"score_孤立比例":60.16597510373444,"score_距大型綠地":57.676348547717836,"綜合破碎化分數":37.9,"破碎化等級":"低","判定原因":"面積減少0.0%；斑塊增加0.0%；平均斑塊縮小0.0%；道路密度0.78 km/km²；孤立比例90.9%；距大型綠地2643m","2021面積_ha":0.99,"2022面積_ha":0.99,"2023面積_ha":0.99}},{"type":"Feature","geometry":{"type":"Polygon","coordinates":[[[121.61248833247456,24.64864523573315],[121.61253238544751,24.65767351892724],[121.62241148563804,24.65763292549706],[121.62236672227682,24.648604659107033],[121.61248833247456,24.64864523573315]]]},"properties":{"grid_id":"G038_030","綠地類型":"公園／都市綠地","中心經度":121.61745,"中心緯度":24.653139,"分析面積_km2":1.04,"2020面積_ha":1.35,"2024面積_ha":1.35,"面積減少率_pct":0.0,"2020斑塊數":1,"2024斑塊數":1,"斑塊數增加率_pct":0.0,"2020平均斑塊面積_ha":1.35,"2024平均斑塊面積_ha":1.35,"平均斑塊面積下降率_pct":0.0,"道路切割密度_km_per_km2":5.623,"建成區邊界切割密度_km_per_km2":0.0,"孤立小斑塊比例_pct":100.0,"距大型連續綠地平均距離_m":1916.4,"score_面積減少":29.87551867219917,"score_斑塊增加":42.531120331950206,"score_平均斑塊縮小":26.970954356846473,"score_道路建成區切割":28.63070539419087,"score_孤立比例":80.29045643153528,"score_距大型綠地":48.54771784232365,"綜合破碎化分數":42.8,"破碎化等級":"低","判定原因":"面積減少0.0%；斑塊增加0.0%；平均斑塊縮小0.0%；道路密度5.62 km/km²；孤立比例100.0%；距大型綠地1916m","2021面積_ha":1.44,"2022面積_ha":1.44,"2023面積_ha":1.62}},{"type":"Feature","geometry":{"type":"Polygon","coordinates":[[[121.59277412101903,24.657752757639653],[121.59281677396756,24.666781062720858],[121.6026966274888,24.666741751789097],[121.60265326379248,24.657713462976616],[121.59277412101903,24.657752757639653]]]},"properties":{"grid_id":"G039_028","綠地類型":"公園／都市綠地","中心經度":121.597735,"中心緯度":24.662247,"分析面積_km2":1.04,"2020面積_ha":1.17,"2024面積_ha":1.44,"面積減少率_pct":0.0,"2020斑塊數":2,"2024斑塊數":2,"斑塊數增加率_pct":0.0,"2020平均斑塊面積_ha":0.81,"2024平均斑塊面積_ha":0.945,"平均斑塊面積下降率_pct":0.0,"道路切割密度_km_per_km2":1.932,"建成區邊界切割密度_km_per_km2":0.115,"孤立小斑塊比例_pct":100.0,"距大型連續綠地平均距離_m":1636.0,"score_面積減少":29.87551867219917,"score_斑塊增加":42.531120331950206,"score_平均斑塊縮小":26.970954356846473,"score_道路建成區切割":34.75103734439834,"score_孤立比例":80.29045643153528,"score_距大型綠地":45.22821576763486,"綜合破碎化分數":43.3,"破碎化等級":"低","判定原因":"面積減少0.0%；斑塊增加0.0%；平均斑塊縮小0.0%；道路密度1.93 km/km²；孤立比例100.0%；距大型綠地1636m","2021面積_ha":1.44,"2022面積_ha":1.17,"2023面積_ha":1.26}},{"type":"Feature","geometry":{"type":"Polygon","coordinates":[[[121.6026966274888,24.666741751789097],[121.6027400123102,24.675770029681754],[121.61262055579375,24.67573005255493],[121.61257645988498,24.666701791202158],[121.6026966274888,24.666741751789097]]]},"properties":{"grid_id":"G040_029","綠地類型":"公園／都市綠地","中心經度":121.607658,"中心緯度":24.671236,"分析面積_km2":1.04,"2020面積_ha":1.17,"2024面積_ha":2.16,"面積減少率_pct":0.0,"2020斑塊數":3,"2024斑塊數":2,"斑塊數增加率_pct":0.0,"2020平均斑塊面積_ha":9.81,"2024平均斑塊面積_ha":12.87,"平均斑塊面積下降率_pct":0.0,"道路切割密度_km_per_km2":5.998,"建成區邊界切割密度_km_per_km2":0.346,"孤立小斑塊比例_pct":0.0,"距大型連續綠地平均距離_m":135.3,"score_面積減少":29.87551867219917,"score_斑塊增加":42.531120331950206,"score_平均斑塊縮小":26.970954356846473,"score_道路建成區切割":62.96680497925311,"score_孤立比例":20.539419087136928,"score_距大型綠地":25.72614107883817,"綜合破碎化分數":34.8,"破碎化等級":"低","判定原因":"面積減少0.0%；斑塊增加0.0%；平均斑塊縮小0.0%；道路密度6.00 km/km²；孤立比例0.0%；距大型綠地135m","2021面積_ha":0.81,"2022面積_ha":1.44,"2023面積_ha":1.98}},{"type":"Feature","geometry":{"type":"Polygon","coordinates":[[[121.62245627080986,24.666661180965566],[121.6225010777992,24.675689425509574],[121.63238157798024,24.675648148551293],[121.63233605991721,24.66661992108493],[121.62245627080986,24.666661180965566]]]},"properties":{"grid_id":"G040_031","綠地類型":"公園／都市綠地","中心經度":121.627419,"中心緯度":24.671155,"分析面積_km2":1.04,"2020面積_ha":5.31,"2024面積_ha":5.58,"面積減少率_pct":0.0,"2020斑塊數":5,"2024斑塊數":3,"斑塊數增加率_pct":0.0,"2020平均斑塊面積_ha":1.746,"2024平均斑塊面積_ha":3.03,"平均斑塊面積下降率_pct":0.0,"道路切割密度_km_per_km2":6.747,"建成區邊界切割密度_km_per_km2":0.26,"孤立小斑塊比例_pct":27.42,"距大型連續綠地平均距離_m":980.3,"score_面積減少":29.87551867219917,"score_斑塊增加":42.531120331950206,"score_平均斑塊縮小":26.970954356846473,"score_道路建成區切割":63.48547717842324,"score_孤立比例":54.77178423236515,"score_距大型綠地":37.75933609958506,"綜合破碎化分數":42.6,"破碎化等級":"低","判定原因":"面積減少0.0%；斑塊增加0.0%；平均斑塊縮小0.0%；道路密度6.75 km/km²；孤立比例27.4%；距大型綠地980m","2021面積_ha":4.86,"2022面積_ha":5.31,"2023面積_ha":5.94}},{"type":"Feature","geometry":{"type":"Polygon","coordinates":[[[121.59285944769493,24.675809356884507],[121.5929021422077,24.684837640127647],[121.6027834182634,24.68479829665162],[121.6027400123102,24.675770029681754],[121.59285944769493,24.675809356884507]]]},"properties":{"grid_id":"G041_028","綠地類型":"公園／都市綠地","中心經度":121.597821,"中心緯度":24.680304,"分析面積_km2":1.04,"2020面積_ha":0.18,"2024面積_ha":0.27,"面積減少率_pct":0.0,"2020斑塊數":1,"2024斑塊數":1,"斑塊數增加率_pct":0.0,"2020平均斑塊面積_ha":0.18,"2024平均斑塊面積_ha":0.27,"平均斑塊面積下降率_pct":0.0,"道路切割密度_km_per_km2":5.392,"建成區邊界切割密度_km_per_km2":0.058,"孤立小斑塊比例_pct":100.0,"距大型連續綠地平均距離_m":846.0,"score_面積減少":29.87551867219917,"score_斑塊增加":42.531120331950206,"score_平均斑塊縮小":26.970954356846473,"score_道路建成區切割":42.11618257261411,"score_孤立比例":80.29045643153528,"score_距大型綠地":34.024896265560166,"綜合破碎化分數":42.6,"破碎化等級":"低","判定原因":"面積減少0.0%；斑塊增加0.0%；平均斑塊縮小0.0%；道路密度5.39 km/km²；孤立比例100.0%；距大型綠地846m","2021面積_ha":0.27,"2022面積_ha":0.18,"2023面積_ha":0.18}},{"type":"Feature","geometry":{"type":"Polygon","coordinates":[[[121.6225010777992,24.675689425509574],[121.62254590661297,24.684717659126136],[121.63242711821398,24.684676365087824],[121.63238157798024,24.675648148551293],[121.6225010777992,24.675689425509574]]]},"properties":{"grid_id":"G041_031","綠地類型":"公園／都市綠地","中心經度":121.627464,"中心緯度":24.680183,"分析面積_km2":1.04,"2020面積_ha":5.49,"2024面積_ha":5.49,"面積減少率_pct":0.0,"2020斑塊數":4,"2024斑塊數":4,"斑塊數增加率_pct":0.0,"2020平均斑塊面積_ha":4.928,"2024平均斑塊面積_ha":3.06,"平均斑塊面積下降率_pct":37.9,"道路切割密度_km_per_km2":2.797,"建成區邊界切割密度_km_per_km2":0.029,"孤立小斑塊比例_pct":39.34,"距大型連續綠地平均距離_m":485.7,"score_面積減少":29.87551867219917,"score_斑塊增加":42.531120331950206,"score_平均斑塊縮小":75.10373443983403,"score_道路建成區切割":27.178423236514526,"score_孤立比例":56.84647302904564,"score_距大型綠地":31.12033195020747,"綜合破碎化分數":43.8,"破碎化等級":"低","判定原因":"面積減少0.0%；斑塊增加0.0%；平均斑塊縮小37.9%；道路密度2.80 km/km²；孤立比例39.3%；距大型綠地486m","2021面積_ha":5.49,"2022面積_ha":5.31,"2023面積_ha":5.58}},{"type":"Feature","geometry":{"type":"Polygon","coordinates":[[[121.74106554051491,24.675151209452906],[121.74111890588159,24.68417922036139],[121.7509998284864,24.684130124611848],[121.7509457517911,24.67510213401016],[121.74106554051491,24.675151209452906]]]},"properties":{"grid_id":"G041_043","綠地類型":"公園／都市綠地","中心經度":121.746033,"中心緯度":24.679641,"分析面積_km2":1.04,"2020面積_ha":1.98,"2024面積_ha":2.52,"面積減少率_pct":0.0,"2020斑塊數":1,"2024斑塊數":1,"斑塊數增加率_pct":0.0,"2020平均斑塊面積_ha":26.01,"2024平均斑塊面積_ha":21.33,"平均斑塊面積下降率_pct":17.99,"道路切割密度_km_per_km2":10.352,"建成區邊界切割密度_km_per_km2":0.231,"孤立小斑塊比例_pct":0.0,"距大型連續綠地平均距離_m":0.0,"score_面積減少":29.87551867219917,"score_斑塊增加":42.531120331950206,"score_平均斑塊縮小":66.59751037344398,"score_道路建成區切割":73.13278008298755,"score_孤立比例":20.539419087136928,"score_距大型綠地":9.95850622406639,"綜合破碎化分數":40.4,"破碎化等級":"低","判定原因":"面積減少0.0%；斑塊增加0.0%；平均斑塊縮小18.0%；道路密度10.35 km/km²；孤立比例0.0%；距大型綠地0m","2021面積_ha":1.98,"2022面積_ha":2.07,"2023面積_ha":2.61}},{"type":"Feature","geometry":{"type":"Polygon","coordinates":[[[121.62254590661297,24.684717659126136],[121.62259075725807,24.693745881812273],[121.63247268062551,24.693704570691537],[121.63242711821398,24.684676365087824],[121.62254590661297,24.684717659126136]]]},"properties":{"grid_id":"G042_031","綠地類型":"公園／都市綠地","中心經度":121.627509,"中心緯度":24.689211,"分析面積_km2":1.04,"2020面積_ha":3.78,"2024面積_ha":4.14,"面積減少率_pct":0.0,"2020斑塊數":2,"2024斑塊數":1,"斑塊數增加率_pct":0.0,"2020平均斑塊面積_ha":1.89,"2024平均斑塊面積_ha":4.14,"平均斑塊面積下降率_pct":0.0,"道路切割密度_km_per_km2":3.777,"建成區邊界切割密度_km_per_km2":0.144,"孤立小斑塊比例_pct":0.0,"距大型連續綠地平均距離_m":914.7,"score_面積減少":29.87551867219917,"score_斑塊增加":42.531120331950206,"score_平均斑塊縮小":26.970954356846473,"score_道路建成區切割":43.15352697095435,"score_孤立比例":20.539419087136928,"score_距大型綠地":35.684647302904565,"綜合破碎化分數":33.1,"破碎化等級":"低","判定原因":"面積減少0.0%；斑塊增加0.0%；平均斑塊縮小0.0%；道路密度3.78 km/km²；孤立比例0.0%；距大型綠地915m","2021面積_ha":3.69,"2022面積_ha":3.96,"2023面積_ha":3.51}},{"type":"Feature","geometry":{"type":"Polygon","coordinates":[[[121.63242711821398,24.684676365087824],[121.63247268062551,24.693704570691537],[121.64235458180816,24.693662609125717],[121.64230830763725,24.684634420873373],[121.63242711821398,24.684676365087824]]]},"properties":{"grid_id":"G042_032","綠地類型":"公園／都市綠地","中心經度":121.637391,"中心緯度":24.68917,"分析面積_km2":1.04,"2020面積_ha":3.6,"2024面積_ha":3.78,"面積減少率_pct":0.0,"2020斑塊數":2,"2024斑塊數":2,"斑塊數增加率_pct":0.0,"2020平均斑塊面積_ha":6.885,"2024平均斑塊面積_ha":6.75,"平均斑塊面積下降率_pct":1.96,"道路切割密度_km_per_km2":1.298,"建成區邊界切割密度_km_per_km2":0.087,"孤立小斑塊比例_pct":19.05,"距大型連續綠地平均距離_m":200.9,"score_面積減少":29.87551867219917,"score_斑塊增加":42.531120331950206,"score_平均斑塊縮小":57.26141078838174,"score_道路建成區切割":30.809128630705395,"score_孤立比例":51.037344398340245,"score_距大型綠地":27.385892116182575,"綜合破碎化分數":39.8,"破碎化等級":"低","判定原因":"面積減少0.0%；斑塊增加0.0%；平均斑塊縮小2.0%；道路密度1.30 km/km²；孤立比例19.1%；距大型綠地201m","2021面積_ha":3.78,"2022面積_ha":3.15,"2023面積_ha":3.69}},{"type":"Feature","geometry":{"type":"Polygon","coordinates":[[[121.64230830763725,24.684634420873373],[121.64235458180816,24.693662609125717],[121.65223646045953,24.69361999712061],[121.65218947453634,24.68459182648859],[121.64230830763725,24.684634420873373]]]},"properties":{"grid_id":"G042_033","綠地類型":"公園／都市綠地","中心經度":121.647272,"中心緯度":24.689127,"分析面積_km2":1.04,"2020面積_ha":2.88,"2024面積_ha":5.4,"面積減少率_pct":0.0,"2020斑塊數":8,"2024斑塊數":2,"斑塊數增加率_pct":0.0,"2020平均斑塊面積_ha":1.811,"2024平均斑塊面積_ha":7.515,"平均斑塊面積下降率_pct":0.0,"道路切割密度_km_per_km2":3.604,"建成區邊界切割密度_km_per_km2":0.461,"孤立小斑塊比例_pct":0.0,"距大型連續綠地平均距離_m":159.4,"score_面積減少":29.87551867219917,"score_斑塊增加":42.531120331950206,"score_平均斑塊縮小":26.970954356846473,"score_道路建成區切割":54.97925311203319,"score_孤立比例":20.539419087136928,"score_距大型綠地":26.141078838174277,"綜合破碎化分數":33.5,"破碎化等級":"低","判定原因":"面積減少0.0%；斑塊增加0.0%；平均斑塊縮小0.0%；道路密度3.60 km/km²；孤立比例0.0%；距大型綠地159m","2021面積_ha":3.06,"2022面積_ha":1.62,"2023面積_ha":4.23}},{"type":"Feature","geometry":{"type":"Polygon","coordinates":[[[121.7509998284864,24.684130124611848],[121.75105393151625,24.6931581042491],[121.7609355394531,24.693108337820355],[121.76088072475663,24.684080378761657],[121.7509998284864,24.684130124611848]]]},"properties":{"grid_id":"G042_044","綠地類型":"公園／都市綠地","中心經度":121.755968,"中心緯度":24.688619,"分析面積_km2":1.04,"2020面積_ha":9.18,"2024面積_ha":9.18,"面積減少率_pct":0.0,"2020斑塊數":1,"2024斑塊數":1,"斑塊數增加率_pct":0.0,"2020平均斑塊面積_ha":26.01,"2024平均斑塊面積_ha":21.33,"平均斑塊面積下降率_pct":17.99,"道路切割密度_km_per_km2":12.601,"建成區邊界切割密度_km_per_km2":0.721,"孤立小斑塊比例_pct":0.0,"距大型連續綠地平均距離_m":0.0,"score_面積減少":29.87551867219917,"score_斑塊增加":42.531120331950206,"score_平均斑塊縮小":66.59751037344398,"score_道路建成區切割":91.18257261410788,"score_孤立比例":20.539419087136928,"score_距大型綠地":9.95850622406639,"綜合破碎化分數":43.4,"破碎化等級":"低","判定原因":"面積減少0.0%；斑塊增加0.0%；平均斑塊縮小18.0%；道路密度12.60 km/km²；孤立比例0.0%；距大型綠地0m","2021面積_ha":9.54,"2022面積_ha":9.09,"2023面積_ha":9.18}},{"type":"Feature","geometry":{"type":"Polygon","coordinates":[[[121.83004623218645,24.68371395558122],[121.83010602830687,24.692741763060713],[121.83661247410815,24.692705641512763],[121.83662280000001,24.691715200000004],[121.83664230000001,24.6891075],[121.83687000000002,24.686060000000005],[121.83701580000002,24.684188300000002],[121.83701714881374,24.683675257874857],[121.83004623218645,24.68371395558122]]]},"properties":{"grid_id":"G042_052","綠地類型":"公園／都市綠地","中心經度":121.833414,"中心緯度":24.687602,"分析面積_km2":0.698,"2020面積_ha":0.9,"2024面積_ha":0.99,"面積減少率_pct":0.0,"2020斑塊數":1,"2024斑塊數":1,"斑塊數增加率_pct":0.0,"2020平均斑塊面積_ha":16.11,"2024平均斑塊面積_ha":16.11,"平均斑塊面積下降率_pct":0.0,"道路切割密度_km_per_km2":5.591,"建成區邊界切割密度_km_per_km2":0.301,"孤立小斑塊比例_pct":0.0,"距大型連續綠地平均距離_m":0.0,"score_面積減少":29.87551867219917,"score_斑塊增加":42.531120331950206,"score_平均斑塊縮小":26.970954356846473,"score_道路建成區切割":59.54356846473029,"score_孤立比例":20.539419087136928,"score_距大型綠地":9.95850622406639,"綜合破碎化分數":31.6,"破碎化等級":"低","判定原因":"面積減少0.0%；斑塊增加0.0%；平均斑塊縮小0.0%；道路密度5.59 km/km²；孤立比例0.0%；距大型綠地0m","2021面積_ha":0.99,"2022面積_ha":0.9,"2023面積_ha":1.26}},{"type":"Feature","geometry":{"type":"Polygon","coordinates":[[[121.83010602830687,24.692741763060713],[121.83016585354184,24.701769559548726],[121.83661396943673,24.70173375086719],[121.83660279999998,24.701291100000002],[121.83659550000002,24.698545099999997],[121.8365869,24.6951587],[121.83661247410815,24.692705641512763],[121.83010602830687,24.692741763060713]]]},"properties":{"grid_id":"G043_052","綠地類型":"公園／都市綠地","中心經度":121.833362,"中心緯度":24.69687,"分析面積_km2":0.673,"2020面積_ha":13.5,"2024面積_ha":13.41,"面積減少率_pct":0.67,"2020斑塊數":1,"2024斑塊數":1,"斑塊數增加率_pct":0.0,"2020平均斑塊面積_ha":16.11,"2024平均斑塊面積_ha":16.11,"平均斑塊面積下降率_pct":0.0,"道路切割密度_km_per_km2":4.857,"建成區邊界切割密度_km_per_km2":0.178,"孤立小斑塊比例_pct":0.0,"距大型連續綠地平均距離_m":0.0,"score_面積減少":59.75103734439834,"score_斑塊增加":42.531120331950206,"score_平均斑塊縮小":26.970954356846473,"score_道路建成區切割":50.829875518672196,"score_孤立比例":20.539419087136928,"score_距大型綠地":9.95850622406639,"綜合破碎化分數":35.1,"破碎化等級":"低","判定原因":"面積減少0.7%；斑塊增加0.0%；平均斑塊縮小0.0%；道路密度4.86 km/km²；孤立比例0.0%；距大型綠地0m","2021面積_ha":13.32,"2022面積_ha":13.5,"2023面積_ha":13.77}},{"type":"Feature","geometry":{"type":"Polygon","coordinates":[[[121.65228346926058,24.702648156811975],[121.65233050094672,24.71167630555971],[121.66221378125002,24.711633007335156],[121.66216603712567,24.7026048764817],[121.65228346926058,24.702648156811975]]]},"properties":{"grid_id":"G044_034","綠地類型":"公園／都市綠地","中心經度":121.657248,"中心緯度":24.707141,"分析面積_km2":1.04,"2020面積_ha":1.8,"2024面積_ha":1.8,"面積減少率_pct":0.0,"2020斑塊數":1,"2024斑塊數":1,"斑塊數增加率_pct":0.0,"2020平均斑塊面積_ha":1.8,"2024平均斑塊面積_ha":1.8,"平均斑塊面積下降率_pct":0.0,"道路切割密度_km_per_km2":2.105,"建成區邊界切割密度_km_per_km2":0.0,"孤立小斑塊比例_pct":100.0,"距大型連續綠地平均距離_m":2515.0,"score_面積減少":29.87551867219917,"score_斑塊增加":42.531120331950206,"score_平均斑塊縮小":26.970954356846473,"score_道路建成區切割":14.107883817427386,"score_孤立比例":80.29045643153528,"score_距大型綠地":56.016597510373444,"綜合破碎化分數":41.6,"破碎化等級":"低","判定原因":"面積減少0.0%；斑塊增加0.0%；平均斑塊縮小0.0%；道路密度2.10 km/km²；孤立比例100.0%；距大型綠地2515m","2021面積_ha":1.8,"2022面積_ha":1.8,"2023面積_ha":1.8}},{"type":"Feature","geometry":{"type":"Polygon","coordinates":[[[121.83016585354184,24.701769559548726],[121.83022570790058,24.710797345042227],[121.83698268886556,24.710759801369747],[121.83720759999999,24.709756000000002],[121.8371639,24.7081389],[121.83678969999998,24.706530399999995],[121.8367046,24.705325299999995],[121.83661396943673,24.70173375086719],[121.83016585354184,24.701769559548726]]]},"properties":{"grid_id":"G044_052","綠地類型":"公園／都市綠地","中心經度":121.83347,"中心緯度":24.705946,"分析面積_km2":0.698,"2020面積_ha":1.8,"2024面積_ha":1.8,"面積減少率_pct":0.0,"2020斑塊數":1,"2024斑塊數":1,"斑塊數增加率_pct":0.0,"2020平均斑塊面積_ha":16.11,"2024平均斑塊面積_ha":16.11,"平均斑塊面積下降率_pct":0.0,"道路切割密度_km_per_km2":0.0,"建成區邊界切割密度_km_per_km2":0.0,"孤立小斑塊比例_pct":0.0,"距大型連續綠地平均距離_m":0.0,"score_面積減少":29.87551867219917,"score_斑塊增加":42.531120331950206,"score_平均斑塊縮小":26.970954356846473,"score_道路建成區切割":8.609958506224066,"score_孤立比例":20.539419087136928,"score_距大型綠地":9.95850622406639,"綜合破碎化分數":23.1,"破碎化等級":"低","判定原因":"面積減少0.0%；斑塊增加0.0%；平均斑塊縮小0.0%；道路密度0.00 km/km²；孤立比例0.0%；距大型綠地0m","2021面積_ha":1.8,"2022面積_ha":1.8,"2023面積_ha":1.8}},{"type":"Feature","geometry":{"type":"Polygon","coordinates":[[[121.66221378125002,24.711633007335156],[121.66226154861344,24.72066112723952],[121.67214551845524,24.7206171598837],[121.67209703831422,24.711589058145183],[121.66221378125002,24.711633007335156]]]},"properties":{"grid_id":"G045_035","綠地類型":"公園／都市綠地","中心經度":121.667179,"中心緯度":24.716125,"分析面積_km2":1.04,"2020面積_ha":1.98,"2024面積_ha":2.43,"面積減少率_pct":0.0,"2020斑塊數":1,"2024斑塊數":1,"斑塊數增加率_pct":0.0,"2020平均斑塊面積_ha":1.98,"2024平均斑塊面積_ha":2.43,"平均斑塊面積下降率_pct":0.0,"道路切割密度_km_per_km2":3.374,"建成區邊界切割密度_km_per_km2":0.173,"孤立小斑塊比例_pct":0.0,"距大型連續綠地平均距離_m":3604.9,"score_面積減少":29.87551867219917,"score_斑塊增加":42.531120331950206,"score_平均斑塊縮小":26.970954356846473,"score_道路建成區切割":43.3609958506224,"score_孤立比例":20.539419087136928,"score_距大型綠地":77.17842323651453,"綜合破碎化分數":40.1,"破碎化等級":"低","判定原因":"面積減少0.0%；斑塊增加0.0%；平均斑塊縮小0.0%；道路密度3.37 km/km²；孤立比例0.0%；距大型綠地3605m","2021面積_ha":2.61,"2022面積_ha":2.07,"2023面積_ha":2.43}},{"type":"Feature","geometry":{"type":"Polygon","coordinates":[[[121.8005771076318,24.710958483710016],[121.80063485316165,24.719986324809916],[121.81051846113616,24.71993324085073],[121.81046000294327,24.710905421683115],[121.8005771076318,24.710958483710016]]]},"properties":{"grid_id":"G045_049","綠地類型":"公園／都市綠地","中心經度":121.805548,"中心緯度":24.715446,"分析面積_km2":1.04,"2020面積_ha":0.09,"2024面積_ha":0.18,"面積減少率_pct":0.0,"2020斑塊數":1,"2024斑塊數":1,"斑塊數增加率_pct":0.0,"2020平均斑塊面積_ha":0.09,"2024平均斑塊面積_ha":0.18,"平均斑塊面積下降率_pct":0.0,"道路切割密度_km_per_km2":2.249,"建成區邊界切割密度_km_per_km2":0.058,"孤立小斑塊比例_pct":100.0,"距大型連續綠地平均距離_m":656.1,"score_面積減少":29.87551867219917,"score_斑塊增加":42.531120331950206,"score_平均斑塊縮小":26.970954356846473,"score_道路建成區切割":29.87551867219917,"score_孤立比例":80.29045643153528,"score_距大型綠地":32.365145228215766,"綜合破碎化分數":40.3,"破碎化等級":"低","判定原因":"面積減少0.0%；斑塊增加0.0%；平均斑塊縮小0.0%；道路密度2.25 km/km²；孤立比例100.0%；距大型綠地656m","2021面積_ha":0.54,"2022面積_ha":0.81,"2023面積_ha":1.17}},{"type":"Feature","geometry":{"type":"Polygon","coordinates":[[[121.81046000294327,24.710905421683115],[121.81051846113616,24.71993324085073],[121.82040204066193,24.719879505757696],[121.82034286981511,24.710851708791377],[121.81046000294327,24.710905421683115]]]},"properties":{"grid_id":"G045_050","綠地類型":"公園／都市綠地","中心經度":121.815431,"中心緯度":24.715393,"分析面積_km2":1.04,"2020面積_ha":3.06,"2024面積_ha":4.86,"面積減少率_pct":0.0,"2020斑塊數":2,"2024斑塊數":1,"斑塊數增加率_pct":0.0,"2020平均斑塊面積_ha":1.53,"2024平均斑塊面積_ha":11.52,"平均斑塊面積下降率_pct":0.0,"道路切割密度_km_per_km2":3.604,"建成區邊界切割密度_km_per_km2":0.26,"孤立小斑塊比例_pct":0.0,"距大型連續綠地平均距離_m":0.0,"score_面積減少":29.87551867219917,"score_斑塊增加":42.531120331950206,"score_平均斑塊縮小":26.970954356846473,"score_道路建成區切割":48.44398340248963,"score_孤立比例":20.539419087136928,"score_距大型綠地":9.95850622406639,"綜合破碎化分數":29.7,"破碎化等級":"低","判定原因":"面積減少0.0%；斑塊增加0.0%；平均斑塊縮小0.0%；道路密度3.60 km/km²；孤立比例0.0%；距大型綠地0m","2021面積_ha":4.59,"2022面積_ha":4.86,"2023面積_ha":4.86}},{"type":"Feature","geometry":{"type":"Polygon","coordinates":[[[121.82034286981511,24.710851708791377],[121.82040204066193,24.719879505757696],[121.8302855913923,24.719825119538257],[121.83022570790058,24.710797345042227],[121.82034286981511,24.710851708791377]]]},"properties":{"grid_id":"G045_051","綠地類型":"公園／都市綠地","中心經度":121.825314,"中心緯度":24.715339,"分析面積_km2":1.04,"2020面積_ha":3.51,"2024面積_ha":7.74,"面積減少率_pct":0.0,"2020斑塊數":4,"2024斑塊數":3,"斑塊數增加率_pct":0.0,"2020平均斑塊面積_ha":1.103,"2024平均斑塊面積_ha":4.44,"平均斑塊面積下降率_pct":0.0,"道路切割密度_km_per_km2":3.547,"建成區邊界切割密度_km_per_km2":0.115,"孤立小斑塊比例_pct":13.95,"距大型連續綠地平均距離_m":45.8,"score_面積減少":29.87551867219917,"score_斑塊增加":42.531120331950206,"score_平均斑塊縮小":26.970954356846473,"score_道路建成區切割":40.767634854771785,"score_孤立比例":49.79253112033195,"score_距大型綠地":23.236514522821576,"綜合破碎化分數":35.5,"破碎化等級":"低","判定原因":"面積減少0.0%；斑塊增加0.0%；平均斑塊縮小0.0%；道路密度3.55 km/km²；孤立比例13.9%；距大型綠地46m","2021面積_ha":4.77,"2022面積_ha":6.39,"2023面積_ha":6.48}},{"type":"Feature","geometry":{"type":"Polygon","coordinates":[[[121.7513248419758,24.738297837864863],[121.75137910318823,24.747325751653076],[121.76126498840476,24.747275861692422],[121.76121001344521,24.73824796850008],[121.7513248419758,24.738297837864863]]]},"properties":{"grid_id":"G048_044","綠地類型":"公園／都市綠地","中心經度":121.756295,"中心緯度":24.742787,"分析面積_km2":1.04,"2020面積_ha":1.35,"2024面積_ha":1.89,"面積減少率_pct":0.0,"2020斑塊數":1,"2024斑塊數":1,"斑塊數增加率_pct":0.0,"2020平均斑塊面積_ha":1.53,"2024平均斑塊面積_ha":2.07,"平均斑塊面積下降率_pct":0.0,"道路切割密度_km_per_km2":21.021,"建成區邊界切割密度_km_per_km2":0.346,"孤立小斑塊比例_pct":0.0,"距大型連續綠地平均距離_m":2298.0,"score_面積減少":29.87551867219917,"score_斑塊增加":42.531120331950206,"score_平均斑塊縮小":26.970954356846473,"score_道路建成區切割":90.14522821576764,"score_孤立比例":20.539419087136928,"score_距大型綠地":52.282157676348554,"綜合破碎化分數":43.7,"破碎化等級":"低","判定原因":"面積減少0.0%；斑塊增加0.0%；平均斑塊縮小0.0%；道路密度21.02 km/km²；孤立比例0.0%；距大型綠地2298m","2021面積_ha":1.44,"2022面積_ha":1.62,"2023面積_ha":1.71}},{"type":"Feature","geometry":{"type":"Polygon","coordinates":[[[121.59324444737544,24.75706351257975],[121.5932116732207,24.75016040062806],[121.5929836,24.750174499999996],[121.5925024,24.7502564],[121.592086,24.7503812],[121.59157750000001,24.7506148],[121.5909956,24.750838099999996],[121.5906704,24.7510062],[121.59052140000001,24.751121999999995],[121.5903529,24.751285900000003],[121.59024810000001,24.751447799999994],[121.59003840000001,24.75190479999999],[121.5899465,24.7522286],[121.5898787,24.753029499999993],[121.58975550000001,24.753593799999997],[121.58926490000002,24.754776],[121.58905559999998,24.755079],[121.58904319999999,24.7551492],[121.58940672534362,24.757078658901808],[121.59324444737544,24.75706351257975]]]},"properties":{"grid_id":"G049_027","綠地類型":"公園／都市綠地","中心經度":121.59137,"中心緯度":24.754178,"分析面積_km2":0.276,"2020面積_ha":6.12,"2024面積_ha":6.12,"面積減少率_pct":0.0,"2020斑塊數":1,"2024斑塊數":1,"斑塊數增加率_pct":0.0,"2020平均斑塊面積_ha":40.86,"2024平均斑塊面積_ha":40.86,"平均斑塊面積下降率_pct":0.0,"道路切割密度_km_per_km2":1.737,"建成區邊界切割密度_km_per_km2":0.0,"孤立小斑塊比例_pct":0.0,"距大型連續綠地平均距離_m":0.0,"score_面積減少":29.87551867219917,"score_斑塊增加":42.531120331950206,"score_平均斑塊縮小":26.970954356846473,"score_道路建成區切割":12.240663900414937,"score_孤立比例":20.539419087136928,"score_距大型綠地":9.95850622406639,"綜合破碎化分數":23.7,"破碎化等級":"低","判定原因":"面積減少0.0%；斑塊增加0.0%；平均斑塊縮小0.0%；道路密度1.74 km/km²；孤立比例0.0%；距大型綠地0m","2021面積_ha":6.12,"2022面積_ha":6.12,"2023面積_ha":6.12}},{"type":"Feature","geometry":{"type":"Polygon","coordinates":[[[121.59324444737544,24.75706351257975],[121.60313142743541,24.757024038835446],[121.6030878521871,24.74799585935428],[121.59598702514793,24.748024265723856],[121.5961564,24.748204099999995],[121.5961539,24.748344699999997],[121.59604940000001,24.748417299999993],[121.5955521,24.74853179999999],[121.59535870000002,24.7486461],[121.59525349999998,24.748802699999995],[121.5948044,24.7499298],[121.5946613,24.750158599999992],[121.5945912,24.7502223],[121.5944684,24.750246200000003],[121.593757,24.750156399999998],[121.59324080000002,24.7501586],[121.5932116732207,24.75016040062806],[121.59324444737544,24.75706351257975]]]},"properties":{"grid_id":"G049_028","綠地類型":"公園／都市綠地","中心經度":121.598172,"中心緯度":24.753638,"分析面積_km2":0.981,"2020面積_ha":12.06,"2024面積_ha":12.06,"面積減少率_pct":0.0,"2020斑塊數":1,"2024斑塊數":1,"斑塊數增加率_pct":0.0,"2020平均斑塊面積_ha":40.86,"2024平均斑塊面積_ha":40.86,"平均斑塊面積下降率_pct":0.0,"道路切割密度_km_per_km2":2.141,"建成區邊界切割密度_km_per_km2":0.0,"孤立小斑塊比例_pct":0.0,"距大型連續綠地平均距離_m":0.0,"score_面積減少":29.87551867219917,"score_斑塊增加":42.531120331950206,"score_平均斑塊縮小":26.970954356846473,"score_道路建成區切割":14.315352697095435,"score_孤立比例":20.539419087136928,"score_距大型綠地":9.95850622406639,"綜合破碎化分數":24.0,"破碎化等級":"低","判定原因":"面積減少0.0%；斑塊增加0.0%；平均斑塊縮小0.0%；道路密度2.14 km/km²；孤立比例0.0%；距大型綠地0m","2021面積_ha":12.06,"2022面積_ha":11.43,"2023面積_ha":12.06}},{"type":"Feature","geometry":{"type":"Polygon","coordinates":[[[121.71183530186339,24.747518791589737],[121.7118867330091,24.756546774095924],[121.72177343584191,24.75649947258906],[121.7217212905691,24.747471509604893],[121.71183530186339,24.747518791589737]]]},"properties":{"grid_id":"G049_040","綠地類型":"公園／都市綠地","中心經度":121.716804,"中心緯度":24.752009,"分析面積_km2":1.04,"2020面積_ha":10.71,"2024面積_ha":11.43,"面積減少率_pct":0.0,"2020斑塊數":2,"2024斑塊數":2,"斑塊數增加率_pct":0.0,"2020平均斑塊面積_ha":8.55,"2024平均斑塊面積_ha":11.79,"平均斑塊面積下降率_pct":0.0,"道路切割密度_km_per_km2":11.505,"建成區邊界切割密度_km_per_km2":1.096,"孤立小斑塊比例_pct":0.0,"距大型連續綠地平均距離_m":185.8,"score_面積減少":29.87551867219917,"score_斑塊增加":42.531120331950206,"score_平均斑塊縮小":26.970954356846473,"score_道路建成區切割":89.2116182572614,"score_孤立比例":20.539419087136928,"score_距大型綠地":26.970954356846473,"綜合破碎化分數":39.3,"破碎化等級":"低","判定原因":"面積減少0.0%；斑塊增加0.0%；平均斑塊縮小0.0%；道路密度11.51 km/km²；孤立比例0.0%；距大型綠地186m","2021面積_ha":11.52,"2022面積_ha":9.81,"2023面積_ha":10.89}},{"type":"Feature","geometry":{"type":"Polygon","coordinates":[[[121.59324444737544,24.75706351257975],[121.58940672534362,24.757078658901808],[121.5894154,24.7571247],[121.58957249999999,24.757383699999995],[121.5898103,24.757656],[121.59026279999999,24.758018100000005],[121.59060999999998,24.7583972],[121.59086550000002,24.7587766],[121.59087870000002,24.758926399999993],[121.5908084,24.759504499999995],[121.5907242,24.759812699999998],[121.5905811,24.760086299999998],[121.59050670000002,24.760371599999996],[121.5905249,24.760654300000002],[121.59072840000002,24.761176599999995],[121.5910674,24.761675499999992],[121.5920881,24.762818799999998],[121.59276130000002,24.763897399999998],[121.59328001412344,24.764551909450034],[121.59324444737544,24.75706351257975]]]},"properties":{"grid_id":"G050_027","綠地類型":"公園／都市綠地","中心經度":121.591945,"中心緯度":24.76091,"分析面積_km2":0.193,"2020面積_ha":14.49,"2024面積_ha":14.49,"面積減少率_pct":0.0,"2020斑塊數":1,"2024斑塊數":1,"斑塊數增加率_pct":0.0,"2020平均斑塊面積_ha":40.86,"2024平均斑塊面積_ha":40.86,"平均斑塊面積下降率_pct":0.0,"道路切割密度_km_per_km2":4.206,"建成區邊界切割密度_km_per_km2":0.0,"孤立小斑塊比例_pct":0.0,"距大型連續綠地平均距離_m":0.0,"score_面積減少":29.87551867219917,"score_斑塊增加":42.531120331950206,"score_平均斑塊縮小":26.970954356846473,"score_道路建成區切割":22.199170124481327,"score_孤立比例":20.539419087136928,"score_距大型綠地":9.95850622406639,"綜合破碎化分數":25.3,"破碎化等級":"低","判定原因":"面積減少0.0%；斑塊增加0.0%；平均斑塊縮小0.0%；道路密度4.21 km/km²；孤立比例0.0%；距大型綠地0m","2021面積_ha":14.49,"2022面積_ha":14.49,"2023面積_ha":14.49}},{"type":"Feature","geometry":{"type":"Polygon","coordinates":[[[121.60317502387582,24.766052207367242],[121.60313142743541,24.757024038835446],[121.59324444737544,24.75706351257975],[121.59328001412344,24.764551909450034],[121.5934993,24.764828600000005],[121.5942943,24.765550499999996],[121.59466290000002,24.765793399999996],[121.595061,24.766055799999997],[121.59511254185146,24.766084456889384],[121.60317502387582,24.766052207367242]]]},"properties":{"grid_id":"G050_028","綠地類型":"公園／都市綠地","中心經度":121.598206,"中心緯度":24.760788,"分析面積_km2":1.021,"2020面積_ha":9.9,"2024面積_ha":9.9,"面積減少率_pct":0.0,"2020斑塊數":1,"2024斑塊數":1,"斑塊數增加率_pct":0.0,"2020平均斑塊面積_ha":40.86,"2024平均斑塊面積_ha":40.86,"平均斑塊面積下降率_pct":0.0,"道路切割密度_km_per_km2":2.146,"建成區邊界切割密度_km_per_km2":0.0,"孤立小斑塊比例_pct":0.0,"距大型連續綠地平均距離_m":0.0,"score_面積減少":29.87551867219917,"score_斑塊增加":42.531120331950206,"score_平均斑塊縮小":26.970954356846473,"score_道路建成區切割":14.522821576763484,"score_孤立比例":20.539419087136928,"score_距大型綠地":9.95850622406639,"綜合破碎化分數":24.1,"破碎化等級":"低","判定原因":"面積減少0.0%；斑塊增加0.0%；平均斑塊縮小0.0%；道路密度2.15 km/km²；孤立比例0.0%；距大型綠地0m","2021面積_ha":9.9,"2022面積_ha":9.9,"2023面積_ha":9.9}},{"type":"Feature","geometry":{"type":"Polygon","coordinates":[[[121.73166011331513,24.756451518809023],[121.73171299841385,24.765479451019413],[121.74160036463839,24.765430824909615],[121.74154676508145,24.756402912762443],[121.73166011331513,24.756451518809023]]]},"properties":{"grid_id":"G050_042","綠地類型":"公園／都市綠地","中心經度":121.73663,"中心緯度":24.760941,"分析面積_km2":1.04,"2020面積_ha":10.44,"2024面積_ha":17.55,"面積減少率_pct":0.0,"2020斑塊數":4,"2024斑塊數":3,"斑塊數增加率_pct":0.0,"2020平均斑塊面積_ha":8.955,"2024平均斑塊面積_ha":11.22,"平均斑塊面積下降率_pct":0.0,"道路切割密度_km_per_km2":11.188,"建成區邊界切割密度_km_per_km2":2.336,"孤立小斑塊比例_pct":6.15,"距大型連續綠地平均距離_m":27.8,"score_面積減少":29.87551867219917,"score_斑塊增加":42.531120331950206,"score_平均斑塊縮小":26.970954356846473,"score_道路建成區切割":90.04149377593362,"score_孤立比例":46.47302904564315,"score_距大型綠地":21.57676348547718,"綜合破碎化分數":42.9,"破碎化等級":"低","判定原因":"面積減少0.0%；斑塊增加0.0%；平均斑塊縮小0.0%；道路密度11.19 km/km²；孤立比例6.2%；距大型綠地28m","2021面積_ha":9.9,"2022面積_ha":12.6,"2023面積_ha":13.23}},{"type":"Feature","geometry":{"type":"Polygon","coordinates":[[[121.74154676508145,24.756402912762443],[121.74160036463839,24.765430824909615],[121.75148770480047,24.76538154627078],[121.75143339079366,24.756353654456042],[121.74154676508145,24.756402912762443]]]},"properties":{"grid_id":"G050_043","綠地類型":"公園／都市綠地","中心經度":121.746517,"中心緯度":24.760892,"分析面積_km2":1.04,"2020面積_ha":17.55,"2024面積_ha":19.98,"面積減少率_pct":0.0,"2020斑塊數":3,"2024斑塊數":2,"斑塊數增加率_pct":0.0,"2020平均斑塊面積_ha":10.5,"2024平均斑塊面積_ha":21.06,"平均斑塊面積下降率_pct":0.0,"道路切割密度_km_per_km2":16.84,"建成區邊界切割密度_km_per_km2":1.99,"孤立小斑塊比例_pct":0.0,"距大型連續綠地平均距離_m":0.0,"score_面積減少":29.87551867219917,"score_斑塊增加":42.531120331950206,"score_平均斑塊縮小":26.970954356846473,"score_道路建成區切割":98.34024896265561,"score_孤立比例":20.539419087136928,"score_距大型綠地":9.95850622406639,"綜合破碎化分數":38.0,"破碎化等級":"低","判定原因":"面積減少0.0%；斑塊增加0.0%；平均斑塊縮小0.0%；道路密度16.84 km/km²；孤立比例0.0%；距大型綠地0m","2021面積_ha":16.83,"2022面積_ha":17.55,"2023面積_ha":18.81}},{"type":"Feature","geometry":{"type":"Polygon","coordinates":[[[121.75143339079366,24.756353654456042],[121.75148770480047,24.76538154627078],[121.76137501855281,24.765331615109726],[121.7613199901045,24.75630374389663],[121.75143339079366,24.756353654456042]]]},"properties":{"grid_id":"G050_044","綠地類型":"公園／都市綠地","中心經度":121.756404,"中心緯度":24.760843,"分析面積_km2":1.04,"2020面積_ha":11.34,"2024面積_ha":11.52,"面積減少率_pct":0.0,"2020斑塊數":4,"2024斑塊數":4,"斑塊數增加率_pct":0.0,"2020平均斑塊面積_ha":8.64,"2024平均斑塊面積_ha":13.477,"平均斑塊面積下降率_pct":0.0,"道路切割密度_km_per_km2":21.223,"建成區邊界切割密度_km_per_km2":1.211,"孤立小斑塊比例_pct":0.0,"距大型連續綠地平均距離_m":269.1,"score_面積減少":29.87551867219917,"score_斑塊增加":42.531120331950206,"score_平均斑塊縮小":26.970954356846473,"score_道路建成區切割":98.75518672199169,"score_孤立比例":20.539419087136928,"score_距大型綠地":27.800829875518673,"綜合破碎化分數":41.1,"破碎化等級":"低","判定原因":"面積減少0.0%；斑塊增加0.0%；平均斑塊縮小0.0%；道路密度21.22 km/km²；孤立比例0.0%；距大型綠地269m","2021面積_ha":10.71,"2022面積_ha":10.35,"2023面積_ha":11.07}},{"type":"Feature","geometry":{"type":"Polygon","coordinates":[[[121.7613199901045,24.75630374389663],[121.76137501855281,24.765331615109726],[121.77126230554803,24.76528103143335],[121.77120656266668,24.75625318109112],[121.7613199901045,24.75630374389663]]]},"properties":{"grid_id":"G050_045","綠地類型":"公園／都市綠地","中心經度":121.766291,"中心緯度":24.760792,"分析面積_km2":1.04,"2020面積_ha":4.86,"2024面積_ha":5.22,"面積減少率_pct":0.0,"2020斑塊數":1,"2024斑塊數":1,"斑塊數增加率_pct":0.0,"2020平均斑塊面積_ha":5.13,"2024平均斑塊面積_ha":5.49,"平均斑塊面積下降率_pct":0.0,"道路切割密度_km_per_km2":16.869,"建成區邊界切割密度_km_per_km2":0.548,"孤立小斑塊比例_pct":0.0,"距大型連續綠地平均距離_m":941.1,"score_面積減少":29.87551867219917,"score_斑塊增加":42.531120331950206,"score_平均斑塊縮小":26.970954356846473,"score_道路建成區切割":93.67219917012449,"score_孤立比例":20.539419087136928,"score_距大型綠地":36.51452282157676,"綜合破碎化分數":41.7,"破碎化等級":"低","判定原因":"面積減少0.0%；斑塊增加0.0%；平均斑塊縮小0.0%；道路密度16.87 km/km²；孤立比例0.0%；距大型綠地941m","2021面積_ha":4.68,"2022面積_ha":4.59,"2023面積_ha":4.59}},{"type":"Feature","geometry":{"type":"Polygon","coordinates":[[[121.72182560647433,24.765527424593447],[121.72187780247444,24.774555365615097],[121.73176590922765,24.774507372244283],[121.73171299841385,24.765479451019413],[121.72182560647433,24.765527424593447]]]},"properties":{"grid_id":"G051_041","綠地類型":"公園／都市綠地","中心經度":121.726796,"中心緯度":24.770017,"分析面積_km2":1.04,"2020面積_ha":1.89,"2024面積_ha":2.52,"面積減少率_pct":0.0,"2020斑塊數":1,"2024斑塊數":1,"斑塊數增加率_pct":0.0,"2020平均斑塊面積_ha":1.89,"2024平均斑塊面積_ha":2.61,"平均斑塊面積下降率_pct":0.0,"道路切割密度_km_per_km2":14.245,"建成區邊界切割密度_km_per_km2":0.202,"孤立小斑塊比例_pct":0.0,"距大型連續綠地平均距離_m":747.2,"score_面積減少":29.87551867219917,"score_斑塊增加":42.531120331950206,"score_平均斑塊縮小":26.970954356846473,"score_道路建成區切割":81.22406639004149,"score_孤立比例":20.539419087136928,"score_距大型綠地":33.60995850622407,"綜合破碎化分數":39.1,"破碎化等級":"低","判定原因":"面積減少0.0%；斑塊增加0.0%；平均斑塊縮小0.0%；道路密度14.24 km/km²；孤立比例0.0%；距大型綠地747m","2021面積_ha":2.16,"2022面積_ha":0.09,"2023面積_ha":1.71}},{"type":"Feature","geometry":{"type":"Polygon","coordinates":[[[121.74160036463839,24.765430824909615],[121.74165399025769,24.774458726068456],[121.75154204521705,24.77440942709433],[121.75148770480047,24.76538154627078],[121.74160036463839,24.765430824909615]]]},"properties":{"grid_id":"G051_043","綠地類型":"公園／都市綠地","中心經度":121.746571,"中心緯度":24.76992,"分析面積_km2":1.04,"2020面積_ha":0.27,"2024面積_ha":0.45,"面積減少率_pct":0.0,"2020斑塊數":1,"2024斑塊數":1,"斑塊數增加率_pct":0.0,"2020平均斑塊面積_ha":23.22,"2024平均斑塊面積_ha":29.25,"平均斑塊面積下降率_pct":0.0,"道路切割密度_km_per_km2":13.206,"建成區邊界切割密度_km_per_km2":0.087,"孤立小斑塊比例_pct":0.0,"距大型連續綠地平均距離_m":0.0,"score_面積減少":29.87551867219917,"score_斑塊增加":42.531120331950206,"score_平均斑塊縮小":26.970954356846473,"score_道路建成區切割":73.34024896265561,"score_孤立比例":20.539419087136928,"score_距大型綠地":9.95850622406639,"綜合破碎化分數":33.9,"破碎化等級":"低","判定原因":"面積減少0.0%；斑塊增加0.0%；平均斑塊縮小0.0%；道路密度13.21 km/km²；孤立比例0.0%；距大型綠地0m","2021面積_ha":0.45,"2022面積_ha":0.27,"2023面積_ha":0.54}},{"type":"Feature","geometry":{"type":"Polygon","coordinates":[[[121.81081117901091,24.76507217171597],[121.81086980803114,24.774099924873582],[121.8180108497577,24.774061086485467],[121.8180199,24.773929999999996],[121.8180259,24.7732182],[121.818036,24.772030399999995],[121.8180463,24.7708162],[121.81807,24.76801],[121.81838,24.76544],[121.81848058728148,24.76503046032242],[121.81081117901091,24.76507217171597]]]},"properties":{"grid_id":"G051_050","綠地類型":"公園／都市綠地","中心經度":121.814449,"中心緯度":24.769433,"分析面積_km2":0.772,"2020面積_ha":6.12,"2024面積_ha":6.39,"面積減少率_pct":0.0,"2020斑塊數":1,"2024斑塊數":1,"斑塊數增加率_pct":0.0,"2020平均斑塊面積_ha":14.04,"2024平均斑塊面積_ha":13.59,"平均斑塊面積下降率_pct":3.21,"道路切割密度_km_per_km2":7.226,"建成區邊界切割密度_km_per_km2":0.427,"孤立小斑塊比例_pct":0.0,"距大型連續綠地平均距離_m":0.0,"score_面積減少":29.87551867219917,"score_斑塊增加":42.531120331950206,"score_平均斑塊縮小":59.128630705394194,"score_道路建成區切割":71.36929460580913,"score_孤立比例":20.539419087136928,"score_距大型綠地":9.95850622406639,"綜合破碎化分數":38.9,"破碎化等級":"低","判定原因":"面積減少0.0%；斑塊增加0.0%；平均斑塊縮小3.2%；道路密度7.23 km/km²；孤立比例0.0%；距大型綠地0m","2021面積_ha":6.39,"2022面積_ha":6.3,"2023面積_ha":6.03}},{"type":"Feature","geometry":{"type":"Polygon","coordinates":[[[121.83130807706343,24.873295600463603],[121.83136848653272,24.88232317649484],[121.84126489496498,24.8822677293025],[121.84120376660154,24.873240176068197],[121.83130807706343,24.873295600463603]]]},"properties":{"grid_id":"G063_052","綠地類型":"公園／都市綠地","中心經度":121.836286,"中心緯度":24.877782,"分析面積_km2":1.04,"2020面積_ha":2.52,"2024面積_ha":2.52,"面積減少率_pct":0.0,"2020斑塊數":1,"2024斑塊數":1,"斑塊數增加率_pct":0.0,"2020平均斑塊面積_ha":25.83,"2024平均斑塊面積_ha":26.28,"平均斑塊面積下降率_pct":0.0,"道路切割密度_km_per_km2":8.651,"建成區邊界切割密度_km_per_km2":0.0,"孤立小斑塊比例_pct":0.0,"距大型連續綠地平均距離_m":0.0,"score_面積減少":29.87551867219917,"score_斑塊增加":42.531120331950206,"score_平均斑塊縮小":26.970954356846473,"score_道路建成區切割":41.078838174273855,"score_孤立比例":20.539419087136928,"score_距大型綠地":9.95850622406639,"綜合破碎化分數":28.5,"破碎化等級":"低","判定原因":"面積減少0.0%；斑塊增加0.0%；平均斑塊縮小0.0%；道路密度8.65 km/km²；孤立比例0.0%；距大型綠地0m","2021面積_ha":2.52,"2022面積_ha":2.52,"2023面積_ha":2.52}},{"type":"Feature","geometry":{"type":"Polygon","coordinates":[[[121.84126489496498,24.8822677293025],[121.84132605298655,24.891295271479475],[121.85122315099417,24.891239145257618],[121.85121907785656,24.890645033935545],[121.8512069,24.890626599999994],[121.85106780000001,24.890429400000002],[121.851001,24.8903154],[121.85067800000002,24.8896886],[121.85024099999998,24.8888403],[121.84976839999999,24.8878688],[121.84970120000001,24.887395700000003],[121.84954000000002,24.8863799],[121.84924999999998,24.885860100000002],[121.84888000000001,24.8854276],[121.84868080000001,24.8848371],[121.84823040000002,24.884356000000004],[121.84790379999998,24.8840363],[121.8477674,24.883800299999997],[121.8476734,24.883702899999992],[121.84737659999999,24.883345899999995],[121.8470117,24.882886999999997],[121.8466768,24.8824197],[121.84655067949866,24.882237845513657],[121.84126489496498,24.8822677293025]]]},"properties":{"grid_id":"G064_053","綠地類型":"公園／都市綠地","中心經度":121.845459,"中心緯度":24.886911,"分析面積_km2":0.841,"2020面積_ha":1.26,"2024面積_ha":1.26,"面積減少率_pct":0.0,"2020斑塊數":1,"2024斑塊數":1,"斑塊數增加率_pct":0.0,"2020平均斑塊面積_ha":1.26,"2024平均斑塊面積_ha":1.26,"平均斑塊面積下降率_pct":0.0,"道路切割密度_km_per_km2":7.388,"建成區邊界切割密度_km_per_km2":0.0,"孤立小斑塊比例_pct":100.0,"距大型連續綠地平均距離_m":112.7,"score_面積減少":29.87551867219917,"score_斑塊增加":42.531120331950206,"score_平均斑塊縮小":26.970954356846473,"score_道路建成區切割":37.13692946058091,"score_孤立比例":80.29045643153528,"score_距大型綠地":24.896265560165975,"綜合破碎化分數":40.3,"破碎化等級":"低","判定原因":"面積減少0.0%；斑塊增加0.0%；平均斑塊縮小0.0%；道路密度7.39 km/km²；孤立比例100.0%；距大型綠地113m","2021面積_ha":1.26,"2022面積_ha":1.26,"2023面積_ha":1.26}}]}